[{"plz": "90403", "ort": "Nürnberg", "name": "Nürnberg", "street": "Äußere Laufer Gasse 25", "phone": "0911-231-0"}, 
{"plz": "90403", "ort": "Nürnberg", "name": "Nürnberg", "street": "Fünferplatz 2"}, 
{"plz": "90427", "ort": "Nürnberg", "name": "Nürnberg Nord", "street": "Großgründlacher Hauptstr. 51", "phone": "0911-231-4134"}, 
{"plz": "90455", "ort": "Nürnberg", "name": "Nürnberg Süd", "street": "Hans-Traut-Str. 8", "phone": "0911-2314-124"}, 
{"plz": "90475", "ort": "Nürnberg", "name": "Nürnberg Ost", "street": "Fischbacher Hauptstr. 121", "phone": "0911-2315-061"}, 
{"plz": "90505", "ort": "Zirndorf", "name": "Zirndorf, St", "street": "Postfach 1160"}, 
{"plz": "90518", "ort": "Altdorf b.Nürnberg", "name": "Altdorf b.Nürnberg, St", "street": "Röderstraße 10"}, 
{"plz": "90519", "ort": "Oberasbach", "name": "Oberasbach, St", "street": "Postfach 1151"}, 
{"plz": "90523", "ort": "Wendelstein", "name": "Wendelstein, M", "street": "Postfach 1160"}, 
{"plz": "90531", "ort": "Feucht", "name": "Feucht, M", "street": "Postfach 1109"}, 
{"plz": "90542", "ort": "Eckental", "name": "Eckental, M", "street": "Postfach 25"}, 
{"plz": "90547", "ort": "Stein", "name": "Stein, St", "street": "Hauptsr. 56"}, 
{"plz": "90552", "ort": "Röthenbach a.d.Pegnitz", "name": "Röthenbach a.d.Pegnitz, St", "street": "Friedrichsplatz 21"}, 
{"plz": "90553", "ort": "Cadolzburg", "name": "Cadolzburg, M", "street": "Postfach 6"}, 
{"plz": "90559", "ort": "Burgthann", "name": "Burgthann", "street": "Rathausplatz 1"}, 
{"plz": "90560", "ort": "Heroldsberg", "name": "Heroldsberg, M", "street": "Postfach 20"}, 
{"plz": "90562", "ort": "Kalchreuth", "name": "Kalchreuth", "street": "Rathausstraße 1"}, 
{"plz": "90571", "ort": "Schwaig b.Nürnberg", "name": "Schwaig b.Nürnberg", "street": "Gartenstraße 1"}, 
{"plz": "90574", "ort": "Roßtal", "name": "Roßtal, M", "street": "Marktplatz 1"}, 
{"plz": "90579", "ort": "Langenzenn", "name": "Langenzenn, St", "street": "Friedrich-Ebert-Straße 7"}, 
{"plz": "90580", "ort": "Allersberg", "name": "Allersberg, M", "street": "Postfach 20"}, 
{"plz": "90587", "ort": "Veitsbronn", "name": "Seukendorf", "street": "Nürnberger Straße 2"}, 
{"plz": "90587", "ort": "Obermichelbach", "name": "Obermichelbach", "street": "Vacher Straße 25"}, 
{"plz": "90592", "ort": "Schwarzenbruck", "name": "Schwarzenbruck", "street": "Regensburger Straße 16"}, 
{"plz": "90596", "ort": "Schwanstetten", "name": "Schwanstetten, M", "street": "Rathausplatz 1"}, 
{"plz": "90597", "ort": "Dietenhofen", "name": "Dietenhofen, M", "street": "Postfach 8"}, 
{"plz": "90602", "ort": "Pyrbaum", "name": "Pyrbaum, M", "street": "Marktplatz 1"}, 
{"plz": "90603", "ort": "Rückersdorf", "name": "Rückersdorf", "street": "Postfach 60"}, 
{"plz": "90610", "ort": "Winkelhaid", "name": "Winkelhaid", "street": "Penzenhofener Straße 1"}, 
{"plz": "90613", "ort": "Großhabersdorf", "name": "Großhabersdorf", "street": "Nürnberger Straße 12"}, 
{"plz": "90614", "ort": "Ammerndorf", "name": "Ammerndorf, M", "street": "Cadolzburger Straße 3"}, 
{"plz": "90616", "ort": "Neuhof a.d.Zenn", "name": "Neuhof a.d.Zenn, M", "street": "Marktplatz 10"}, 
{"plz": "90617", "ort": "Puschendorf", "name": "Puschendorf", "street": "Neustädter Straße 7"}, 
{"plz": "90744", "ort": "Fürth", "name": "Fürth", "street": null}, 
{"plz": "90763", "ort": "Fürth", "name": "Fürth Süd", "street": "Schwabacher Str. 170\n1. Stock/Zimmer 121", "phone": "0911-974-2387-und-2331", "email": "ewo@fuerth.de"}]