[{"plz": "96031", "ort": "Bamberg", "name": "Bamberg", "street": "Postfach 110323"}, 
{"plz": "96047", "ort": "Bamberg", "name": "Bamberg Rathaus Maxplatz", "street": "Maximiliansplatz 3\nRaum 114", "phone": "0951-87-1272", "email": "stadtverwaltung@stadt.bamberg.de"}, 
{"plz": "96100", "ort": "Hallstadt", "name": "Hallstadt, St", "street": "Postfach 1240"}, 
{"plz": "96104", "ort": "Ebern", "name": "Rentweinsdorf, M", "street": "Postfach 1340"}, 
{"plz": "96110", "ort": "Scheßlitz", "name": "Scheßlitz, St", "street": "Hauptstraße 34"}, 
{"plz": "96112", "ort": "Hirschaid", "name": "Hirschaid, M", "street": "Postfach 1260"}, 
{"plz": "96115", "ort": "Memmelsdorf", "name": "Memmelsdorf", "street": "Postfach 1241"}, 
{"plz": "96120", "ort": "Bischberg", "name": "Bischberg", "street": "Schulstraße 16"}, 
{"plz": "96121", "ort": "Litzendorf", "name": "Litzendorf", "street": "Postfach 1141"}, 
{"plz": "96124", "ort": "Maroldsweisach", "name": "Maroldsweisach, M", "street": "Postfach 20"}, 
{"plz": "96127", "ort": "Strullendorf", "name": "Strullendorf", "street": "Postfach 45"}, 
{"plz": "96132", "ort": "Schlüsselfeld", "name": "Schlüsselfeld, St", "street": "Marktplatz 5"}, 
{"plz": "96133", "ort": "Stegaurach", "name": "Stegaurach", "street": "Postfach 61"}, 
{"plz": "96138", "ort": "Burgebrach", "name": "Schönbrunn i.Steigerwald", "street": "Hauptstraße 1-3"}, 
{"plz": "96142", "ort": "Hollfeld", "name": "Hollfeld, St", "street": "Marienplatz 18"}, 
{"plz": "96145", "ort": "Seßlach", "name": "Seßlach, St", "street": "Marktplatz 98"}, 
{"plz": "96146", "ort": "Altendorf", "name": "Altendorf", "street": "Jurastraße 1"}, 
{"plz": "96148", "ort": "Baunach", "name": "Baunach, St", "street": "Bamberger Straße 1"}, 
{"plz": "96149", "ort": "Breitengüßbach", "name": "Breitengüßbach", "street": "Kirchplatz 4"}, 
{"plz": "96152", "ort": "Burghaslach", "name": "Burghaslach, M", "street": "Kirchplatz 12"}, 
{"plz": "96155", "ort": "Buttenheim", "name": "Buttenheim, M", "street": "Hauptstraße 15"}, 
{"plz": "96156", "ort": "Ebrach", "name": "Ebrach, M", "street": "Postfach 80"}, 
{"plz": "96157", "ort": "Ebrach", "name": "Burgwindheim, M", "street": "Rathausplatz 2"}, 
{"plz": "96158", "ort": "Frensdorf", "name": "Frensdorf", "street": "Kaulberg 1"}, 
{"plz": "96160", "ort": "Geiselwind", "name": "Geiselwind, M", "street": "Postfach 63"}, 
{"plz": "96163", "ort": "Gundelsheim", "name": "Gundelsheim", "street": "Karmelitenstraße 11"}, 
{"plz": "96164", "ort": "Kemmern", "name": "Kemmern", "street": "Hauptstraße 2"}, 
{"plz": "96170", "ort": "Lisberg", "name": "Priesendorf", "street": "Am Schloß 6"}, 
{"plz": "96173", "ort": "Oberhaid", "name": "Oberhaid", "street": "Rathausplatz 1"}, 
{"plz": "96175", "ort": "Pettstadt", "name": "Pettstadt", "street": "Kirchplatz 10"}, 
{"plz": "96178", "ort": "Pommersfelden", "name": "Pommersfelden", "street": "Hauptstraße 11"}, 
{"plz": "96179", "ort": "Rattelsdorf", "name": "Rattelsdorf, M", "street": "Postfach 1153"}, 
{"plz": "96181", "ort": "Rauhenebrach", "name": "Rauhenebrach", "street": "Hauptstraße 1"}, 
{"plz": "96187", "ort": "Stadelhofen", "name": "Stadelhofen", "street": "Steinfeld 86"}, 
{"plz": "96190", "ort": "Untermerzbach", "name": "Untermerzbach", "street": "Marktplatz 8"}, 
{"plz": "96191", "ort": "Viereth-Trunstadt", "name": "Viereth-Trunstadt", "street": "Weiherer Straße 6"}, 
{"plz": "96193", "ort": "Wachenroth", "name": "Wachenroth, M", "street": "Hauptstraße 23"}, 
{"plz": "96194", "ort": "Walsdorf", "name": "Walsdorf", "street": "Schulstraße 10"}, 
{"plz": "96199", "ort": "Zapfendorf", "name": "Zapfendorf, M", "street": "Herrngasse 1"}, 
{"plz": "96202", "ort": "Lichtenfels", "name": "Lichtenfels, St", "street": "Postfach 1220"}, 
{"plz": "96220", "ort": "Burgkunstadt", "name": "Burgkunstadt, St", "street": "Postfach 1255"}, 
{"plz": "96226", "ort": "Bad Staffelstein", "name": "Bad Staffelstein, St", "street": "Postfach 1208"}, 
{"plz": "96234", "ort": "Ebersdorf b.Coburg", "name": "Ebersdorf b.Coburg", "street": "Postfach 1230"}, 
{"plz": "96238", "ort": "Sonnefeld", "name": "Sonnefeld", "street": "Postfach 1169"}, 
{"plz": "96244", "ort": "Michelau i.OFr.", "name": "Michelau i.OFr.", "street": "Postfach 1226"}, 
{"plz": "96250", "ort": "Ebensfeld", "name": "Ebensfeld, M", "street": "Rinnigstraße 6"}, 
{"plz": "96253", "ort": "Untersiemau", "name": "Untersiemau", "street": "Rathausplatz 3"}, 
{"plz": "96255", "ort": "Redwitz a.d.Rodach", "name": "Redwitz a.d.Rodach", "street": "Postfach 100"}, 
{"plz": "96257", "ort": "Marktgraitz", "name": "Marktgraitz, M", "street": "Marktplatz 13"}, 
{"plz": "96258", "ort": "Weismain", "name": "Weismain, St", "street": "Postfach 27"}, 
{"plz": "96264", "ort": "Altenkunstadt", "name": "Altenkunstadt", "street": "Marktplatz 2"}, 
{"plz": "96266", "ort": "Mitwitz", "name": "Schneckenlohe", "street": "Postfach 1260"}, 
{"plz": "96269", "ort": "Großheirath", "name": "Großheirath", "street": "Schulstraße 34"}, 
{"plz": "96271", "ort": "Grub a.Forst", "name": "Niederfüllbach", "street": "Coburger Straße 23"}, 
{"plz": "96272", "ort": "Hochstadt a.Main", "name": "Hochstadt a.Main", "street": "Rathausstraße 1"}, 
{"plz": "96274", "ort": "Itzgrund", "name": "Itzgrund", "street": "Rathausstraße 4"}, 
{"plz": "96275", "ort": "Marktzeuln", "name": "Hochstadt a.Main", "street": "Am Flecken 29"}, 
{"plz": "96279", "ort": "Weidhausen b.Coburg", "name": "Weidhausen b.Coburg", "street": "Hauptstraße 2"}, 
{"plz": "96307", "ort": "Kronach", "name": "Kronach, St", "street": "Postfach 1761"}, 
{"plz": "96324", "ort": "Küps", "name": "Küps, M", "street": "Postfach 1105"}, 
{"plz": "96329", "ort": "Pressig", "name": "Pressig, M", "street": "Postfach 1146"}, 
{"plz": "96333", "ort": "Ludwigsstadt", "name": "Ludwigsstadt, St", "street": "Postfach 5"}, 
{"plz": "96338", "ort": "Stockheim", "name": "Stockheim", "street": "Postfach 1151"}, 
{"plz": "96343", "ort": "Wallenfels", "name": "Wallenfels, St", "street": "Postfach 1180"}, 
{"plz": "96347", "ort": "Steinwiesen", "name": "Steinwiesen, M", "street": "Postfach 30"}, 
{"plz": "96352", "ort": "Wilhelmsthal", "name": "Wilhelmsthal", "street": "Wöhrleite 1"}, 
{"plz": "96353", "ort": "Tettau", "name": "Tettau, M", "street": "Postfach 25"}, 
{"plz": "96356", "ort": "Teuschnitz", "name": "Teuschnitz, St", "street": "Postfach 65"}, 
{"plz": "96361", "ort": "Steinbach a.Wald", "name": "Steinbach a.Wald", "street": "Ludwigsstädter Straße 2"}, 
{"plz": "96364", "ort": "Marktrodach", "name": "Marktrodach, M", "street": "Kirchplatz 3"}, 
{"plz": "96365", "ort": "Nordhalben", "name": "Nordhalben, M", "street": "Postfach 62"}, 
{"plz": "96369", "ort": "Weißenbrunn", "name": "Weißenbrunn", "street": "Bergstraße 21"}, 
{"plz": "96419", "ort": "Coburg", "name": "Coburg", "street": "Postfach 3042"}, 
{"plz": "96460", "ort": "Neustadt b.Coburg", "name": "Neustadt b.Coburg, GKSt", "street": "Postfach 1580"}, 
{"plz": "96467", "ort": "Rödental", "name": "Rödental, St", "street": "Postfach 1260"}, 
{"plz": "96476", "ort": "Bad Rodach", "name": "Bad Rodach, St", "street": "Markt 1"}, 
{"plz": "96477", "ort": "Weitramsdorf", "name": "Weitramsdorf", "street": "Postfach 1138"}, 
{"plz": "96482", "ort": "Ahorn", "name": "Ahorn", "street": "Hauptstraße 40"}, 
{"plz": "96484", "ort": "Meeder", "name": "Meeder", "street": "Bahnhofstraße 1"}, 
{"plz": "96485", "ort": "Lautertal", "name": "Lautertal", "street": "Postfach 1161"}, 
{"plz": "96487", "ort": "Dörfles-Esbach", "name": "Dörfles-Esbach", "street": "Rosenauer Straße 12"}, 
{"plz": "96515", "ort": "Sonneberg", "name": "Sonneberg, Stadt", "street": "Bahnhofsplatz 1"}, 
{"plz": "96523", "ort": "Steinach/Thür.", "name": "Steinach, Stadt", "street": "Marktplatz 4"}, 
{"plz": "96524", "ort": "Föritztal", "name": "Föritztal", "street": "Schierschnitzer Straße 9"}, 
{"plz": "96528", "ort": "Frankenblick", "name": "Frankenblick", "street": "Schloßgasse 20"}, 
{"plz": "96528", "ort": "Schalkau", "name": "Schalkau, Stadt", "street": "Markt 1"}]