[{"plz": "39104", "ort": "Magdeburg", "name": "Magdeburg Mitte", "street": "Leiterstr. 2a", "phone": "0391-540-4302", "email": "bbm@buergerbuero.magdeburg.de"}, 
{"plz": "39104", "ort": "Magdeburg", "name": "Magdeburg Backoffice Bürgerservice", "street": "Breiter Weg 222", "phone": "0391-5404-329", "email": "auskunft@ewo.magdeburg.de"}, 
{"plz": "39104", "ort": "Magdeburg", "name": "Magdeburg, Landeshauptstadt", "street": "Alter Markt 6"}, 
{"plz": "39114", "ort": "Magdeburg", "name": "Magdeburg Ost", "street": "Tessenowstr. 15", "phone": "0391-540-4429", "email": "bbo@buergerbuero.magdeburg.de"}, 
{"plz": "39124", "ort": "Magdeburg", "name": "Magdeburg Nord", "street": "Lübecker Str. 32", "phone": "0391-540-6278", "email": "bbn@buergerbuero.magdeburg.de"}, 
{"plz": "39130", "ort": "Magdeburg", "name": "Magdeburg West", "street": "Bruno-Beye-Ring 50", "phone": "0391-540-4950", "email": "bbw@buergerbuero.magdeburg.de"}, 
{"plz": "39164", "ort": "Wanzleben-Börde", "name": "Wanzleben-Börde, Stadt", "street": "Markt 1-2"}, 
{"plz": "39167", "ort": "Hohe Börde OT Irxleben", "name": "Hohe Börde", "street": "Bördestraße 8"}, 
{"plz": "39171", "ort": "Sülzetal OT Osterweddingen", "name": "Sülzetal", "street": "Alte Dorfstraße 26"}, 
{"plz": "39175", "ort": "Biederitz OT Heyrothsberge", "name": "Biederitz", "street": "Berliner Straße 25"}, 
{"plz": "39179", "ort": "Barleben", "name": "Barleben", "street": "Ernst-Thälmann-Straße 22"}, 
{"plz": "39218", "ort": "Schönebeck (Elbe)", "name": "Schönebeck (Elbe), Stadt", "street": "Markt 1"}, 
{"plz": "39221", "ort": "Bördeland OT Biere", "name": "Bördeland", "street": "Magdeburger Straße 3"}, 
{"plz": "39240", "ort": "Calbe (Saale)", "name": "Calbe (Saale), Stadt", "street": "Markt 18"}, 
{"plz": "39245", "ort": "Gommern", "name": "Gommern, Stadt", "street": "Platz des Friedens 10"}, 
{"plz": "39249", "ort": "Barby", "name": "Barby, Stadt", "street": "Marktplatz 14"}, 
{"plz": "39261", "ort": "Zerbst/Anhalt", "name": "Zerbst/Anhalt, Stadt", "street": "Schloßfreiheit 12"}, 
{"plz": "39288", "ort": "Burg", "name": "Burg, Stadt", "street": "In der Alten Kaserne 2"}, 
{"plz": "39291", "ort": "Möser", "name": "Möser", "street": "Brunnenbreite 7/8"}, 
{"plz": "39291", "ort": "Möckern", "name": "Möckern, Stadt", "street": "Am Markt 10"}, 
{"plz": "39307", "ort": "Genthin", "name": "Genthin, Stadt", "street": "Marktplatz 3"}, 
{"plz": "39317", "ort": "Elbe-Parey", "name": "Elbe-Parey", "street": "Ernst-Thälmann-Straße 15"}, 
{"plz": "39319", "ort": "Jerichow", "name": "Jerichow, Stadt", "street": "Karl-Liebknecht-Straße 10"}, 
{"plz": "39326", "ort": "Rogätz", "name": "Loitsche-Heinrichsberg", "street": "Magdeburger Straße 40"}, 
{"plz": "39326", "ort": "Wolmirstedt", "name": "Wolmirstedt, Stadt", "street": "August-Bebel-Straße 25"}, 
{"plz": "39326", "ort": "Niedere Börde OT Groß Ammensleben", "name": "Niedere Börde", "street": "Große Straße 9/10"}, 
{"plz": "39340", "ort": "Haldensleben", "name": "Haldensleben, Stadt", "street": "Markt 20-22"}, 
{"plz": "39345", "ort": "Flechtingen", "name": "Bülstringen", "street": "Lindenplatz 11-15"}, 
{"plz": "39365", "ort": "Eilsleben", "name": "Wefensleben", "street": "Zimmermannplatz 2"}, 
{"plz": "39387", "ort": "Oschersleben (Bode)", "name": "Oschersleben (Bode), Stadt", "street": "Markt 1"}, 
{"plz": "39397", "ort": "Gröningen", "name": "Kroppenstedt, Stadt", "street": "Marktstraße 7"}, 
{"plz": "39418", "ort": "Staßfurt", "name": "Staßfurt, Stadt", "street": "Hohenerxlebener Straße 12"}, 
{"plz": "39435", "ort": "Egeln", "name": "Egeln, Stadt", "street": "Markt 18"}, 
{"plz": "39439", "ort": "Güsten", "name": "Alsleben (Saale), Stadt", "street": "Platz der Freundschaft 1"}, 
{"plz": "39444", "ort": "Hecklingen OT Hecklingen", "name": "Hecklingen, Stadt", "street": "Hermann-Danz-Straße 46"}, 
{"plz": "39517", "ort": "Tangerhütte", "name": "Tangerhütte, Stadt", "street": "Bismarckstraße 5"}, 
{"plz": "39524", "ort": "Schönhausen (Elbe)", "name": "Sandau (Elbe), Stadt", "street": "Bismarckstraße 12"}, 
{"plz": "39539", "ort": "Hansestadt Havelberg", "name": "Havelberg, Hansestadt", "street": "Markt 1"}, 
{"plz": "39576", "ort": "Hansestadt Stendal", "name": "Stendal, Hansestadt", "street": "Markt 1"}, 
{"plz": "39590", "ort": "Tangermünde", "name": "Tangermünde, Stadt", "street": "Lange Straße 61"}, 
{"plz": "39596", "ort": "Goldbeck", "name": "Werben (Elbe), Hansestadt", "street": "An der Zuckerfabrik 1"}, 
{"plz": "39606", "ort": "Hansestadt Osterburg (Altmark)", "name": "Osterburg (Altmark), Hansestadt", "street": "Ernst-Thälmann-Straße 10"}, 
{"plz": "39615", "ort": "Hansestadt Seehausen (Altmark)", "name": "Seehausen (Altmark), Hansestadt", "street": "Große Brüderstraße 1"}, 
{"plz": "39619", "ort": "Arendsee (Altmark)", "name": "Arendsee (Altmark), Stadt", "street": "Am Markt 3"}, 
{"plz": "39624", "ort": "Kalbe (Milde)", "name": "Kalbe (Milde), Stadt", "street": "Schulstraße 11"}, 
{"plz": "39629", "ort": "Bismark (Altmark)", "name": "Bismark (Altmark), Stadt", "street": "Breite Straße 11"}, 
{"plz": "39638", "ort": "Hansestadt Gardelegen", "name": "Gardelegen, Hansestadt", "street": "Rudolf-Breitscheid-Straße 3"}, 
{"plz": "39646", "ort": "Oebisfelde-Weferlingen", "name": "Oebisfelde-Weferlingen, Stadt", "street": "Lange Straße 12"}]