[{"plz": "38100", "ort": "Braunschweig", "name": "Braunschweig Bürgerberatung", "street": "Platz der Deutschen Einheit 1", "phone": "0531-470-1", "email": "buergerberatung@braunschweig.de"}, 
{"plz": "38104", "ort": "Braunschweig", "name": "Braunschweig Bezirksgeschäftsstelle Ost", "street": "Am Remenhof 15", "phone": "0531-2361-090", "email": "verwaltungsstelle.volkmarode@braunschweig.de"}, 
{"plz": "38110", "ort": "Braunschweig", "name": "Braunschweig Bezirksgeschäftsstelle Nord", "street": "Veltenhöfer Str. 3", "phone": "05307-940-230", "email": "verwaltungsstelle.wenden@braunschweig.de"}, 
{"plz": "38122", "ort": "Braunschweig", "name": "Braunschweig Bürgerangelegenheiten", "street": "Friedrich-Seele-Str. 7\n(3. OG)", "phone": "0531-470-1", "email": "buergerangelegenheiten@braunschweig.de"}, 
{"plz": "38122", "ort": "Braunschweig", "name": "Braunschweig Bezirksgeschäftsstelle West", "street": "Kleine Grubestr. 3", "phone": "0531-289-150", "email": "verwaltungsstelle.broitzem@braunschweig.de"}, 
{"plz": "38124", "ort": "Braunschweig", "name": "Braunschweig Bezirksgeschäftsstelle Süd", "street": "Stöckheimer Markt 1", "phone": "0531-261-1500", "email": "verwaltungsstelle.stoeckheim@braunschweig.de"}, 
{"plz": "38154", "ort": "Königslutter am Elm", "name": "Königslutter am Elm, Stadt", "street": "Am Markt 1"}, 
{"plz": "38159", "ort": "Vechelde", "name": "Vechelde", "street": "Hildesheimer Straße 85"}, 
{"plz": "38162", "ort": "Cremlingen", "name": "Cremlingen", "street": "Ostdeutsche Straße 22"}, 
{"plz": "38165", "ort": "Lehre", "name": "Lehre", "street": "Marktstraße 10"}, 
{"plz": "38170", "ort": "Schöppenstedt", "name": "Remlingen-Semmenstedt", "street": "Markt 3"}, 
{"plz": "38173", "ort": "Sickte", "name": "Veltheim (Ohe)", "street": "Am Kamp 12"}, 
{"plz": "38176", "ort": "Wendeburg", "name": "Wendeburg", "street": "Am Anger 5"}, 
{"plz": "38226", "ort": "Salzgitter", "name": "Salzgitter Lebenstedt", "street": "Joachim-Campe-Str. 6-8\nRathaus", "phone": "05341-8393-812", "email": "buergercenter@stadt.salzgitter.de"}, 
{"plz": "38226", "ort": "Salzgitter", "name": "Salzgitter, Stadt", "street": "Joachim-Campe-Straße 6-8"}, 
{"plz": "38259", "ort": "Salzgitter", "name": "Salzgitter Außenstelle Salzgitter-Bad", "street": "Marktplatz 11", "phone": "05341-839-2070", "email": "buergercenter@stadt.salzgitter.de"}, 
{"plz": "38268", "ort": "Lengede", "name": "Lengede", "street": "Vallstedter Weg 1"}, 
{"plz": "38271", "ort": "Baddeckenstedt", "name": "Baddeckenstedt", "street": "Heerer Straße 28"}, 
{"plz": "38300", "ort": "Wolfenbüttel", "name": "Wolfenbüttel, Stadt", "street": "Stadtmarkt 3-6"}, 
{"plz": "38312", "ort": "Börßum", "name": "Heiningen", "street": "Bahnhofstraße 6"}, 
{"plz": "38315", "ort": "Schladen", "name": "Schladen-Werla", "street": "Am Weinberg 9"}, 
{"plz": "38350", "ort": "Helmstedt", "name": "Helmstedt, Stadt", "street": "Markt 1"}, 
{"plz": "38364", "ort": "Schöningen", "name": "Schöningen, Stadt", "street": "Markt 1"}, 
{"plz": "38368", "ort": "Grasleben", "name": "Querenhorst", "street": "Bahnhofstraße 4"}, 
{"plz": "38373", "ort": "Süpplingen", "name": "Süpplingenburg", "street": "Steinweg 15"}, 
{"plz": "38381", "ort": "Jerxheim", "name": "Gevensleben", "street": "Helmstedter Straße 17"}, 
{"plz": "38440", "ort": "Wolfsburg", "name": "Wolfsburg, Stadt", "street": "Porschestraße 49"}, 
{"plz": "38440", "ort": "Wolfsburg", "name": "Wolfsburg", "street": "Porschestr. 49", "phone": "05361-28-1234", "email": "servicecenter@stadt.wolfsburg.de"}, 
{"plz": "38458", "ort": "Velpke", "name": "Groß Twülpstedt", "street": "Grafhorster Straße 6"}, 
{"plz": "38465", "ort": "Brome", "name": "Brome, Flecken", "street": "Bahnhofstraße 36"}, 
{"plz": "38486", "ort": "Klötze", "name": "Klötze, Stadt", "street": "Schulplatz 1"}, 
{"plz": "38489", "ort": "Beetzendorf", "name": "Apenburg-Winterfeld, Flecken", "street": "Marschweg 3"}, 
{"plz": "38518", "ort": "Gifhorn", "name": "Gifhorn, Stadt", "street": "Marktplatz 1"}, 
{"plz": "38524", "ort": "Sassenburg", "name": "Sassenburg", "street": "Bokensdorfer Weg 12"}, 
{"plz": "38527", "ort": "Meine", "name": "Rötgesbüttel", "street": "Hauptstraße 15"}, 
{"plz": "38536", "ort": "Meinersen", "name": "Müden (Aller)", "street": "Hauptstraße 1"}, 
{"plz": "38550", "ort": "Isenbüttel", "name": "Ribbesbüttel", "street": "Gutsstraße 11"}, 
{"plz": "38554", "ort": "Weyhausen", "name": "Bokensdorf", "street": "Eichenweg 1"}, 
{"plz": "38640", "ort": "Goslar", "name": "Goslar, Stadt", "street": "Charley-Jacob-Straße 3"}, 
{"plz": "38667", "ort": "Bad Harzburg", "name": "Bad Harzburg, Stadt", "street": "Forstwiese 5"}, 
{"plz": "38678", "ort": "Clausthal-Zellerfeld", "name": "Clausthal-Zellerfeld, Berg- und Universitätsstadt", "street": "Am Rathaus 1"}, 
{"plz": "38685", "ort": "Langelsheim", "name": "Langelsheim, Stadt", "street": "Harzstraße 8"}, 
{"plz": "38700", "ort": "Braunlage", "name": "Braunlage, Stadt", "street": "Herzog-Johann-Albrecht-Straße 2"}, 
{"plz": "38704", "ort": "Liebenburg", "name": "Liebenburg", "street": "Schäferwiese 15"}, 
{"plz": "38723", "ort": "Seesen", "name": "Seesen, Stadt", "street": "Marktstraße 1"}, 
{"plz": "38820", "ort": "Halberstadt", "name": "Halberstadt, Stadt", "street": "Holzmarkt 1"}, 
{"plz": "38828", "ort": "Wegeleben", "name": "Harsleben / Harschlewe", "street": "Markt 7"}, 
{"plz": "38835", "ort": "Osterwieck", "name": "Osterwieck, Stadt", "street": "Am Markt 11"}, 
{"plz": "38838", "ort": "Huy OT Dingelstedt am Huy", "name": "Huy", "street": "Bahnhofstraße 243"}, 
{"plz": "38855", "ort": "Wernigerode", "name": "Wernigerode, Stadt", "street": "Marktplatz 1"}, 
{"plz": "38871", "ort": "Nordharz OT Veckenstedt", "name": "Nordharz", "street": "Straße der Technik 4"}, 
{"plz": "38871", "ort": "Ilsenburg (Harz)", "name": "Ilsenburg (Harz), Stadt", "street": "Harzburger Straße 24"}, 
{"plz": "38875", "ort": "Oberharz am Brocken OT Elbingerode (Harz)", "name": "Oberharz am Brocken, Stadt", "street": "Markt 1-2"}, 
{"plz": "38889", "ort": "Blankenburg (Harz)", "name": "Blankenburg (Harz), Stadt", "street": "Harzstraße 3"}]