[{"plz": "63065", "ort": "Offenbach am Main", "name": "Offenbach am Main, Stadt", "street": "Berliner Straße 100"}, 
{"plz": "63065", "ort": "Offenbach", "name": "Offenbach", "street": "Herrnstr. 61\nGebäude: Bernardbau\nStadtverwaltung Offenbach am Main\nBerliner Str. 100\nBürgerbüro Offenbach am Main - Kaiserpalais\nKaiserstr. 39", "phone": "069-8065-1", "email": "buergerbuero@offenbach.de"}, 
{"plz": "63110", "ort": "Rodgau", "name": "Rodgau, Stadt", "street": "Hintergasse 15"}, 
{"plz": "63110", "ort": "Rodgau", "name": "Rodgau", "street": "Hintergasse 15\nim Rathaus", "phone": "06106-693-0", "email": "buergerservice@rodgau.de"}, 
{"plz": "63128", "ort": "Dietzenbach", "name": "Dietzenbach, Kreisstadt", "street": "Europaplatz 1"}, 
{"plz": "63150", "ort": "Heusenstamm", "name": "Heusenstamm, Stadt", "street": "Im Herrngarten 1", "phone": "06104-607-0", "email": "buergerbuero@heusenstamm.de"}, 
{"plz": "63165", "ort": "Mühlheim am Main", "name": "Mühlheim am Main, Stadt", "street": "Friedensstraße 20"}, 
{"plz": "63179", "ort": "Obertshausen", "name": "Obertshausen, Stadt", "street": "Schubertstraße 11"}, 
{"plz": "63225", "ort": "Langen (Hessen)", "name": "Langen (Hessen), Stadt", "street": "Südliche Ringstraße 80"}, 
{"plz": "63263", "ort": "Neu-Isenburg", "name": "Neu-Isenburg, Stadt", "street": "Hugenottenallee 53"}, 
{"plz": "63303", "ort": "Dreieich", "name": "Dreieich, Stadt", "street": "Hauptstraße 45"}, 
{"plz": "63322", "ort": "Rödermark", "name": "Rödermark, Stadt", "street": "Dieburger Straße 13-17"}, 
{"plz": "63329", "ort": "Egelsbach", "name": "Egelsbach", "street": "Freiherr-vom-Stein-Straße 13"}, 
{"plz": "63450", "ort": "Hanau", "name": "Hanau, Brüder-Grimm-Stadt Stadtladen", "street": "Am Markt 14-18", "phone": "06181-295-640", "email": "stadtladen@hanau.de"}, 
{"plz": "63454", "ort": "Hanau", "name": "Hanau Stadtteilladen Mittelbuchen", "street": "Wachenbuchener Str. 17", "phone": "06181-712-37", "email": "stadtladen@hanau.de"}, 
{"plz": "63456", "ort": "Hanau", "name": "Hanau Stadtteilladen Klein-Auheim", "street": "Schulstr. 15", "phone": "06181-66841-799", "email": "stadtladen@hanau.de"}, 
{"plz": "63456", "ort": "Hanau", "name": "Hanau Stadtteilladen Steinheim", "street": "Ludwigstr. 92", "phone": "06181-6457", "email": "stadtladen@hanau.de"}, 
{"plz": "63457", "ort": "Hanau", "name": "Hanau Stadtteilladen Großauheim", "street": "Hans-Gruber-Platz 2", "phone": "06181-530-66", "email": "stadtladen@hanau.de"}, 
{"plz": "63477", "ort": "Maintal", "name": "Maintal, Stadt", "street": "Klosterhofstraße 4-6"}, 
{"plz": "63486", "ort": "Bruchköbel", "name": "Bruchköbel, Stadt", "street": "Hauptstraße 32"}, 
{"plz": "63500", "ort": "Seligenstadt", "name": "Seligenstadt, Einhardstadt", "street": "Marktplatz 1"}, 
{"plz": "63505", "ort": "Langenselbold", "name": "Langenselbold, Stadt", "street": "Schloßpark 2"}, 
{"plz": "63512", "ort": "Hainburg", "name": "Hainburg", "street": "Hauptstraße 44"}, 
{"plz": "63517", "ort": "Rodenbach", "name": "Rodenbach", "street": "Buchbergstraße 2"}, 
{"plz": "63526", "ort": "Erlensee", "name": "Erlensee, Stadt", "street": "Am Rathaus 3"}, 
{"plz": "63533", "ort": "Mainhausen", "name": "Mainhausen", "street": "Rheinstraße 3"}, 
{"plz": "63538", "ort": "Großkrotzenburg", "name": "Großkrotzenburg", "street": "Bahnhofstraße 3"}, 
{"plz": "63543", "ort": "Neuberg", "name": "Neuberg", "street": "In den Gräben 15"}, 
{"plz": "63546", "ort": "Hammersbach", "name": "Hammersbach", "street": "Köbler Weg 44"}, 
{"plz": "63549", "ort": "Ronneburg", "name": "Ronneburg", "street": "Schulstraße 9"}, 
{"plz": "63571", "ort": "Gelnhausen", "name": "Gelnhausen, Barbarossastadt, Kreisstadt", "street": "Obermarkt 7"}, 
{"plz": "63579", "ort": "Freigericht", "name": "Freigericht", "street": "Rathausstraße 13"}, 
{"plz": "63584", "ort": "Gründau", "name": "Gründau", "street": "Am Bürgerzentrum 1"}, 
{"plz": "63589", "ort": "Linsengericht", "name": "Linsengericht", "street": "Amtshofstraße 1"}, 
{"plz": "63594", "ort": "Hasselroth", "name": "Hasselroth", "street": "Bodo-Käppel-Platz 1"}, 
{"plz": "63599", "ort": "Biebergemünd", "name": "Biebergemünd", "street": "Am Gemeindezentrum 1"}, 
{"plz": "63607", "ort": "Wächtersbach", "name": "Wächtersbach, Stadt", "street": "Schloss 1"}, 
{"plz": "63619", "ort": "Bad Orb", "name": "Bad Orb, Stadt", "street": "Frankfurter Straße 2"}, 
{"plz": "63628", "ort": "Bad Soden-Salmünster", "name": "Bad Soden-Salmünster, Stadt", "street": "Rathausstraße 1"}, 
{"plz": "63633", "ort": "Birstein", "name": "Birstein", "street": "Carl-Lomb-Straße 1"}, 
{"plz": "63636", "ort": "Brachttal", "name": "Brachttal", "street": "Wächtersbacher Straße 48"}, 
{"plz": "63637", "ort": "Jossgrund", "name": "Jossgrund", "street": "Martinusstraße 2"}, 
{"plz": "63639", "ort": "Flörsbachtal", "name": "Flörsbachtal", "street": "Hauptstraße 14"}, 
{"plz": "63654", "ort": "Büdingen", "name": "Büdingen, Stadt", "street": "Eberhard-Bauner-Allee 16"}, 
{"plz": "63667", "ort": "Nidda", "name": "Nidda, Stadt", "street": "Wilhelm-Eckhardt-Platz"}, 
{"plz": "63674", "ort": "Altenstadt", "name": "Altenstadt", "street": "Frankfurter Straße 11"}, 
{"plz": "63679", "ort": "Schotten", "name": "Schotten, Stadt", "street": "Vogelsbergstraße 184"}, 
{"plz": "63683", "ort": "Ortenberg", "name": "Ortenberg, Stadt", "street": "Lauterbacher Straße 2"}, 
{"plz": "63688", "ort": "Gedern", "name": "Gedern, Stadt", "street": "Schlossberg 7"}, 
{"plz": "63691", "ort": "Ranstadt", "name": "Ranstadt", "street": "Hauptstraße 15"}, 
{"plz": "63694", "ort": "Limeshain", "name": "Limeshain", "street": "Am Zentrum 2"}, 
{"plz": "63695", "ort": "Glauburg", "name": "Glauburg", "street": "Bahnhofstraße 34"}, 
{"plz": "63697", "ort": "Hirzenhain", "name": "Hirzenhain", "street": "Karl-Birx-Straße 6"}, 
{"plz": "63699", "ort": "Kefenrod", "name": "Kefenrod", "street": "Hitzkirchener Straße 19"}, 
{"plz": "63701", "ort": "Aschaffenburg", "name": "Aschaffenburg", "street": "Postfach 100163"}, 
{"plz": "63739", "ort": "Aschaffenburg", "name": "Aschaffenburg", "street": "Dalbergstr. 15\nErdgeschoss", "phone": "06021-330-555", "email": "buergerservice@aschaffenburg.de"}, 
{"plz": "63755", "ort": "Alzenau", "name": "Alzenau, St", "street": "Hanauer Straße 1"}, 
{"plz": "63757", "ort": "Großostheim", "name": "Großostheim, M", "street": "Postfach 1280"}, 
{"plz": "63763", "ort": "Hösbach", "name": "Hösbach, M", "street": "Postfach 7"}, 
{"plz": "63770", "ort": "Goldbach", "name": "Goldbach, M", "street": "Postfach 1260"}, 
{"plz": "63776", "ort": "Mömbris", "name": "Mömbris, M", "street": "Schimborner Straße 6"}, 
{"plz": "63778", "ort": "Obernburg a.Main", "name": "Obernburg a.Main, St", "street": "Postfach 110207"}, 
{"plz": "63791", "ort": "Karlstein a.Main", "name": "Karlstein a.Main", "street": "Am Oberborn 1"}, 
{"plz": "63792", "ort": "Kahl a.Main", "name": "Kahl a.Main", "street": "Postfach 50"}, 
{"plz": "63797", "ort": "Kleinostheim", "name": "Kleinostheim", "street": "Postfach 1110"}, 
{"plz": "63802", "ort": "Haibach", "name": "Haibach", "street": "Postfach 1165"}, 
{"plz": "63809", "ort": "Stockstadt a.Main", "name": "Stockstadt a.Main, M", "street": "Postfach 1010"}, 
{"plz": "63812", "ort": "Mainaschaff", "name": "Mainaschaff", "street": "Postfach 62"}, 
{"plz": "63815", "ort": "Elsenfeld", "name": "Elsenfeld, M", "street": "Postfach 1161"}, 
{"plz": "63825", "ort": "Schöllkrippen", "name": "Schöllkrippen, M", "street": "Marktplatz 1"}, 
{"plz": "63826", "ort": "Geiselbach", "name": "Geiselbach", "street": "Kirchstraße 6"}, 
{"plz": "63834", "ort": "Sulzbach a.Main", "name": "Sulzbach a.Main, M", "street": "Hauptstraße 36"}, 
{"plz": "63835", "ort": "Kleinwallstadt", "name": "Kleinwallstadt, M", "street": "Postfach 40"}, 
{"plz": "63839", "ort": "Kleinwallstadt", "name": "Kleinwallstadt, M", "street": "Hauptstraße 2"}, 
{"plz": "63843", "ort": "Niedernberg", "name": "Niedernberg", "street": "Hauptstraße 54"}, 
{"plz": "63844", "ort": "Laufach", "name": "Laufach", "street": "Postfach 1110"}, 
{"plz": "63847", "ort": "Leidersbach", "name": "Leidersbach", "street": "Postfach 25"}, 
{"plz": "63850", "ort": "Mömlingen", "name": "Mömlingen", "street": "Postfach 1164"}, 
{"plz": "63856", "ort": "Bessenbach", "name": "Bessenbach", "street": "Ludwig-Straub-Straße 2"}, 
{"plz": "63857", "ort": "Waldaschaff", "name": "Waldaschaff", "street": "Am Mühlbach 5"}, 
{"plz": "63860", "ort": "Rothenbuch", "name": "Rothenbuch", "street": "Schloßplatz 1"}, 
{"plz": "63861", "ort": "Eschau", "name": "Eschau, M", "street": "Postfach 1110"}, 
{"plz": "63864", "ort": "Glattbach", "name": "Glattbach", "street": "Schulstraße 17"}, 
{"plz": "63867", "ort": "Johannesberg", "name": "Johannesberg", "street": "Oberafferbacher Straße 12"}, 
{"plz": "63868", "ort": "Großwallstadt", "name": "Großwallstadt", "street": "Hauptstraße 23"}, 
{"plz": "63869", "ort": "Heigenbrücken", "name": "Heinrichsthal", "street": "Hauptstraße 7"}, 
{"plz": "63872", "ort": "Heimbuchenthal", "name": "Heimbuchenthal", "street": "Hauptstraße 81"}, 
{"plz": "63877", "ort": "Sailauf", "name": "Sailauf", "street": "Rathausstraße 9"}, 
{"plz": "63879", "ort": "Weibersbrunn", "name": "Weibersbrunn", "street": "Jakob-Gross-Straße 20"}, 
{"plz": "63887", "ort": "Miltenberg", "name": "Miltenberg, St", "street": "Postfach 1740"}, 
{"plz": "63902", "ort": "Erlenbach a.Main", "name": "Erlenbach a.Main, St", "street": "Postfach 1380"}, 
{"plz": "63911", "ort": "Klingenberg a.Main", "name": "Klingenberg a.Main, St", "street": "Wilhelmstraße 12"}, 
{"plz": "63913", "ort": "Amorbach", "name": "Amorbach, St", "street": "Postfach 1280"}, 
{"plz": "63918", "ort": "Großheubach", "name": "Großheubach, M", "street": "Postfach 63"}, 
{"plz": "63921", "ort": "Kleinheubach", "name": "Kleinheubach, M", "street": "Postfach 1150"}, 
{"plz": "63927", "ort": "Bürgstadt", "name": "Bürgstadt, M", "street": "Große Maingasse 1"}, 
{"plz": "63928", "ort": "Eichenbühl", "name": "Eichenbühl", "street": "Hauptstraße 97"}, 
{"plz": "63931", "ort": "Kirchzell", "name": "Kirchzell, M", "street": "Hauptstraße 19"}, 
{"plz": "63933", "ort": "Mönchberg", "name": "Mönchberg, M", "street": "Postfach 1153"}, 
{"plz": "63934", "ort": "Röllbach", "name": "Röllbach", "street": "Kirchgasse 10"}, 
{"plz": "63936", "ort": "Schneeberg", "name": "Schneeberg, M", "street": "Amorbacher Straße 1"}, 
{"plz": "63937", "ort": "Weilbach", "name": "Weilbach, M", "street": "Hauptstraße 59"}, 
{"plz": "63939", "ort": "Wörth a.Main", "name": "Wörth a.Main, St", "street": "Luxburgstraße 10"}]