[{"plz": "23539", "ort": "Lübeck", "name": "Lübeck, Hansestadt", "street": "Breite Straße 62"}, 
{"plz": "23566", "ort": "Lübeck", "name": "Lübeck", "street": "Meesenring 7", "phone": "0451-115", "email": "ordnungsamt@luebeck.de"}, 
{"plz": "23611", "ort": "Bad Schwartau", "name": "Bad Schwartau, Stadt", "street": "Markt 15"}, 
{"plz": "23617", "ort": "Stockelsdorf", "name": "Stockelsdorf", "street": "Ahrensböker Straße 7"}, 
{"plz": "23623", "ort": "Ahrensbök", "name": "Ahrensbök", "street": "Poststraße 1"}, 
{"plz": "23626", "ort": "Ratekau", "name": "Ratekau", "street": "Bäderstraße 19"}, 
{"plz": "23669", "ort": "Timmendorfer Strand", "name": "Timmendorfer Strand", "street": "Strandallee 42"}, 
{"plz": "23683", "ort": "Scharbeutz", "name": "Scharbeutz", "street": "Am Bürgerhaus 2"}, 
{"plz": "23701", "ort": "Eutin", "name": "Eutin, Stadt", "street": "Markt 1"}, 
{"plz": "23701", "ort": "Süsel", "name": "Süsel", "street": "An der Bäderstraße 64"}, 
{"plz": "23714", "ort": "Bad Malente-Gremsmühlen", "name": "Malente", "street": "Bahnhofstraße 31"}, 
{"plz": "23715", "ort": "Bosau", "name": "Bosau", "street": "Hutzfeld, Hauptstraße 2"}, 
{"plz": "23730", "ort": "Neustadt in Holstein", "name": "Neustadt in Holstein, Stadt", "street": "Am Markt 1"}, 
{"plz": "23738", "ort": "Lensahn", "name": "Beschendorf", "street": "Eutiner Straße 2"}, 
{"plz": "23743", "ort": "Grömitz", "name": "Kellenhusen (Ostsee)", "street": "Kirchenstraße 11"}, 
{"plz": "23744", "ort": "Schönwalde am Bungsberg", "name": "Schönwalde am Bungsberg", "street": "Am Ruhsal 2"}, 
{"plz": "23758", "ort": "Oldenburg in Holstein", "name": "Gremersdorf", "street": "Hinter den Höfen 2"}, 
{"plz": "23758", "ort": "Oldenburg in Holstein", "name": "Oldenburg in Holstein, Stadt", "street": "Markt 1"}, 
{"plz": "23769", "ort": "Fehmarn", "name": "Fehmarn, Stadt", "street": "Burg a.F., Am Markt 1"}, 
{"plz": "23774", "ort": "Heiligenhafen", "name": "Heiligenhafen, Stadt", "street": "Markt 4-5"}, 
{"plz": "23795", "ort": "Bad Segeberg", "name": "Klein Gladebrügge", "street": "Waldemar-von-Mohl-Straße 10"}, 
{"plz": "23795", "ort": "Bad Segeberg", "name": "Bad Segeberg, Stadt", "street": "Lübecker Straße 9"}, 
{"plz": "23812", "ort": "Wahlstedt", "name": "Wahlstedt, Stadt", "street": "Markt 3"}, 
{"plz": "23816", "ort": "Leezen", "name": "Buchholz (Forstgutsbez.),gemfr. Gebiet", "street": "Hamburger Straße 28"}, 
{"plz": "23843", "ort": "Bad Oldesloe", "name": "Travenbrück", "street": "Mewesstraße 22-24"}, 
{"plz": "23843", "ort": "Bad Oldesloe", "name": "Bad Oldesloe, Stadt", "street": "Markt 5"}, 
{"plz": "23845", "ort": "Itzstedt", "name": "Tangstedt", "street": "Segeberger Straße 41"}, 
{"plz": "23858", "ort": "Reinfeld (Holstein)", "name": "Klein Wesenberg", "street": "Am Schiefen Kamp 10"}, 
{"plz": "23858", "ort": "Reinfeld (Holstein)", "name": "Reinfeld (Holstein), Stadt", "street": "Paul-von-Schoenaich-Straße 14"}, 
{"plz": "23879", "ort": "Mölln", "name": "Niendorf/ Stecknitz", "street": "Wasserkrüger Weg 16"}, 
{"plz": "23898", "ort": "Sandesneben", "name": "Wentorf (Amt Sandesneben)", "street": "Am Amtsgraben 4"}, 
{"plz": "23909", "ort": "Ratzeburg", "name": "Klein Zecher", "street": "Fünfhausen 1"}, 
{"plz": "23909", "ort": "Ratzeburg", "name": "Ratzeburg, Stadt", "street": "Unter den Linden 1"}, 
{"plz": "23919", "ort": "Berkenthin", "name": "Niendorf bei Berkenthin", "street": "Am Schart 16"}, 
{"plz": "23923", "ort": "Schönberg", "name": "Schönberg, Stadt", "street": "Am Markt 15"}, 
{"plz": "23936", "ort": "Grevesmühlen", "name": "Grevesmühlen, Stadt", "street": "Rathausplatz 1"}, 
{"plz": "23948", "ort": "Klütz", "name": "Boltenhagen, Ostseebad", "street": "Schloßstraße 1"}, 
{"plz": "23952", "ort": "Wismar", "name": "Wismar, Hansestadt", "street": "Am Markt 1"}, 
{"plz": "23972", "ort": "Dorf Mecklenburg", "name": "Dorf Mecklenburg", "street": "Am Wehberg 17"}, 
{"plz": "23974", "ort": "Neuburg", "name": "Krusenhagen", "street": "Hauptstraße 10a"}, 
{"plz": "23992", "ort": "Neukloster", "name": "Neukloster, Stadt", "street": "Hauptstraße 27"}, 
{"plz": "23999", "ort": "Insel Poel, OT Kirchdorf", "name": "Insel Poel, Ostseebad", "street": "Gemeindezentrum 13"}]