[{"plz": "21029", "ort": "Hamburg", "name": "Hamburg Bergedorf", "street": "Weidenbaumsweg 21\nRaum: Eingang A 3.01.1", "phone": "040-42891-2891", "email": "kundenzentrum@bergedorf.hamburg.de"}, 
{"plz": "21073", "ort": "Hamburg", "name": "Hamburg Harburg", "street": "Harburger Rathausforum 3\nRaum: EG", "phone": "040-42871-3460", "email": "kuz@harburg.hamburg.de"}, 
{"plz": "21107", "ort": "Hamburg", "name": "Hamburg Wilhelmsburg", "street": "Mengestr. 19\nRaum: EG", "phone": "040-42828-0", "email": "kundenzentrum-wilhelmsburg@hamburg-mitte.hamburg.de"}, 
{"plz": "21129", "ort": "Hamburg", "name": "Hamburg Finkenwerder", "street": "Butendeichsweg 2\nRaum: 1.OG", "phone": "040-42854-0", "email": "kundenzentrum-wilhelmsburg@hamburg-mitte.hamburg.de"}, 
{"plz": "21149", "ort": "Hamburg", "name": "Hamburg Süderelbe", "street": "Neugrabener Markt 5\nRaum: EG", "phone": "040-42871-5300", "email": "kuz-suederelbe@harburg.hamburg.de"}, 
{"plz": "21218", "ort": "Seevetal", "name": "Seevetal", "street": "Kirchstraße 11"}, 
{"plz": "21224", "ort": "Rosengarten", "name": "Rosengarten", "street": "Bremer Straße 42"}, 
{"plz": "21244", "ort": "Buchholz in der Nordheide", "name": "Buchholz in der Nordheide, Stadt", "street": "Rathausplatz 1"}, 
{"plz": "21255", "ort": "Tostedt", "name": "Kakenstorf", "street": "Schützenstraße 24"}, 
{"plz": "21266", "ort": "Jesteburg", "name": "Bendestorf", "street": "Niedersachsenplatz 5"}, 
{"plz": "21271", "ort": "Hanstedt/Nordheide", "name": "Egestorf", "street": "Rathausstraße 1"}, 
{"plz": "21279", "ort": "Hollenstedt", "name": "Halvesbostel", "street": "Hauptstraße 15"}, 
{"plz": "21335", "ort": "Lüneburg", "name": "Lüneburg, Hansestadt", "street": "Am Ochsenmarkt 1"}, 
{"plz": "21335", "ort": "Lüneburg", "name": "Lüneburg Bereich 331", "street": "Bardowicker Str. 23", "phone": "04131-309-3259", "email": "buergeramt@stadt.lueneburg.de"}, 
{"plz": "21354", "ort": "Bleckede", "name": "Bleckede, Stadt", "street": "Lüneburger Straße 2a"}, 
{"plz": "21357", "ort": "Bardowick", "name": "Bardowick, Flecken", "street": "Schulstraße 12"}, 
{"plz": "21365", "ort": "Adendorf", "name": "Adendorf", "street": "Rathausplatz 14"}, 
{"plz": "21368", "ort": "Dahlenburg", "name": "Dahlenburg, Flecken", "street": "Am Markt 17"}, 
{"plz": "21376", "ort": "Salzhausen", "name": "Toppenstedt", "street": "Rathausplatz 1"}, 
{"plz": "21379", "ort": "Scharnebeck", "name": "Artlenburg, Flecken", "street": "Marktplatz 1"}, 
{"plz": "21385", "ort": "Amelinghausen", "name": "Oldendorf (Luhe)", "street": "Lüneburger Straße 50"}, 
{"plz": "21391", "ort": "Reppenstedt", "name": "Westergellersen", "street": "Dachtmisser Straße 1"}, 
{"plz": "21397", "ort": "Barendorf", "name": "Wendisch Evern", "street": "Schulstraße 2"}, 
{"plz": "21406", "ort": "Melbeck", "name": "Deutsch Evern", "street": "Am Diemel 2"}, 
{"plz": "21423", "ort": "Winsen (Luhe)", "name": "Winsen (Luhe), Stadt", "street": "Schloßplatz 1"}, 
{"plz": "21435", "ort": "Stelle", "name": "Stelle", "street": "Unter den Linden 18"}, 
{"plz": "21436", "ort": "Marschacht", "name": "Marschacht", "street": "Elbuferstraße 98"}, 
{"plz": "21465", "ort": "Wentorf bei Hamburg", "name": "Wentorf bei Hamburg", "street": "Hauptstraße 16"}, 
{"plz": "21465", "ort": "Reinbek", "name": "Reinbek, Stadt", "street": "Hamburger Straße 5-7"}, 
{"plz": "21481", "ort": "Lauenburg/Elbe", "name": "Lauenburg/ Elbe, Stadt", "street": "Amtsplatz 6"}, 
{"plz": "21493", "ort": "Schwarzenbek", "name": "Groß Pampau", "street": "Gülzower Straße 1"}, 
{"plz": "21493", "ort": "Schwarzenbek", "name": "Schwarzenbek, Stadt", "street": "Ritter-Wulf-Platz 1"}, 
{"plz": "21502", "ort": "Geesthacht", "name": "Geesthacht, Stadt", "street": "Markt 15"}, 
{"plz": "21509", "ort": "Glinde", "name": "Glinde, Stadt", "street": "Markt 1"}, 
{"plz": "21514", "ort": "Büchen", "name": "Langenlehsten", "street": "Amtsplatz 1"}, 
{"plz": "21521", "ort": "Dassendorf", "name": "Kröppelshagen-Fahrendorf", "street": "Christa-Höppner-Platz 1"}, 
{"plz": "21521", "ort": "Dassendorf", "name": "Sachsenwald (Forstgutsbez.),gemfr.Geb.", "street": "Christa Höppner Platz 1"}, 
{"plz": "21614", "ort": "Buxtehude", "name": "Buxtehude, Hansestadt", "street": "Bahnhofstraße 7"}, 
{"plz": "21629", "ort": "Neu Wulmstorf", "name": "Neu Wulmstorf", "street": "Bahnhofstraße 39"}, 
{"plz": "21635", "ort": "Jork", "name": "Jork", "street": "Am Gräfengericht 2"}, 
{"plz": "21640", "ort": "Horneburg", "name": "Horneburg, Flecken", "street": "Lange Straße 47-49"}, 
{"plz": "21641", "ort": "Apensen", "name": "Sauensiek", "street": "Buxtehuder Straße 27"}, 
{"plz": "21682", "ort": "Stade", "name": "Stade, Hansestadt", "street": "Hökerstraße 2"}, 
{"plz": "21698", "ort": "Harsefeld", "name": "Harsefeld, Flecken", "street": "Herrenstraße 25"}, 
{"plz": "21706", "ort": "Drochtersen", "name": "Drochtersen", "street": "Sietwender Straße 27"}, 
{"plz": "21709", "ort": "Himmelpforten", "name": "Himmelpforten", "street": "Mittelweg 2"}, 
{"plz": "21717", "ort": "Fredenbeck", "name": "Fredenbeck", "street": "Schwingestraße 1"}, 
{"plz": "21720", "ort": "Steinkirchen", "name": "Hollern-Twielenfleth", "street": "Alter Marktplatz 1A"}, 
{"plz": "21729", "ort": "Freiburg/Elbe", "name": "Freiburg (Elbe), Flecken", "street": "Hauptstraße 31"}, 
{"plz": "21745", "ort": "Hemmoor", "name": "Hemmoor, Stadt", "street": "Rathausplatz 5"}, 
{"plz": "21762", "ort": "Otterndorf", "name": "Neuhaus (Oste), Flecken", "street": "Marktstraße 21"}, 
{"plz": "21769", "ort": "Lamstedt", "name": "Mittelstenahe", "street": "Schützenstraße 20"}]