[{"plz": "26105", "ort": "Oldenburg/Oldenburg", "name": "Oldenburg (Oldenburg), Stadt", "street": "Markt 20/21"}, 
{"plz": "26121", "ort": "Oldenburg", "name": "Oldenburg Mitte", "street": "Pferdemarkt 14", "phone": "0441-235-4444", "email": "buergerdienste@stadt-oldenburg.de"}, 
{"plz": "26121", "ort": "Oldenburg", "name": "Oldenburg Nord", "street": "Stiller Weg 10", "phone": "0441-2354-444", "email": "buergerbuero-nord@stadt-oldenburg.de"}, 
{"plz": "26160", "ort": "Bad Zwischenahn", "name": "Bad Zwischenahn", "street": "Am Brink 9"}, 
{"plz": "26169", "ort": "Friesoythe", "name": "Friesoythe, Stadt", "street": "Alte Mühlenstraße 12"}, 
{"plz": "26180", "ort": "Rastede", "name": "Rastede", "street": "Sophienstraße 27"}, 
{"plz": "26188", "ort": "Edewecht", "name": "Edewecht", "street": "Rathausstraße 7"}, 
{"plz": "26197", "ort": "Großenkneten", "name": "Großenkneten", "street": "Markt 1"}, 
{"plz": "26203", "ort": "Wardenburg", "name": "Wardenburg", "street": "Friedrichstraße 16"}, 
{"plz": "26209", "ort": "Hatten", "name": "Hatten", "street": "Hauptstraße 21"}, 
{"plz": "26215", "ort": "Wiefelstede", "name": "Wiefelstede", "street": "Kirchstraße 1"}, 
{"plz": "26219", "ort": "Bösel", "name": "Bösel", "street": "Am Kirchplatz 15"}, 
{"plz": "26316", "ort": "Varel", "name": "Varel, Stadt", "street": "Windallee 4"}, 
{"plz": "26340", "ort": "Zetel", "name": "Zetel", "street": "Ohrbült 1"}, 
{"plz": "26345", "ort": "Bockhorn", "name": "Bockhorn", "street": "Am Markt 1"}, 
{"plz": "26349", "ort": "Jade", "name": "Jade", "street": "Jader Straße 47"}, 
{"plz": "26382", "ort": "Wilhelmshaven", "name": "Wilhelmshaven", "street": "Rathausplatz 10\nRATRiUM (ehemals Cityhaus) 1. OG", "phone": "04421-16-0", "email": "buergeramt@wilhelmshaven.de"}, 
{"plz": "26382", "ort": "Wilhelmshaven", "name": "Wilhelmshaven, Stadt", "street": "Rathausplatz 1"}, 
{"plz": "26409", "ort": "Wittmund", "name": "Wittmund, Stadt", "street": "Kurt-Schwitters-Platz 1"}, 
{"plz": "26419", "ort": "Schortens", "name": "Schortens, Stadt", "street": "Oldenburger Straße 29"}, 
{"plz": "26427", "ort": "Esens", "name": "Neuharlingersiel", "street": "Am Markt 2-4"}, 
{"plz": "26434", "ort": "Wangerland", "name": "Wangerland", "street": "Helmsteder Straße 1"}, 
{"plz": "26441", "ort": "Jever", "name": "Jever, Stadt", "street": "Am Kirchplatz 11"}, 
{"plz": "26446", "ort": "Friedeburg", "name": "Friedeburg", "street": "Friedeburger Hauptstraße 96"}, 
{"plz": "26452", "ort": "Sande", "name": "Sande", "street": "Hauptstraße 79"}, 
{"plz": "26465", "ort": "Langeoog", "name": "Langeoog", "street": "Hauptstraße 28"}, 
{"plz": "26474", "ort": "Spiekeroog", "name": "Spiekeroog", "street": "Westerloog 2"}, 
{"plz": "26486", "ort": "Wangerooge", "name": "Wangerooge, Nordseebad", "street": "Obere Strandpromenade 3"}, 
{"plz": "26506", "ort": "Norden", "name": "Norden, Stadt", "street": "Am Markt 15"}, 
{"plz": "26524", "ort": "Hage", "name": "Hage, Flecken", "street": "Hauptstraße 81"}, 
{"plz": "26529", "ort": "Marienhafe", "name": "Marienhafe, Flecken", "street": "Am Markt 10"}, 
{"plz": "26532", "ort": "Großheide", "name": "Großheide", "street": "Schloßstraße 10"}, 
{"plz": "26548", "ort": "Norderney", "name": "Norderney, Stadt", "street": "Am Kurplatz 3"}, 
{"plz": "26553", "ort": "Dornum", "name": "Dornum", "street": "Schatthauser Straße 9"}, 
{"plz": "26556", "ort": "Westerholt", "name": "Schweindorf", "street": "Auricher Straße 9"}, 
{"plz": "26571", "ort": "Juist", "name": "Juist, Inselgemeinde", "street": "Strandstraße 5"}, 
{"plz": "26579", "ort": "Baltrum", "name": "Baltrum", "street": "Westdorf 130"}, 
{"plz": "26603", "ort": "Aurich", "name": "Aurich, Stadt", "street": "Bgm. Hippen-Platz 1"}, 
{"plz": "26624", "ort": "Südbrookmerland", "name": "Südbrookmerland", "street": "Westvictorburer Straße 2"}, 
{"plz": "26629", "ort": "Großefehn", "name": "Großefehn", "street": "Kanalstraße Süd 54"}, 
{"plz": "26632", "ort": "Ihlow", "name": "Ihlow", "street": "Alte Wieke 6"}, 
{"plz": "26639", "ort": "Wiesmoor", "name": "Wiesmoor, Stadt", "street": "Hauptstraße 193"}, 
{"plz": "26655", "ort": "Westerstede", "name": "Westerstede, Stadt", "street": "Am Markt 2"}, 
{"plz": "26670", "ort": "Uplengen", "name": "Uplengen", "street": "Alter Postweg 113"}, 
{"plz": "26676", "ort": "Barßel", "name": "Barßel", "street": "Theodor-Klinker-Platz 1"}, 
{"plz": "26683", "ort": "Saterland", "name": "Saterland", "street": "Hauptstraße 507"}, 
{"plz": "26689", "ort": "Apen", "name": "Apen", "street": "Hauptstraße 200"}, 
{"plz": "26721", "ort": "Emden/Ostfriesland", "name": "Emden, Stadt", "street": "Frickensteinplatz 2"}, 
{"plz": "26736", "ort": "Krummhörn", "name": "Krummhörn", "street": "Rathausstraße 1"}, 
{"plz": "26757", "ort": "Borkum", "name": "Borkum, Stadt", "street": "Neue Straße 1"}, 
{"plz": "26759", "ort": "Hinte", "name": "Hinte", "street": "Brückstraße 11a"}, 
{"plz": "26789", "ort": "Leer/Ostfriesland", "name": "Leer (Ostfriesland), Stadt", "street": "Rathausstraße 1"}, 
{"plz": "26802", "ort": "Moormerland", "name": "Moormerland", "street": "Theodor-Heuss-Straße 12"}, 
{"plz": "26810", "ort": "Westoverledingen", "name": "Westoverledingen", "street": "Bahnhofstraße 18"}, 
{"plz": "26817", "ort": "Rhauderfehn", "name": "Rhauderfehn", "street": "1. Südwieke 2 a"}, 
{"plz": "26826", "ort": "Weener", "name": "Weener, Stadt", "street": "Osterstraße 1"}, 
{"plz": "26831", "ort": "Bunde", "name": "Bunde", "street": "Kirchring 2"}, 
{"plz": "26835", "ort": "Hesel", "name": "Neukamperfehn", "street": "Rathausstraße 14"}, 
{"plz": "26842", "ort": "Ostrhauderfehn", "name": "Ostrhauderfehn", "street": "Hauptstraße 117"}, 
{"plz": "26844", "ort": "Jemgum", "name": "Jemgum", "street": "Hofstraße 2"}, 
{"plz": "26849", "ort": "Filsum", "name": "Detern, Flecken", "street": "Rathausring 8-12"}, 
{"plz": "26871", "ort": "Papenburg", "name": "Papenburg, Stadt", "street": "Hauptkanal Rechts 68/69"}, 
{"plz": "26892", "ort": "Dörpen", "name": "Wippingen", "street": "Hauptstraße 25"}, 
{"plz": "26897", "ort": "Esterwegen", "name": "Hilkenbrook", "street": "Poststraße 13"}, 
{"plz": "26899", "ort": "Rhede/Ems", "name": "Rhede (Ems)", "street": "Gerhardyweg 1"}, 
{"plz": "26919", "ort": "Brake/Unterweser", "name": "Brake (Unterweser), Stadt", "street": "Schrabberdeich 1"}, 
{"plz": "26931", "ort": "Elsfleth", "name": "Elsfleth, Stadt", "street": "Rathausplatz 1"}, 
{"plz": "26935", "ort": "Stadland", "name": "Stadland", "street": "Am Markt 1"}, 
{"plz": "26939", "ort": "Ovelgönne", "name": "Ovelgönne", "street": "Rathausstraße 14"}, 
{"plz": "26954", "ort": "Nordenham", "name": "Nordenham, Stadt", "street": "Walther-Rathenau-Straße 25"}, 
{"plz": "26969", "ort": "Butjadingen", "name": "Butjadingen", "street": "Butjadinger Straße 59"}]