[{"plz": "29221", "ort": "Celle", "name": "Celle", "street": "Am Französischen Garten 1", "phone": "05141-12-0", "email": "buergerbuero@celle.de"}, 
{"plz": "29221", "ort": "Celle", "name": "Celle, Stadt", "street": "Am französischen Garten 1"}, 
{"plz": "29303", "ort": "Bergen", "name": "Bergen, Stadt", "street": "Deichend 3-7"}, 
{"plz": "29303", "ort": "Lohheide", "name": "Lohheide, gemfr. Bezirk", "street": "Kirchweg 8"}, 
{"plz": "29308", "ort": "Winsen/Aller", "name": "Winsen (Aller)", "street": "Am Amtshof 5"}, 
{"plz": "29313", "ort": "Hambühren", "name": "Hambühren", "street": "Versonstraße 7"}, 
{"plz": "29320", "ort": "Hermannsburg", "name": "Südheide", "street": "Am Markt 3"}, 
{"plz": "29323", "ort": "Wietze", "name": "Wietze", "street": "Steinförder Straße 4"}, 
{"plz": "29328", "ort": "Faßberg", "name": "Faßberg", "street": "Große Horststraße 40-44"}, 
{"plz": "29331", "ort": "Lachendorf", "name": "Beedenbostel", "street": "Oppershäuser Straße 1"}, 
{"plz": "29339", "ort": "Wathlingen", "name": "Adelheidsdorf", "street": "Am Schmiedeberg 1"}, 
{"plz": "29342", "ort": "Wienhausen", "name": "Wienhausen, Klostergemeinde", "street": "Am Alten Bahnhof 3"}, 
{"plz": "29348", "ort": "Eschede", "name": "Eschede", "street": "Am Glockenkolk 1"}, 
{"plz": "29378", "ort": "Wittingen", "name": "Wittingen, Stadt", "street": "Bahnhofstraße 35"}, 
{"plz": "29386", "ort": "Hankensbüttel", "name": "Hankensbüttel", "street": "Goethestraße 2"}, 
{"plz": "29392", "ort": "Wesendorf", "name": "Groß Oesingen", "street": "Alte Heerstraße 20"}, 
{"plz": "29410", "ort": "Hansestadt Salzwedel", "name": "Salzwedel, Hansestadt", "street": "An der Mönchskirche 5"}, 
{"plz": "29439", "ort": "Lüchow, Wendland", "name": "Bergen an der Dumme, Flecken", "street": "Theodor-Körner-Straße 14"}, 
{"plz": "29451", "ort": "Dannenberg/Elbe", "name": "Dannenberg (Elbe), Stadt", "street": "Rosmarienstraße 3"}, 
{"plz": "29471", "ort": "Gartow", "name": "Schnackenburg, Stadt", "street": "Springstraße 14"}, 
{"plz": "29525", "ort": "Uelzen", "name": "Uelzen, Hansestadt", "street": "Herzogenplatz 2"}, 
{"plz": "29549", "ort": "Bad Bevensen", "name": "Ebstorf,Klosterflecken", "street": "Lindenstraße 12"}, 
{"plz": "29553", "ort": "Bienenbüttel", "name": "Bienenbüttel", "street": "Marktplatz 1"}, 
{"plz": "29556", "ort": "Suderburg", "name": "Suderburg", "street": "Bahnhofstraße 54"}, 
{"plz": "29559", "ort": "Wrestedt", "name": "Bad Bodenteich, Flecken", "street": "Langdoren 4"}, 
{"plz": "29571", "ort": "Rosche", "name": "Suhlendorf", "street": "Lüchower Straße 15"}, 
{"plz": "29614", "ort": "Soltau", "name": "Soltau, Stadt", "street": "Poststraße 12"}, 
{"plz": "29633", "ort": "Munster", "name": "Munster, Stadt", "street": "Heinrich-Peters-Platz 1"}, 
{"plz": "29640", "ort": "Schneverdingen", "name": "Schneverdingen, Stadt", "street": "Schulstraße 3"}, 
{"plz": "29643", "ort": "Neuenkirchen", "name": "Neuenkirchen", "street": "Hauptstraße 1-3"}, 
{"plz": "29646", "ort": "Bispingen", "name": "Bispingen", "street": "Borsteler Straße 4-6"}, 
{"plz": "29649", "ort": "Wietzendorf", "name": "Wietzendorf", "street": "Hauptstraße 12"}, 
{"plz": "29664", "ort": "Walsrode", "name": "Walsrode, Stadt", "street": "Lange Straße 22"}, 
{"plz": "29683", "ort": "Oerbke", "name": "Osterheide, gemfr. Bezirk", "street": "Gillweg 7"}, 
{"plz": "29683", "ort": "Bad Fallingbostel", "name": "Bad Fallingbostel, Stadt", "street": "Vogteistraße 1"}, 
{"plz": "29690", "ort": "Schwarmstedt", "name": "Buchholz (Aller)", "street": "Am Markt 1"}, 
{"plz": "29693", "ort": "Hodenhagen", "name": "Ahlden (Aller), Flecken", "street": "Bahnhofstraße 30"}]