[{"plz": "86150", "ort": "Augsburg", "name": "Augsburg", "street": "Rathausplatz 1"}, 
{"plz": "86152", "ort": "Augsburg", "name": "Augsburg Stadtmitte", "street": "An der Blauen Kappe 18", "phone": "0821-324-9999", "email": "einwohnerwesen@augsburg.de"}, 
{"plz": "86156", "ort": "Augsburg", "name": "Augsburg", "street": "Ulmer Str. 72", "phone": "0821-324-9999", "email": "einwohnerwesen@augsburg.de"}, 
{"plz": "86167", "ort": "Augsburg", "name": "Augsburg Lechhausen", "street": "Neuburger Str. 20", "phone": "0821-324-0", "email": "einwohnerwesen@augsburg.de"}, 
{"plz": "86179", "ort": "Augsburg", "name": "Augsburg Haunstetten", "street": "Tattenbachstr. 15", "phone": "0821-324-0", "email": "einwohnerwesen@augsburg.de"}, 
{"plz": "86316", "ort": "Friedberg", "name": "Friedberg, St", "street": "Marienplatz 5"}, 
{"plz": "86331", "ort": "Königsbrunn", "name": "Königsbrunn, St", "street": "Postfach 1351"}, 
{"plz": "86344", "ort": "Neusäß", "name": "Neusäß, St", "street": "Postfach 1152"}, 
{"plz": "86358", "ort": "Gersthofen", "name": "Gersthofen, St", "street": "Postfach 1280"}, 
{"plz": "86371", "ort": "Krumbach (Schwaben)", "name": "Deisenhausen", "street": "Postfach 1334"}, 
{"plz": "86371", "ort": "Krumbach (Schwaben)", "name": "Krumbach (Schwaben), St", "street": "Postfach 1352"}, 
{"plz": "86381", "ort": "Krumbach (Schwaben)", "name": "Waltenhausen", "street": "Rittlen 6"}, 
{"plz": "86391", "ort": "Stadtbergen", "name": "Stadtbergen, St", "street": "Oberer Stadtweg 2"}, 
{"plz": "86394", "ort": "Bobingen", "name": "Bobingen, St", "street": "Postfach 1310"}, 
{"plz": "86400", "ort": "Meitingen", "name": "Meitingen, M", "street": "Postfach 1108"}, 
{"plz": "86406", "ort": "Mering", "name": "Schmiechen", "street": "Postfach 1106"}, 
{"plz": "86415", "ort": "Mering", "name": "Schmiechen", "street": "Kirchplatz 4"}, 
{"plz": "86420", "ort": "Diedorf", "name": "Diedorf, M", "street": "Lindenstraße 5"}, 
{"plz": "86421", "ort": "Dinkelscherben", "name": "Dinkelscherben, M", "street": "Postfach 53"}, 
{"plz": "86425", "ort": "Kissing", "name": "Kissing", "street": "Postfach 1110"}, 
{"plz": "86441", "ort": "Zusmarshausen", "name": "Zusmarshausen, M", "street": "Schulstraße 2"}, 
{"plz": "86444", "ort": "Affing", "name": "Affing", "street": "Mühlweg 2"}, 
{"plz": "86447", "ort": "Aindling", "name": "Aindling, M", "street": "Marktplatz 1"}, 
{"plz": "86450", "ort": "Altenmünster", "name": "Altenmünster", "street": "Rathausplatz 1"}, 
{"plz": "86451", "ort": "Dasing", "name": "Obergriesbach", "street": "Postfach 64"}, 
{"plz": "86456", "ort": "Gablingen", "name": "Gablingen", "street": "Rathausplatz 1"}, 
{"plz": "86459", "ort": "Gessertshausen", "name": "Gessertshausen", "street": "Hauptstraße 31"}, 
{"plz": "86462", "ort": "Langweid a.Lech", "name": "Langweid a.Lech", "street": "Augsburger Straße 20"}, 
{"plz": "86463", "ort": "Welden", "name": "Bonstetten", "street": "Postfach 24"}, 
{"plz": "86470", "ort": "Thannhausen", "name": "Münsterhausen, M", "street": "Edmund-Zimmermann-Straße 3"}, 
{"plz": "86473", "ort": "Ziemetshausen", "name": "Ziemetshausen, M", "street": "Bgm.-Haide-Straße 1"}, 
{"plz": "86476", "ort": "Neuburg a.d.Kammel", "name": "Neuburg a.d.Kammel, M", "street": "Bergstraße 2"}, 
{"plz": "86477", "ort": "Adelsried", "name": "Adelsried", "street": "Dillinger Straße 2"}, 
{"plz": "86482", "ort": "Aystetten", "name": "Aystetten", "street": "Bäckergasse 2"}, 
{"plz": "86485", "ort": "Biberbach", "name": "Biberbach, M", "street": "Rathausplatz 1"}, 
{"plz": "86492", "ort": "Egling a.d.Paar", "name": "Egling a.d.Paar", "street": "Hauptstraße 31"}, 
{"plz": "86497", "ort": "Horgau", "name": "Horgau", "street": "Martinsplatz 1"}, 
{"plz": "86500", "ort": "Kutzenhausen", "name": "Kutzenhausen", "street": "Schulstraße 10"}, 
{"plz": "86504", "ort": "Merching", "name": "Merching", "street": "Hauptstraße 26"}, 
{"plz": "86508", "ort": "Rehling", "name": "Rehling", "street": "Hauptstraße 1"}, 
{"plz": "86510", "ort": "Ried", "name": "Ried", "street": "Sirchenrieder Straße 1"}, 
{"plz": "86513", "ort": "Ursberg", "name": "Ursberg", "street": "Prämonstratenserstraße 20"}, 
{"plz": "86517", "ort": "Wehringen", "name": "Wehringen", "street": "Nördl. Hauptstraße 18"}, 
{"plz": "86523", "ort": "Schrobenhausen", "name": "Schrobenhausen, St", "street": "Postfach 1380"}, 
{"plz": "86529", "ort": "Schrobenhausen", "name": "Langenmosen", "street": "Herzoganger 1"}, 
{"plz": "86542", "ort": "Aichach", "name": "Aichach, St", "street": "Postfach 1110"}, 
{"plz": "86552", "ort": "Pöttmes", "name": "Baar (Schwaben)", "street": "Postfach 27"}, 
{"plz": "86556", "ort": "Kühbach", "name": "Schiltberg", "street": "Marktplatz 3"}, 
{"plz": "86558", "ort": "Hohenwart", "name": "Hohenwart, M", "street": "Marktplatz 1"}, 
{"plz": "86561", "ort": "Aresing", "name": "Aresing", "street": "St.-Martin-Straße 16"}, 
{"plz": "86567", "ort": "Hilgertshausen-Tandern", "name": "Hilgertshausen-Tandern", "street": "Schrobenhausener Straße 9"}, 
{"plz": "86568", "ort": "Hollenbach", "name": "Hollenbach", "street": "Hauptstraße 93"}, 
{"plz": "86570", "ort": "Inchenhofen", "name": "Inchenhofen, M", "street": "Zisterzienserplatz 2"}, 
{"plz": "86604", "ort": "Donauwörth", "name": "Donauwörth, GKSt", "street": "Postfach 1453"}, 
{"plz": "86622", "ort": "Neuburg a.d.Donau", "name": "Neuburg a.d.Donau, GKSt", "street": "Postfach 1740"}, 
{"plz": "86633", "ort": "Neuburg a.d.Donau", "name": "Rohrenfels", "street": "Tilly-Park 1a"}, 
{"plz": "86635", "ort": "Wertingen", "name": "Wertingen, St", "street": "Postfach 1224"}, 
{"plz": "86637", "ort": "Villenbach", "name": "Villenbach", "street": "Hauptstraße 17"}, 
{"plz": "86638", "ort": "Rain", "name": "Niederschönenfeld", "street": "Postfach 1110"}, 
{"plz": "86643", "ort": "Rennertshofen", "name": "Rennertshofen, M", "street": "Marktstraße 18"}, 
{"plz": "86644", "ort": "Buttenwiesen", "name": "Buttenwiesen", "street": "Postfach 11"}, 
{"plz": "86650", "ort": "Wemding", "name": "Wolferstadt", "street": "Marktplatz 3"}, 
{"plz": "86653", "ort": "Monheim", "name": "Tagmersheim", "street": "Marktplatz 23"}, 
{"plz": "86653", "ort": "Daiting", "name": "Daiting", "street": "Am Kirchberg 1"}, 
{"plz": "86655", "ort": "Harburg (Schwaben)", "name": "Harburg (Schwaben), St", "street": "Schloßstraße 1"}, 
{"plz": "86657", "ort": "Bissingen", "name": "Bissingen, M", "street": "Am Hofgarten 1"}, 
{"plz": "86660", "ort": "Tapfheim", "name": "Tapfheim", "street": "Ulmer Straße 66"}, 
{"plz": "86663", "ort": "Asbach-Bäumenheim", "name": "Asbach-Bäumenheim", "street": "Rathausplatz 1"}, 
{"plz": "86666", "ort": "Burgheim", "name": "Burgheim, M", "street": "Marktplatz 13"}, 
{"plz": "86668", "ort": "Karlshuld", "name": "Karlshuld", "street": "Hauptstraße 68"}, 
{"plz": "86669", "ort": "Königsmoos", "name": "Königsmoos", "street": "Neuburger Straße 10"}, 
{"plz": "86672", "ort": "Thierhaupten", "name": "Thierhaupten, M", "street": "Marktplatz 1"}, 
{"plz": "86675", "ort": "Buchdorf", "name": "Buchdorf", "street": "Hauptstraße 94"}, 
{"plz": "86676", "ort": "Ehekirchen", "name": "Ehekirchen", "street": "Bräugarten 1"}, 
{"plz": "86687", "ort": "Kaisheim", "name": "Kaisheim, M", "street": "Münsterplatz 5"}, 
{"plz": "86688", "ort": "Marxheim", "name": "Marxheim", "street": "Pfalzstraße 2"}, 
{"plz": "86690", "ort": "Mertingen", "name": "Mertingen", "street": "Fuggerstraße 5"}, 
{"plz": "86695", "ort": "Nordendorf", "name": "Allmannshofen", "street": "Schäfflerstraße 6"}, 
{"plz": "86697", "ort": "Oberhausen", "name": "Oberhausen", "street": "Hauptstraße 4"}, 
{"plz": "86698", "ort": "Oberndorf a.Lech", "name": "Oberndorf a.Lech", "street": "Eggelstetter Straße 3"}, 
{"plz": "86703", "ort": "Rögling", "name": "Rögling", "street": "Badgasse 8"}, 
{"plz": "86704", "ort": "Tagmersheim", "name": "Tagmersheim", "street": "Kirchplatz 1"}, 
{"plz": "86706", "ort": "Weichering", "name": "Weichering", "street": "Kapellenplatz 3"}, 
{"plz": "86715", "ort": "Nördlingen", "name": "Nördlingen, GKSt", "street": "Postfach 1543"}, 
{"plz": "86720", "ort": "Nördlingen", "name": "Mönchsdeggingen", "street": "Beuthener Straße 6"}, 
{"plz": "86729", "ort": "Oettingen i.Bay.", "name": "Oettingen i.Bay., St", "street": "Postfach 1151"}, 
{"plz": "86732", "ort": "Oettingen i.Bay.", "name": "Oettingen i.Bay., St", "street": "Schloßstraße 36"}, 
{"plz": "86742", "ort": "Fremdingen", "name": "Fremdingen", "street": "Kirchberg 1"}, 
{"plz": "86747", "ort": "Maihingen", "name": "Maihingen", "street": "Josef-Haas-Straße 2"}, 
{"plz": "86748", "ort": "Marktoffingen", "name": "Marktoffingen", "street": "Hauptstraße 26"}, 
{"plz": "86753", "ort": "Möttingen", "name": "Möttingen", "street": "Dorfplatz 12"}, 
{"plz": "86757", "ort": "Wallerstein", "name": "Wallerstein, M", "street": "Weinstraße 19"}, 
{"plz": "86802", "ort": "Buchloe", "name": "Lamerdingen", "street": "Postfach 240"}, 
{"plz": "86819", "ort": "Bad Wörishofen", "name": "Bad Wörishofen, St", "street": "Postfach 1663"}, 
{"plz": "86827", "ort": "Schwabmünchen", "name": "Schwabmünchen, St", "street": "Postfach 1252"}, 
{"plz": "86833", "ort": "Ettringen", "name": "Ettringen", "street": "Siebnacher Straße 1"}, 
{"plz": "86836", "ort": "Graben", "name": "Graben", "street": "Rathausplatz 1"}, 
{"plz": "86836", "ort": "Klosterlechfeld", "name": "Klosterlechfeld", "street": "Bayernstraße 1"}, 
{"plz": "86836", "ort": "Untermeitingen", "name": "Klosterlechfeld", "street": "Von-Imhof-Straße 6"}, 
{"plz": "86839", "ort": "Türkheim", "name": "Wiedergeltingen", "street": "Postfach 210"}, 
{"plz": "86845", "ort": "Großaitingen", "name": "Oberottmarshausen", "street": "Am Alten Markt 3"}, 
{"plz": "86846", "ort": "Fischach", "name": "Fischach, M", "street": "Postfach 24"}, 
{"plz": "86851", "ort": "Langerringen", "name": "Hiltenfingen", "street": "Postfach 1132"}, 
{"plz": "86854", "ort": "Amberg", "name": "Amberg", "street": "Hauptstraße 1"}, 
{"plz": "86859", "ort": "Igling", "name": "Obermeitingen", "street": "Unteriglinger Straße 37"}, 
{"plz": "86859", "ort": "Igling", "name": "Obermeitingen", "street": "Donnersbergstraße 1"}, 
{"plz": "86860", "ort": "Jengen", "name": "Jengen", "street": "Kirchplatz 7"}, 
{"plz": "86862", "ort": "Lamerdingen", "name": "Lamerdingen", "street": "Hauptstraße 1"}, 
{"plz": "86863", "ort": "Langenneufnach", "name": "Mittelneufnach", "street": "Rathausstraße 58"}, 
{"plz": "86865", "ort": "Markt Wald", "name": "Markt Wald, M", "street": "Hauptstraße 61"}, 
{"plz": "86871", "ort": "Rammingen", "name": "Rammingen", "street": "Rathausplatz 1"}, 
{"plz": "86874", "ort": "Tussenhausen", "name": "Tussenhausen, M", "street": "Marktplatz 9"}, 
{"plz": "86875", "ort": "Waal", "name": "Waal, M", "street": "Marktplatz 1"}, 
{"plz": "86879", "ort": "Wiedergeltingen", "name": "Wiedergeltingen", "street": "Mindelheimer Straße 21"}, 
{"plz": "86886", "ort": "Landsberg am Lech", "name": "Landsberg am Lech, GKSt", "street": "Postfach 1653"}, 
{"plz": "86907", "ort": "Dießen am Ammersee", "name": "Dießen am Ammersee, M", "street": "Postfach 1154"}, 
{"plz": "86912", "ort": "Kaufering", "name": "Kaufering, M", "street": "Postfach 1155"}, 
{"plz": "86919", "ort": "Utting am Ammersee", "name": "Utting am Ammersee", "street": "Eduard-Thöny-Straße 1"}, 
{"plz": "86920", "ort": "Denklingen", "name": "Denklingen", "street": "Rathausplatz 1"}, 
{"plz": "86925", "ort": "Fuchstal", "name": "Unterdießen", "street": "Bahnhofstraße 1"}, 
{"plz": "86929", "ort": "Penzing", "name": "Penzing", "street": "Fritz-Börner-Straße 11"}, 
{"plz": "86931", "ort": "Prittriching", "name": "Prittriching", "street": "Bgm.-Franz-Ditsch-Straße 7"}, 
{"plz": "86931", "ort": "Prittriching", "name": "Prittriching", "street": "Bgm.-Franz Ditsch-Straße 7"}, 
{"plz": "86932", "ort": "Pürgen", "name": "Hofstetten", "street": "Weilheimer Straße 2"}, 
{"plz": "86934", "ort": "Reichling", "name": "Vilgertshofen", "street": "Untergasse 3"}, 
{"plz": "86938", "ort": "Schondorf am Ammersee", "name": "Schondorf am Ammersee", "street": "Rathausplatz 1"}, 
{"plz": "86947", "ort": "Weil", "name": "Weil", "street": "Landsberger Straße 15"}, 
{"plz": "86949", "ort": "Windach", "name": "Finning", "street": "Von-Pfetten-Füll-Platz 1"}, 
{"plz": "86953", "ort": "Schongau", "name": "Schongau, St", "street": "Postfach 1348"}, 
{"plz": "86971", "ort": "Peiting", "name": "Peiting, M", "street": "Hauptplatz 2"}, 
{"plz": "86972", "ort": "Altenstadt", "name": "Schwabsoien", "street": "Marienplatz 2"}, 
{"plz": "86975", "ort": "Bernbeuren", "name": "Bernbeuren", "street": "Marktplatz 4"}, 
{"plz": "86983", "ort": "Lechbruck am See", "name": "Lechbruck am See", "street": "Postfach 1120"}, 
{"plz": "86989", "ort": "Steingaden", "name": "Steingaden", "street": "Krankenhausstraße 1"}]