[{"plz": "85049", "ort": "Ingolstadt", "name": "Ingolstadt", "street": "Rathausplatz 4"}, 
{"plz": "85049", "ort": "Ingolstadt", "name": "Ingolstadt Neues Rathaus", "street": "Rathausplatz 4\nEG Zimmer 002", "phone": "0841-305-1500", "email": "buergeramt@ingolstadt.de"}, 
{"plz": "85067", "ort": "Eichstätt", "name": "Eichstätt, GKSt", "street": "Postfach 1344"}, 
{"plz": "85072", "ort": "Eichstätt", "name": "Pollenfeld", "street": "Gundekarstraße 7a"}, 
{"plz": "85074", "ort": "Manching", "name": "Manching, M", "street": "Postfach 1209"}, 
{"plz": "85080", "ort": "Gaimersheim", "name": "Gaimersheim, M", "street": "Marktplatz 3"}, 
{"plz": "85084", "ort": "Reichertshofen", "name": "Reichertshofen, M", "street": "Schloßgasse 5"}, 
{"plz": "85088", "ort": "Vohburg a.d.Donau", "name": "Vohburg a.d.Donau, St", "street": "Ulrich-Steinberger-Platz 12"}, 
{"plz": "85092", "ort": "Kösching", "name": "Kösching, M", "street": "Marktplatz 1"}, 
{"plz": "85095", "ort": "Denkendorf", "name": "Denkendorf", "street": "Wassertal 2"}, 
{"plz": "85096", "ort": "Großmehring", "name": "Großmehring", "street": "Postfach 9"}, 
{"plz": "85099", "ort": "Lenting", "name": "Lenting", "street": "Postfach 1162"}, 
{"plz": "85104", "ort": "Pförring", "name": "Mindelstetten", "street": "Marktplatz 1"}, 
{"plz": "85107", "ort": "Baar-Ebenhausen", "name": "Baar-Ebenhausen", "street": "Münchener Straße 55"}, 
{"plz": "85108", "ort": "Kipfenberg", "name": "Kipfenberg, M", "street": "Postfach 27"}, 
{"plz": "85113", "ort": "Böhmfeld", "name": "Böhmfeld", "street": "Hofstetter Straße 3"}, 
{"plz": "85114", "ort": "Buxheim", "name": "Buxheim", "street": "Dorfplatz 2"}, 
{"plz": "85117", "ort": "Eitensheim", "name": "Eitensheim", "street": "Eichstätter Straße 8"}, 
{"plz": "85120", "ort": "Hepberg", "name": "Hepberg", "street": "Schulstraße 5"}, 
{"plz": "85122", "ort": "Hitzhofen", "name": "Hitzhofen", "street": "Kirchweg 12"}, 
{"plz": "85123", "ort": "Karlskron", "name": "Karlskron", "street": "Hauptstraße 34"}, 
{"plz": "85125", "ort": "Kinding", "name": "Kinding, M", "street": "Kipfenberger Straße 4"}, 
{"plz": "85126", "ort": "Münchsmünster", "name": "Münchsmünster", "street": "Tassilostraße 20"}, 
{"plz": "85128", "ort": "Nassenfels", "name": "Nassenfels, M", "street": "Schulstraße 9"}, 
{"plz": "85129", "ort": "Oberdolling", "name": "Oberdolling", "street": "Hauptstraße 1"}, 
{"plz": "85134", "ort": "Stammham", "name": "Stammham", "street": "Nürnberger Straße 3"}, 
{"plz": "85135", "ort": "Titting", "name": "Titting, M", "street": "Rathausplatz 1"}, 
{"plz": "85139", "ort": "Wettstetten", "name": "Wettstetten", "street": "Kirchplatz 10"}, 
{"plz": "85208", "ort": "Dachau", "name": "Dachau, GKSt", "street": "Postfach 1869"}, 
{"plz": "85229", "ort": "Markt Indersdorf", "name": "Markt Indersdorf, M", "street": "Marktplatz 1"}, 
{"plz": "85230", "ort": "Bergkirchen", "name": "Bergkirchen", "street": "Postfach 8"}, 
{"plz": "85233", "ort": "Pfaffenhofen a.d. Glonn", "name": "Pfaffenhofen a.d.Glonn", "street": "Hauptstraße 14"}, 
{"plz": "85233", "ort": "Odelzhausen", "name": "Odelzhausen", "street": "Postfach 3"}, 
{"plz": "85238", "ort": "Petershausen", "name": "Petershausen", "street": "Bürgermeister-Rädler-Straße 3"}, 
{"plz": "85241", "ort": "Hebertshausen", "name": "Hebertshausen", "street": "Am Weinberg 1"}, 
{"plz": "85244", "ort": "Röhrmoos", "name": "Röhrmoos", "street": "Rathausplatz 1"}, 
{"plz": "85247", "ort": "Schwabhausen", "name": "Schwabhausen", "street": "Münchener Straße 12"}, 
{"plz": "85250", "ort": "Altomünster", "name": "Altomünster, M", "street": "St. Altohof 1"}, 
{"plz": "85253", "ort": "Erdweg", "name": "Erdweg", "street": "Rathausplatz 1"}, 
{"plz": "85254", "ort": "Sulzemoos", "name": "Sulzemoos", "street": "Kirchstraße 3"}, 
{"plz": "85256", "ort": "Vierkirchen", "name": "Vierkirchen", "street": "Schulweg 1"}, 
{"plz": "85258", "ort": "Weichs", "name": "Weichs", "street": "Frühlingstraße 11"}, 
{"plz": "85262", "ort": "Pfaffenhofen a.d.Ilm", "name": "Pfaffenhofen a.d.Ilm, St", "street": "Postfach 1241"}, 
{"plz": "85280", "ort": "Wolnzach", "name": "Wolnzach, M", "street": "Postfach 1209"}, 
{"plz": "85284", "ort": "Geisenfeld", "name": "Geisenfeld, St", "street": "Postfach 1030"}, 
{"plz": "85290", "ort": "Geisenfeld", "name": "Geisenfeld, St", "street": "Kirchplatz 4"}, 
{"plz": "85293", "ort": "Reichertshausen", "name": "Reichertshausen", "street": "Pfaffenhofener Straße 2"}, 
{"plz": "85296", "ort": "Rohrbach", "name": "Rohrbach", "street": "Hofmarkstraße 2"}, 
{"plz": "85298", "ort": "Scheyern", "name": "Scheyern", "street": "Ludwigstraße 2"}, 
{"plz": "85301", "ort": "Schweitenkirchen", "name": "Schweitenkirchen", "street": "Hauptstraße 29"}, 
{"plz": "85302", "ort": "Gerolsbach", "name": "Gerolsbach", "street": "Hofmarkstraße 1"}, 
{"plz": "85304", "ort": "Ilmmünster", "name": "Hettenshausen", "street": "Freisinger Straße 3"}, 
{"plz": "85305", "ort": "Jetzendorf", "name": "Jetzendorf", "street": "Poststraße 1"}, 
{"plz": "85309", "ort": "Pörnbach", "name": "Pörnbach", "street": "Kirchplatz 1"}, 
{"plz": "85350", "ort": "Freising", "name": "Freising, GKSt", "street": null}, 
{"plz": "85368", "ort": "Moosburg a.d.Isar", "name": "Moosburg a.d.Isar, St", "street": "Stadtplatz 13"}, 
{"plz": "85371", "ort": "Neufahrn b.Freising", "name": "Neufahrn b.Freising", "street": "Postfach 1380"}, 
{"plz": "85386", "ort": "Eching", "name": "Eching", "street": "Fürholzener Straße 14"}, 
{"plz": "85387", "ort": "Allershausen", "name": "Allershausen", "street": "Postfach 1143"}, 
{"plz": "85399", "ort": "Hallbergmoos", "name": "Hallbergmoos", "street": "Rathausplatz 1"}, 
{"plz": "85402", "ort": "Kranzberg", "name": "Kranzberg", "street": "Untere Dorfstraße 3"}, 
{"plz": "85405", "ort": "Nandlstadt", "name": "Nandlstadt, M", "street": "Rathausplatz 1"}, 
{"plz": "85406", "ort": "Zolling", "name": "Haag a.d.Amper", "street": "Rathausplatz 1"}, 
{"plz": "85411", "ort": "Hohenkammer", "name": "Hohenkammer", "street": "Petershauser Straße 1"}, 
{"plz": "85414", "ort": "Kirchdorf a. d. Amper", "name": "Kirchdorf a.d.Amper", "street": "Rathausplatz 1"}, 
{"plz": "85416", "ort": "Langenbach", "name": "Langenbach", "street": "Bahnhofstraße 6"}, 
{"plz": "85417", "ort": "Marzling", "name": "Marzling", "street": "Freisinger Straße 11"}, 
{"plz": "85419", "ort": "Mauern", "name": "Hörgertshausen", "street": "Schloßplatz 2"}, 
{"plz": "85421", "ort": "Erding", "name": "Erding, GKSt", "street": "Postfach 1151"}, 
{"plz": "85445", "ort": "Oberding", "name": "Oberding", "street": "Tassilostraße 17"}, 
{"plz": "85447", "ort": "Fraunberg", "name": "Fraunberg", "street": "Rathausplatz 1"}, 
{"plz": "85452", "ort": "Moosinning", "name": "Moosinning", "street": "Erdinger Straße 30a"}, 
{"plz": "85456", "ort": "Wartenberg", "name": "Langenpreising", "street": "Marktplatz 8"}, 
{"plz": "85457", "ort": "Wörth", "name": "Walpertskirchen", "street": "Erdinger Straße 8a"}, 
{"plz": "85461", "ort": "Bockhorn", "name": "Bockhorn", "street": "Rathausplatz 1"}, 
{"plz": "85464", "ort": "Finsing", "name": "Finsing", "street": "Rathausplatz 1"}, 
{"plz": "85467", "ort": "Neuching", "name": "Ottenhofen", "street": "St.-Martin-Straße 9"}, 
{"plz": "85502", "ort": "Ottobrunn", "name": "Ottobrunn", "street": "Postfach 1132"}, 
{"plz": "85530", "ort": "Haar", "name": "Haar", "street": "Postfach 1209"}, 
{"plz": "85551", "ort": "Kirchheim b.München", "name": "Kirchheim b.München", "street": "Münchner Straße 6"}, 
{"plz": "85553", "ort": "Ebersberg", "name": "Ebersberg, St", "street": "Postfach 1220"}, 
{"plz": "85567", "ort": "Grafing b.München", "name": "Grafing b.München, St", "street": "Marktplatz 28"}, 
{"plz": "85570", "ort": "Markt Schwaben", "name": "Markt Schwaben, M", "street": "Schloßplatz 2"}, 
{"plz": "85571", "ort": "Neubiberg", "name": "Neubiberg", "street": "Postfach 1152"}, 
{"plz": "85580", "ort": "Poing", "name": "Poing", "street": "Postfach 1164"}, 
{"plz": "85587", "ort": "Vaterstetten", "name": "Vaterstetten", "street": "Postfach 1109"}, 
{"plz": "85601", "ort": "Zorneding", "name": "Zorneding", "street": "Postfach 1261"}, 
{"plz": "85609", "ort": "Aschheim", "name": "Aschheim", "street": "Saturnstraße 48"}, 
{"plz": "85614", "ort": "Kirchseeon", "name": "Kirchseeon, M", "street": "Rathausstraße 1"}, 
{"plz": "85615", "ort": "Aßling", "name": "Frauenneuharting", "street": "Postfach 1128"}, 
{"plz": "85617", "ort": "Aßling", "name": "Frauenneuharting", "street": "Bahnhofstraße 1"}, 
{"plz": "85619", "ort": "Feldkirchen", "name": "Feldkirchen", "street": "Postfach 1249"}, 
{"plz": "85623", "ort": "Glonn", "name": "Oberpframmern", "street": "Postfach 1120"}, 
{"plz": "85627", "ort": "Grasbrunn", "name": "Grasbrunn", "street": "Postfach 1331"}, 
{"plz": "85635", "ort": "Höhenkirchen-Siegertsbrunn", "name": "Höhenkirchen-Siegertsbrunn", "street": "Rosenheimer Straße 26"}, 
{"plz": "85640", "ort": "Putzbrunn", "name": "Putzbrunn", "street": "Rathausstraße 1"}, 
{"plz": "85643", "ort": "Steinhöring", "name": "Steinhöring", "street": "Berger Straße 3"}, 
{"plz": "85646", "ort": "Anzing", "name": "Anzing", "street": "Schulstraße 1"}, 
{"plz": "85647", "ort": "Brunnthal", "name": "Brunnthal", "street": "Postfach 30"}, 
{"plz": "85652", "ort": "Pliening", "name": "Pliening", "street": "Geltinger Straße 18"}, 
{"plz": "85653", "ort": "Aying", "name": "Aying", "street": "Kirchgasse 4"}, 
{"plz": "85659", "ort": "Forstern", "name": "Forstern", "street": "Hauptstraße 15"}, 
{"plz": "85661", "ort": "Forstinning", "name": "Forstinning", "street": "Mühldorfer Straße 4"}, 
{"plz": "85662", "ort": "Hohenbrunn", "name": "Hohenbrunn", "street": "Pfarrer-Wenk-Platz 1"}, 
{"plz": "85664", "ort": "Hohenlinden", "name": "Hohenlinden", "street": "Rathausplatz 1"}, 
{"plz": "85669", "ort": "Pastetten", "name": "Buch a.Buchrain", "street": "Fröbelweg 1"}, 
{"plz": "85702", "ort": "Unterschleißheim", "name": "Unterschleißheim, St", "street": "Postfach 1220"}, 
{"plz": "85729", "ort": "Ismaning", "name": "Ismaning", "street": "Postfach 1163"}, 
{"plz": "85742", "ort": "Garching b.München", "name": "Garching b.München, St", "street": "Postfach 1453"}, 
{"plz": "85750", "ort": "Karlsfeld", "name": "Karlsfeld", "street": "Postfach 1220"}, 
{"plz": "85758", "ort": "Oberschleißheim", "name": "Oberschleißheim", "street": "Postfach 1163"}, 
{"plz": "85766", "ort": "Unterföhring", "name": "Unterföhring", "street": "Postfach 1253"}, 
{"plz": "85777", "ort": "Fahrenzhausen", "name": "Fahrenzhausen", "street": "Hauptstraße 21"}, 
{"plz": "85778", "ort": "Haimhausen", "name": "Haimhausen", "street": "Hauptstraße 15"}]