[{"plz": "88045", "ort": "Friedrichshafen", "name": "Friedrichshafen, Stadt", "street": "Adenauerplatz 1"}, 
{"plz": "88048", "ort": "Friedrichshafen", "name": "Friedrichshafen Fischbach", "street": "Zeppelinstr. 306", "phone": "07541-41-546", "email": "buergerservice@friedrichshafen.de"}, 
{"plz": "88069", "ort": "Tettnang", "name": "Tettnang, Stadt", "street": "Montfortplatz 7", "phone": "07542-510-150", "email": "buergerbuero@tettnang.de"}, 
{"plz": "88074", "ort": "Meckenbeuren", "name": "Meckenbeuren", "street": "Theodor-Heuss-Platz 1"}, 
{"plz": "88079", "ort": "Kressbronn am Bodensee", "name": "Kressbronn am Bodensee", "street": "Hauptstraße 19"}, 
{"plz": "88085", "ort": "Langenargen", "name": "Langenargen", "street": "Obere Seestraße 1"}, 
{"plz": "88090", "ort": "Immenstaad am Bodensee", "name": "Immenstaad am Bodensee", "street": "Dr.-Zimmermann-Straße 1"}, 
{"plz": "88094", "ort": "Oberteuringen", "name": "Oberteuringen", "street": "St.-Martin-Platz 9"}, 
{"plz": "88097", "ort": "Eriskirch", "name": "Eriskirch", "street": "Schussenstraße 18"}, 
{"plz": "88099", "ort": "Neukirch", "name": "Neukirch", "street": "Schulstraße 3"}, 
{"plz": "88131", "ort": "Bodolz", "name": "Bodolz", "street": "Rathausstraße 20"}, 
{"plz": "88131", "ort": "Lindau (Bodensee)", "name": "Lindau (Bodensee), GKSt", "street": "Bregenzer Straße 4-12"}, 
{"plz": "88138", "ort": "Sigmarszell", "name": "Hergensweiler", "street": "Hauptstraße 28"}, 
{"plz": "88142", "ort": "Wasserburg (Bodensee)", "name": "Wasserburg (Bodensee)", "street": "Lindenplatz 1"}, 
{"plz": "88145", "ort": "Opfenbach", "name": "Opfenbach", "street": "Bodenseestraße 19"}, 
{"plz": "88145", "ort": "Hergatz", "name": "Hergatz", "street": "Salzstraße 18"}, 
{"plz": "88147", "ort": "Achberg", "name": "Achberg", "street": "Kirchstraße 9"}, 
{"plz": "88149", "ort": "Nonnenhorn", "name": "Nonnenhorn", "street": "Postfach 10"}, 
{"plz": "88151", "ort": "Lindenberg i.Allgäu", "name": "Lindenberg i.Allgäu, St", "street": "Postfach 1165"}, 
{"plz": "88167", "ort": "Stiefenhofen", "name": "Stiefenhofen", "street": "Hauptstraße 8"}, 
{"plz": "88167", "ort": "Röthenbach (Allgäu)", "name": "Röthenbach (Allgäu)", "street": "Mühlenstraße 1"}, 
{"plz": "88168", "ort": "Weiler-Simmerberg", "name": "Weiler-Simmerberg, M", "street": "Postfach 1144"}, 
{"plz": "88175", "ort": "Scheidegg", "name": "Scheidegg, M", "street": "Rathausplatz 6"}, 
{"plz": "88178", "ort": "Heimenkirch", "name": "Heimenkirch, M", "street": "Lindauer Straße 2 / Postfach 1"}, 
{"plz": "88212", "ort": "Ravensburg", "name": "Ravensburg, Stadt", "street": "Salamanderweg 22"}, 
{"plz": "88212", "ort": "Ravensburg", "name": "Ravensburg, Stadt", "street": "Marienplatz 26"}, 
{"plz": "88239", "ort": "Wangen im Allgäu", "name": "Wangen im Allgäu, Stadt", "street": "Marktplatz 1"}, 
{"plz": "88250", "ort": "Weingarten", "name": "Weingarten, Stadt", "street": "Kirchstraße 1"}, 
{"plz": "88255", "ort": "Baienfurt", "name": "Baienfurt", "street": "Marktplatz 1"}, 
{"plz": "88255", "ort": "Baindt", "name": "Baindt", "street": "Marsweilerstraße 4"}, 
{"plz": "88260", "ort": "Argenbühl", "name": "Argenbühl", "street": "Kirchstraße 9"}, 
{"plz": "88263", "ort": "Horgenzell", "name": "Horgenzell", "street": "Kornstraße 44"}, 
{"plz": "88267", "ort": "Vogt", "name": "Wolfegg", "street": "Kirchstraße 11"}, 
{"plz": "88271", "ort": "Wilhelmsdorf", "name": "Wilhelmsdorf", "street": "Saalplatz 7"}, 
{"plz": "88273", "ort": "Fronreute", "name": "Fronreute", "street": "Schwommengasse 2"}, 
{"plz": "88276", "ort": "Berg", "name": "Berg", "street": "Bergstraße 35"}, 
{"plz": "88279", "ort": "Amtzell", "name": "Amtzell", "street": "Waldburger Straße 4"}, 
{"plz": "88281", "ort": "Schlier", "name": "Schlier", "street": "Rathausstraße 10"}, 
{"plz": "88284", "ort": "Wolpertswende", "name": "Wolpertswende", "street": "Kirchplatz 4"}, 
{"plz": "88285", "ort": "Bodnegg", "name": "Bodnegg", "street": "Dorfstraße 18"}, 
{"plz": "88287", "ort": "Grünkraut", "name": "Grünkraut", "street": "Kaufstraße 11"}, 
{"plz": "88287", "ort": "Grünkraut", "name": "Grünkraut", "street": "Scherzachstraße 2"}, 
{"plz": "88289", "ort": "Waldburg", "name": "Waldburg", "street": "Hauptstraße  20"}, 
{"plz": "88299", "ort": "Leutkirch im Allgäu", "name": "Leutkirch im Allgäu, Stadt", "street": "Marktstraße 26"}, 
{"plz": "88316", "ort": "Isny im Allgäu", "name": "Isny im Allgäu, Stadt", "street": "Wassertorstraße 1-3"}, 
{"plz": "88317", "ort": "Aichstetten", "name": "Aichstetten", "street": "Bachstraße 2"}, 
{"plz": "88319", "ort": "Aitrach", "name": "Aitrach", "street": "Schwalweg 10"}, 
{"plz": "88326", "ort": "Aulendorf", "name": "Aulendorf, Stadt", "street": "Hauptstraße 35"}, 
{"plz": "88339", "ort": "Bad Waldsee", "name": "Bad Waldsee, Stadt", "street": "Hauptstraße 29"}, 
{"plz": "88348", "ort": "Bad Saulgau", "name": "Bad Saulgau, Stadt", "street": "Oberamteistraße 11"}, 
{"plz": "88348", "ort": "Allmannsweiler", "name": "Allmannsweiler", "street": "Buchauer Straße 2"}, 
{"plz": "88353", "ort": "Kißlegg", "name": "Kißlegg", "street": "Schloßstraße 5"}, 
{"plz": "88356", "ort": "Ostrach", "name": "Ostrach", "street": "Hauptstraße 19"}, 
{"plz": "88361", "ort": "Eichstegen", "name": "Eichstegen", "street": "Hauptstraße 11"}, 
{"plz": "88361", "ort": "Altshausen", "name": "Ebersbach-Musbach", "street": "Ebersbacher Straße 4"}, 
{"plz": "88361", "ort": "Altshausen", "name": "Altshausen", "street": "Hindenburgstraße 3"}, 
{"plz": "88361", "ort": "Boms", "name": "Boms", "street": "Kirchstraße 1"}, 
{"plz": "88364", "ort": "Wolfegg", "name": "Wolfegg", "street": "Rötenbacher Straße 11"}, 
{"plz": "88367", "ort": "Hohentengen", "name": "Hohentengen", "street": "Beizkoferstraße 57"}, 
{"plz": "88368", "ort": "Bergatreute", "name": "Bergatreute", "street": "Ravensburger Straße 20"}, 
{"plz": "88370", "ort": "Ebenweiler", "name": "Ebenweiler", "street": "Unterwaldhauser Straße 2"}, 
{"plz": "88371", "ort": "Ebersbach-Musbach", "name": "Ebersbach-Musbach", "street": "Kirchplatz 4"}, 
{"plz": "88373", "ort": "Fleischwangen", "name": "Fleischwangen", "street": "Rathausstraße 19"}, 
{"plz": "88374", "ort": "Hoßkirch", "name": "Hoßkirch", "street": "Kirchstrasse 2"}, 
{"plz": "88376", "ort": "Königseggwald", "name": "Königseggwald", "street": "Hauptstraße 17"}, 
{"plz": "88377", "ort": "Riedhausen", "name": "Riedhausen", "street": "Kirchstraße 1"}, 
{"plz": "88379", "ort": "Guggenhausen", "name": "Unterwaldhausen", "street": "Hauptstraße 5"}, 
{"plz": "88400", "ort": "Biberach an der Riß", "name": "Biberach an der Riß, Stadt", "street": "Hindenburgstraße 1"}, 
{"plz": "88400", "ort": "Biberach an der Riß", "name": "Biberach an der Riß, Stadt", "street": "Marktplatz 7/1"}, 
{"plz": "88410", "ort": "Bad Wurzach", "name": "Bad Wurzach, Stadt", "street": "Marktstraße 16"}, 
{"plz": "88416", "ort": "Steinhausen an der Rottum", "name": "Steinhausen an der Rottum", "street": "Ehrensberger Straße 13"}, 
{"plz": "88416", "ort": "Erlenmoos", "name": "Erlenmoos", "street": "Biberacher Straße 11"}, 
{"plz": "88416", "ort": "Ochsenhausen", "name": "Steinhausen an der Rottum", "street": "Marktplatz 1"}, 
{"plz": "88422", "ort": "Betzenweiler", "name": "Betzenweiler", "street": "Riedlinger Straße 2"}, 
{"plz": "88422", "ort": "Bad Buchau", "name": "Bad Buchau, Stadt", "street": "Marktplatz 2"}, 
{"plz": "88422", "ort": "Alleshausen", "name": "Alleshausen", "street": "Hauptstraße 10"}, 
{"plz": "88422", "ort": "Dürnau", "name": "Dürnau", "street": "Im Winkel 2"}, 
{"plz": "88422", "ort": "Kanzach", "name": "Kanzach", "street": "Rathausweg 6"}, 
{"plz": "88422", "ort": "Tiefenbach", "name": "Tiefenbach", "street": "Buchauer Straße 21"}, 
{"plz": "88422", "ort": "Moosburg", "name": "Moosburg", "street": "Bad Buchauer Straße 57"}, 
{"plz": "88422", "ort": "Oggelshausen", "name": "Oggelshausen", "street": "Schulstraße 5"}, 
{"plz": "88422", "ort": "Seekirch", "name": "Seekirch", "street": "Hauptstraße 23"}, 
{"plz": "88427", "ort": "Bad Schussenried", "name": "Bad Schussenried, Stadt", "street": "Wilhelm-Schussen-Straße 36"}, 
{"plz": "88430", "ort": "Rot an der Rot", "name": "Rot an der Rot", "street": "Klosterhof 14"}, 
{"plz": "88430", "ort": "Rot an der Rot", "name": "Rot an der Rot", "street": "Klosterhof 5"}, 
{"plz": "88433", "ort": "Schemmerhofen", "name": "Schemmerhofen", "street": "Hauptstraße 25"}, 
{"plz": "88436", "ort": "Eberhardzell", "name": "Eberhardzell", "street": "Burgstraße 2"}, 
{"plz": "88437", "ort": "Maselheim", "name": "Maselheim", "street": "Wennedacher Straße 5"}, 
{"plz": "88441", "ort": "Mittelbiberach", "name": "Mittelbiberach", "street": "Biberacher Straße 59"}, 
{"plz": "88444", "ort": "Ummendorf", "name": "Ummendorf", "street": "Biberacher Straße 9"}, 
{"plz": "88447", "ort": "Warthausen", "name": "Warthausen", "street": "Alte Biberacher Straße 13"}, 
{"plz": "88448", "ort": "Attenweiler", "name": "Attenweiler", "street": "Bachstraße 7"}, 
{"plz": "88450", "ort": "Berkheim", "name": "Berkheim", "street": "Coubronplatz 1"}, 
{"plz": "88451", "ort": "Dettingen an der Iller", "name": "Dettingen an der Iller", "street": "Oberdettinger Straße 16"}, 
{"plz": "88453", "ort": "Erolzheim", "name": "Kirchdorf an der Iller", "street": "Marktplatz 15"}, 
{"plz": "88453", "ort": "Erolzheim", "name": "Erolzheim", "street": "Marktplatz 7"}, 
{"plz": "88454", "ort": "Hochdorf", "name": "Hochdorf", "street": "Hauptstraße 29"}, 
{"plz": "88456", "ort": "Ingoldingen", "name": "Ingoldingen", "street": "St. Georgenstraße 1"}, 
{"plz": "88457", "ort": "Kirchdorf an der Iller", "name": "Kirchdorf an der Iller", "street": "Rathausstraße 11"}, 
{"plz": "88459", "ort": "Tannheim", "name": "Tannheim", "street": "Rathausplatz 1"}, 
{"plz": "88471", "ort": "Laupheim", "name": "Laupheim, Stadt", "street": "Marktplatz 1"}, 
{"plz": "88477", "ort": "Schwendi", "name": "Schwendi", "street": "Biberacher Straße 1"}, 
{"plz": "88480", "ort": "Achstetten", "name": "Achstetten", "street": "Laupheimer Straße 6"}, 
{"plz": "88481", "ort": "Balzheim", "name": "Balzheim", "street": "Am Dorfplatz 8"}, 
{"plz": "88483", "ort": "Burgrieden", "name": "Burgrieden", "street": "Rathausplatz 2"}, 
{"plz": "88484", "ort": "Gutenzell-Hürbel", "name": "Gutenzell-Hürbel", "street": "Kirchberger Straße 8"}, 
{"plz": "88486", "ort": "Kirchberg an der Iller", "name": "Kirchberg an der Iller", "street": "Hauptstraße 20"}, 
{"plz": "88487", "ort": "Mietingen", "name": "Mietingen", "street": "Hauptstraße 8"}, 
{"plz": "88489", "ort": "Wain", "name": "Wain", "street": "Kirchstraße 17"}, 
{"plz": "88499", "ort": "Riedlingen", "name": "Riedlingen, Stadt", "street": "Marktplatz 1"}, 
{"plz": "88499", "ort": "Emeringen", "name": "Emeringen", "street": "Lederstraße 2"}, 
{"plz": "88499", "ort": "Altheim", "name": "Altheim", "street": "Donaustraße 1"}, 
{"plz": "88512", "ort": "Mengen", "name": "Scheer, Stadt", "street": "Hauptstraße 90"}, 
{"plz": "88515", "ort": "Langenenslingen", "name": "Langenenslingen", "street": "Hauptstraße 71"}, 
{"plz": "88518", "ort": "Herbertingen", "name": "Herbertingen", "street": "Holzgasse 6"}, 
{"plz": "88521", "ort": "Ertingen", "name": "Ertingen", "street": "Dürmentinger Straße 14"}, 
{"plz": "88524", "ort": "Uttenweiler", "name": "Uttenweiler", "street": "Hauptstraße 14"}, 
{"plz": "88525", "ort": "Dürmentingen", "name": "Dürmentingen", "street": "Hauptstraße 20"}, 
{"plz": "88527", "ort": "Unlingen", "name": "Unlingen", "street": "Kirchgasse 11"}, 
{"plz": "88529", "ort": "Zwiefalten", "name": "Hayingen, Stadt", "street": "Marktplatz 3"}, 
{"plz": "88605", "ort": "Meßkirch", "name": "Meßkirch, Stadt", "street": "Conradin-Kreutzer-Straße 1"}, 
{"plz": "88605", "ort": "Sauldorf", "name": "Sauldorf", "street": "Hauptstraße 32"}, 
{"plz": "88630", "ort": "Pfullendorf", "name": "Herdwangen-Schönach", "street": "Am Kirchplatz 1"}, 
{"plz": "88631", "ort": "Beuron", "name": "Beuron", "street": "Kirchstraße 18"}, 
{"plz": "88633", "ort": "Heiligenberg", "name": "Heiligenberg", "street": "Schulstraße 5"}, 
{"plz": "88634", "ort": "Herdwangen-Schönach", "name": "Herdwangen-Schönach", "street": "Dorfstraße 49"}, 
{"plz": "88636", "ort": "Illmensee", "name": "Illmensee", "street": "Kirchplatz 5"}, 
{"plz": "88637", "ort": "Buchheim", "name": "Leibertingen", "street": "Rathausstraße 4"}, 
{"plz": "88639", "ort": "Wald", "name": "Wald", "street": "Von-Weckenstein-Straße 19"}, 
{"plz": "88662", "ort": "Überlingen", "name": "Überlingen, Stadt", "street": "Münsterstraße 15-17"}, 
{"plz": "88677", "ort": "Markdorf", "name": "Deggenhausertal", "street": "Schloßweg 10"}, 
{"plz": "88677", "ort": "Markdorf", "name": "Markdorf, Stadt", "street": "Rathausplatz 1"}, 
{"plz": "88682", "ort": "Salem", "name": "Heiligenberg", "street": "Rathaus"}, 
{"plz": "88682", "ort": "Salem", "name": "Salem", "street": "Am Schlosssee 1"}, 
{"plz": "88690", "ort": "Uhldingen-Mühlhofen", "name": "Uhldingen-Mühlhofen", "street": "Aachstraße 4"}, 
{"plz": "88693", "ort": "Deggenhausertal", "name": "Deggenhausertal", "street": "Rathausplatz 1"}, 
{"plz": "88696", "ort": "Owingen", "name": "Owingen", "street": "Hauptstraße 35"}, 
{"plz": "88697", "ort": "Bermatingen", "name": "Bermatingen", "street": "Salemer Straße 1"}, 
{"plz": "88699", "ort": "Frickingen", "name": "Frickingen", "street": "Kirchstraße 7"}, 
{"plz": "88709", "ort": "Meersburg", "name": "Meersburg, Stadt", "street": "Marktplatz 1"}, 
{"plz": "88709", "ort": "Meersburg", "name": "Uhldingen-Mühlhofen", "street": "Postfach 1140"}, 
{"plz": "88709", "ort": "Hagnau am Bodensee", "name": "Hagnau am Bodensee", "street": "Im Hof 5"}, 
{"plz": "88718", "ort": "Daisendorf", "name": "Daisendorf", "street": "Ortsstraße 22"}, 
{"plz": "88719", "ort": "Stetten", "name": "Stetten", "street": "Schulstraße 18"}]