[{"plz": "02625", "ort": "Bautzen", "name": "Bautzen / Budyšin, Stadt", "street": "Fleischmarkt 1"}, 
{"plz": "02627", "ort": "Kubschütz", "name": "Kubschütz / Kubšicy", "street": "Mittelweg 3"}, 
{"plz": "02627", "ort": "Weißenberg", "name": "Weißenberg / Wóspork, Stadt", "street": "August-Bebel-Platz 1"}, 
{"plz": "02627", "ort": "Radibor", "name": "Radibor / Radwor", "street": "Alois-Andritzki-Straße 2"}, 
{"plz": "02627", "ort": "Hochkirch", "name": "Hochkirch / Bukecy", "street": "Karl-Marx-Straße 16-17"}, 
{"plz": "02633", "ort": "Göda", "name": "Göda / Hodźij", "street": "Schulstraße 14"}, 
{"plz": "02681", "ort": "Wilthen", "name": "Wilthen, Stadt", "street": "Bahnhofstraße 5"}, 
{"plz": "02681", "ort": "Schirgiswalde-Kirschau", "name": "Schirgiswalde-Kirschau, Stadt", "street": "Rathausstraße 4"}, 
{"plz": "02689", "ort": "Sohland a. d. Spree", "name": "Sohland a. d. Spree", "street": "Bahnhofstraße 26"}, 
{"plz": "02692", "ort": "Gnaschwitz", "name": "Doberschau-Gaußig / Dobruša-Huska", "street": "Hauptstraße 13"}, 
{"plz": "02692", "ort": "Großpostwitz/O.L.", "name": "Großpostwitz/O.L. / Budestecy", "street": "Bahnhofstraße 2"}, 
{"plz": "02692", "ort": "Obergurig", "name": "Obergurig / Hornja Hórka", "street": "Hauptstraße 24"}, 
{"plz": "02694", "ort": "Großdubrau", "name": "Großdubrau / Wulka Dubrawa", "street": "Ernst-Thälmann-Straße 9"}, 
{"plz": "02694", "ort": "Malschwitz", "name": "Malschwitz / Malešecy", "street": "Dorfplatz 26"}, 
{"plz": "02699", "ort": "Neschwitz", "name": "Neschwitz / Njeswačidło", "street": "Bahnhofstraße 1"}, 
{"plz": "02699", "ort": "Königswartha", "name": "Königswartha / Rakecy", "street": "Bahnhofstraße 4"}, 
{"plz": "02708", "ort": "Löbau", "name": "Großschweidnitz", "street": "Altmarkt 1"}, 
{"plz": "02708", "ort": "Dürrhennersdorf", "name": "Dürrhennersdorf", "street": "Hauptstraße 60"}, 
{"plz": "02708", "ort": "Rosenbach", "name": "Rosenbach", "street": "Steinbergstraße 1"}, 
{"plz": "02708", "ort": "Schönbach", "name": "Schönbach", "street": "Löbauer Straße 4"}, 
{"plz": "02708", "ort": "Großschweidnitz", "name": "Großschweidnitz", "street": "Ernst-Thälmann-Straße 63"}, 
{"plz": "02708", "ort": "Lawalde", "name": "Lawalde", "street": "Rudolf-Breitscheid-Siedlung 6"}, 
{"plz": "02730", "ort": "Ebersbach-Neugersdorf", "name": "Ebersbach-Neugersdorf, Stadt", "street": "Reichsstraße 1"}, 
{"plz": "02733", "ort": "Cunewalde", "name": "Cunewalde", "street": "Hauptstraße 19"}, 
{"plz": "02736", "ort": "Oppach", "name": "Beiersdorf", "street": "August-Bebel-Straße 32"}, 
{"plz": "02739", "ort": "Kottmar", "name": "Kottmar", "street": "Hauptstraße 62"}, 
{"plz": "02742", "ort": "Neusalza-Spremberg", "name": "Neusalza-Spremberg, Stadt", "street": "Kirchstraße 17"}, 
{"plz": "02747", "ort": "Herrnhut", "name": "Herrnhut, Stadt", "street": "Löbauer Straße 18"}, 
{"plz": "02748", "ort": "Bernstadt", "name": "Schönau-Berzdorf a. d. Eigen", "street": "Bautzener Straße 21"}, 
{"plz": "02763", "ort": "Zittau", "name": "Zittau, Stadt", "street": "Markt 1"}, 
{"plz": "02763", "ort": "Bertsdorf-Hörnitz", "name": "Bertsdorf-Hörnitz", "street": "Olbersdorfer Straße 3"}, 
{"plz": "02763", "ort": "Mittelherwigsdorf", "name": "Mittelherwigsdorf", "street": "Am Gemeindeamt 7"}, 
{"plz": "02779", "ort": "Großschönau", "name": "Großschönau", "street": "Hauptstraße 54"}, 
{"plz": "02779", "ort": "Hainewalde", "name": "Hainewalde", "street": "Kleine Seite 4"}, 
{"plz": "02782", "ort": "Seifhennersdorf", "name": "Seifhennersdorf, Stadt", "street": "Rathausplatz 1"}, 
{"plz": "02785", "ort": "Olbersdorf", "name": "Bertsdorf-Hörnitz", "street": "Oberer Viebig 2a"}, 
{"plz": "02791", "ort": "Oderwitz", "name": "Oderwitz", "street": "Straße der Republik 54"}, 
{"plz": "02794", "ort": "Leutersdorf", "name": "Leutersdorf", "street": "Sachsenstraße 9"}, 
{"plz": "02796", "ort": "Kurort Jonsdorf", "name": "Jonsdorf, Kurort", "street": "Auf der Heide 1"}, 
{"plz": "02797", "ort": "Kurort Oybin", "name": "Oybin", "street": "Hauptstraße 15"}, 
{"plz": "02826", "ort": "Görlitz", "name": "Görlitz, Stadt", "street": "Untermarkt 6/8"}, 
{"plz": "02826", "ort": "Görlitz", "name": "Görlitz", "street": "Hugo-Keller-Str. 14", "phone": "03581-672-737", "email": "einwohnermeldewesen@goerlitz.de"}, 
{"plz": "02829", "ort": "Neißeaue", "name": "Neißeaue", "street": "Dorfallee 31"}, 
{"plz": "02829", "ort": "Schöpstal", "name": "Schöpstal", "street": "Am Schloß 11"}, 
{"plz": "02829", "ort": "Königshain", "name": "Königshain", "street": "Dorfstraße 82"}, 
{"plz": "02829", "ort": "Markersdorf", "name": "Markersdorf", "street": "Kirchstraße 3"}, 
{"plz": "02894", "ort": "Reichenbach/O.L.", "name": "Reichenbach/O.L., Stadt", "street": "Görlitzer Straße 4"}, 
{"plz": "02894", "ort": "Vierkirchen", "name": "Vierkirchen", "street": "Melaune 54"}, 
{"plz": "02899", "ort": "Ostritz", "name": "Ostritz, Stadt", "street": "Markt 1"}, 
{"plz": "02899", "ort": "Schönau-Berzdorf", "name": "Schönau-Berzdorf a. d. Eigen", "street": "Am Gemeindeamt 3"}, 
{"plz": "02906", "ort": "Waldhufen", "name": "Quitzdorf am See / Kwetanecy pri jezoru", "street": "Kollmer Straße 1"}, 
{"plz": "02906", "ort": "Kreba-Neudorf", "name": "Kreba-Neudorf / Chrjebja-Nowa Wjes", "street": "Am Sportplatz 8"}, 
{"plz": "02906", "ort": "Waldhufen", "name": "Waldhufen", "street": "Ullersdorfer Straße 1"}, 
{"plz": "02906", "ort": "Mücka", "name": "Mücka / Mikow", "street": "Am Markt 1"}, 
{"plz": "02906", "ort": "Quitzdorf am See", "name": "Quitzdorf am See / Kwetanecy pri jezoru", "street": "Hauptstraße 19"}, 
{"plz": "02906", "ort": "Hohendubrau", "name": "Hohendubrau / Wysoka Dubrawa", "street": "Hauptstraße 23"}, 
{"plz": "02906", "ort": "Niesky", "name": "Niesky, Stadt", "street": "Muskauer Straße 20/22"}, 
{"plz": "02923", "ort": "Kodersdorf", "name": "Kodersdorf", "street": "Straße der Freundschaft 1"}, 
{"plz": "02923", "ort": "Hähnichen", "name": "Hähnichen", "street": "Am Schöps 1"}, 
{"plz": "02923", "ort": "Horka", "name": "Horka", "street": "Am Gemeindeamt 2"}, 
{"plz": "02929", "ort": "Rothenburg/O.L.", "name": "Rothenburg/O.L., Stadt", "street": "Marktplatz 1"}, 
{"plz": "02943", "ort": "Boxberg/O.L.", "name": "Boxberg/O.L. / Hamor", "street": "Südstraße 4"}, 
{"plz": "02943", "ort": "Weißwasser/O.L.", "name": "Weißwasser/O.L., Stadt / Běła Woda", "street": "Marktplatz"}, 
{"plz": "02953", "ort": "Bad Muskau", "name": "Bad Muskau / Mužakow, Stadt", "street": "Berliner Straße 47"}, 
{"plz": "02953", "ort": "Gablenz", "name": "Gablenz / Jabłońc", "street": "Dorfstraße 19"}, 
{"plz": "02956", "ort": "Rietschen", "name": "Kreba-Neudorf / Chrjebja-Nowa Wjes", "street": "Forsthausweg 2"}, 
{"plz": "02957", "ort": "Krauschwitz i.d. O.L.", "name": "Krauschwitz i.d. O.L. / Krušwica", "street": "Geschwister-Scholl-Straße 100"}, 
{"plz": "02959", "ort": "Schleife", "name": "Trebendorf / Trjebin", "street": "Friedensstraße 83"}, 
{"plz": "02977", "ort": "Hoyerswerda", "name": "Hoyerswerda / Wojerecy, Stadt", "street": "Salomon-Gottlob-Frentzel-Straße 1"}, 
{"plz": "02979", "ort": "Spreetal", "name": "Spreetal / Sprjewiny Doł", "street": "Spremberger Straße 25"}, 
{"plz": "02979", "ort": "Elsterheide", "name": "Elsterheide / Halštrowska Hola", "street": "Am Anger 36"}, 
{"plz": "02991", "ort": "Lauta", "name": "Lauta, Stadt", "street": "Karl-Liebknecht-Straße 18"}, 
{"plz": "02994", "ort": "Bernsdorf", "name": "Bernsdorf, Stadt", "street": "Rathausallee 2"}, 
{"plz": "02997", "ort": "Wittichenau", "name": "Wittichenau / Kulow, Stadt", "street": "Markt 1"}, 
{"plz": "02999", "ort": "Lohsa", "name": "Lohsa / Łaz", "street": "Am Rathaus 1"}]