[{"plz": "66111", "ort": "Saarbrücken", "name": "Saarbrücken City", "street": "Gerberstr. 4", "phone": "0681-905-0", "email": "buergeramt@saarbruecken.de"}, 
{"plz": "66111", "ort": "Saarbrücken", "name": "Saarbrücken, Landeshauptstadt", "street": "Rathausplatz 1"}, 
{"plz": "66115", "ort": "Saarbrücken", "name": "Saarbrücken West", "street": "Burbacher Markt 20", "phone": "0681-905-0", "email": "buergeramt@saarbruecken.de"}, 
{"plz": "66125", "ort": "Saarbrücken", "name": "Saarbrücken Dudweiler", "street": "Am Markt 1", "phone": "0681-905-0", "email": "buergeramt@saarbruecken.de"}, 
{"plz": "66130", "ort": "Saarbrücken", "name": "Saarbrücken Halberg", "street": "Kurt-Schumacher-Str.", "phone": "0681-905-0", "email": "buergeramt@saarbruecken.de"}, 
{"plz": "66265", "ort": "Heusweiler", "name": "Heusweiler", "street": "Saarbrücker Straße 35"}, 
{"plz": "66271", "ort": "Kleinblittersdorf", "name": "Kleinblittersdorf", "street": "Rathausstraße 16-18"}, 
{"plz": "66280", "ort": "Sulzbach", "name": "Sulzbach/ Saar, Stadt", "street": "Sulzbachtalstraße 81"}, 
{"plz": "66287", "ort": "Quierschied", "name": "Quierschied", "street": "Rathausstraße 7"}, 
{"plz": "66292", "ort": "Riegelsberg", "name": "Riegelsberg", "street": "Saarbrücker Straße 31"}, 
{"plz": "66299", "ort": "Friedrichsthal", "name": "Friedrichsthal, Stadt", "street": "Schmidtbornstraße 12a"}, 
{"plz": "66333", "ort": "Völklingen", "name": "Völklingen, Stadt", "street": "Rathausplatz"}, 
{"plz": "66346", "ort": "Püttlingen", "name": "Püttlingen, Stadt", "street": "Rathausplatz 1"}, 
{"plz": "66352", "ort": "Goßrosseln", "name": "Großrosseln", "street": "Klosterplatz 2-3"}, 
{"plz": "66359", "ort": "Bous", "name": "Bous", "street": "Saarbrücker Straße 120"}, 
{"plz": "66386", "ort": "St. Ingbert", "name": "St. Ingbert, Stadt", "street": "Am Markt 12"}, 
{"plz": "66399", "ort": "Mandelbachtal", "name": "Mandelbachtal", "street": "Theo-Carlen-Platz 2"}, 
{"plz": "66424", "ort": "Homburg", "name": "Homburg, Kreisstadt", "street": "Am Forum 5"}, 
{"plz": "66440", "ort": "Blieskastel", "name": "Blieskastel, Stadt", "street": "Paradeplatz 5"}, 
{"plz": "66450", "ort": "Bexbach", "name": "Bexbach, Stadt", "street": "Rathausstraße 68"}, 
{"plz": "66453", "ort": "Gersheim", "name": "Gersheim", "street": "Bliesstraße 19a"}, 
{"plz": "66459", "ort": "Kirkel", "name": "Kirkel", "street": "Hauptstraße 10"}, 
{"plz": "66482", "ort": "Zweibrücken", "name": "Kleinsteinhausen", "street": "Landauer Straße 18-20"}, 
{"plz": "66482", "ort": "Zweibrücken", "name": "Zweibrücken, Stadt", "street": "Herzogstraße 1"}, 
{"plz": "66538", "ort": "Neunkirchen", "name": "Neunkirchen, Kreisstadt", "street": "Oberer Markt 16"}, 
{"plz": "66557", "ort": "Illingen", "name": "Illingen", "street": "Hauptstraße 86"}, 
{"plz": "66564", "ort": "Ottweiler", "name": "Ottweiler, Stadt", "street": "Illinger Straße 7"}, 
{"plz": "66571", "ort": "Eppelborn", "name": "Eppelborn", "street": "Rathausstraße 27"}, 
{"plz": "66578", "ort": "Schiffweiler", "name": "Schiffweiler", "street": "Rathausstraße 11"}, 
{"plz": "66583", "ort": "Spiesen-Elversberg", "name": "Spiesen-Elversberg", "street": "Hauptstraße 116"}, 
{"plz": "66589", "ort": "Merchweiler", "name": "Merchweiler", "street": "Hauptstraße 82"}, 
{"plz": "66606", "ort": "St. Wendel", "name": "St. Wendel, Kreisstadt", "street": "Rathausplatz 1"}, 
{"plz": "66620", "ort": "Nonnweiler", "name": "Nonnweiler", "street": "Trierer Straße 5"}, 
{"plz": "66625", "ort": "Nohfelden", "name": "Nohfelden", "street": "An der Burg"}, 
{"plz": "66629", "ort": "Freisen", "name": "Freisen", "street": "Schulstraße 60"}, 
{"plz": "66636", "ort": "Tholey", "name": "Tholey", "street": "Im Kloster 1"}, 
{"plz": "66640", "ort": "Namborn", "name": "Namborn", "street": "Schloßstraße 13"}, 
{"plz": "66646", "ort": "Marpingen", "name": "Marpingen", "street": "Urexweilerstraße 11"}, 
{"plz": "66649", "ort": "Oberthal", "name": "Oberthal", "street": "Brühlstraße 4"}, 
{"plz": "66663", "ort": "Merzig", "name": "Merzig, Kreisstadt", "street": "Brauerstraße 5"}, 
{"plz": "66679", "ort": "Losheim am See", "name": "Losheim am See", "street": "Merziger Straße 3"}, 
{"plz": "66687", "ort": "Wadern", "name": "Wadern, Stadt", "street": "Marktplatz 13"}, 
{"plz": "66693", "ort": "Mettlach", "name": "Mettlach", "street": "Freiherr-vom-Stein-Straße 64"}, 
{"plz": "66701", "ort": "Beckingen", "name": "Beckingen", "street": "Bergstraße 48"}, 
{"plz": "66706", "ort": "Perl", "name": "Perl", "street": "Trierer Straße 28"}, 
{"plz": "66709", "ort": "Weiskirchen", "name": "Weiskirchen", "street": "Kirchenweg 2"}, 
{"plz": "66740", "ort": "Saarlouis", "name": "Saarlouis, Kreisstadt", "street": "Großer Markt 1"}, 
{"plz": "66763", "ort": "Dillingen", "name": "Dillingen/ Saar, Stadt", "street": "Merziger Straße 51"}, 
{"plz": "66773", "ort": "Schwalbach", "name": "Schwalbach", "street": "Hauptstraße 92"}, 
{"plz": "66780", "ort": "Rehlingen-Siersburg", "name": "Rehlingen-Siersburg", "street": "Bouzonviller Platz"}, 
{"plz": "66787", "ort": "Wadgassen", "name": "Wadgassen", "street": "Lindenstraße 114"}, 
{"plz": "66793", "ort": "Saarwellingen", "name": "Saarwellingen", "street": "Schlossplatz 1"}, 
{"plz": "66798", "ort": "Wallerfangen", "name": "Wallerfangen", "street": "Fabrikplatz"}, 
{"plz": "66802", "ort": "Überherrn", "name": "Überherrn", "street": "Rathausstraße 101"}, 
{"plz": "66806", "ort": "Ensdorf", "name": "Ensdorf", "street": "Provinzialstraße 101a"}, 
{"plz": "66809", "ort": "Nalbach", "name": "Nalbach", "street": "Rathausplatz 1"}, 
{"plz": "66822", "ort": "Lebach", "name": "Lebach, Stadt", "street": "Am Markt 1"}, 
{"plz": "66839", "ort": "Schmelz", "name": "Schmelz", "street": "Rathausplatz 1"}, 
{"plz": "66849", "ort": "Landstuhl", "name": "Landstuhl, Sickingenstadt, Stadt", "street": "Kaiserstraße 49"}, 
{"plz": "66869", "ort": "Kusel", "name": "Haschbach am Remigiusberg", "street": "Marktplatz 1"}, 
{"plz": "66877", "ort": "Ramstein-Miesenbach", "name": "Ramstein-Miesenbach, Stadt", "street": "Am Neuen Markt 6"}, 
{"plz": "66892", "ort": "Bruchmühlbach-Miesau", "name": "Bruchmühlbach-Miesau", "street": "Am Rathaus 2"}, 
{"plz": "66901", "ort": "Schönenberg-Kübelberg", "name": "Herschweiler-Pettersheim", "street": "Rathausstraße 8"}, 
{"plz": "66953", "ort": "Pirmasens", "name": "Ruppertsweiler", "street": "Bahnhofstraße 19"}, 
{"plz": "66953", "ort": "Pirmasens", "name": "Pirmasens, Stadt", "street": "Exerzierplatzstraße 17"}, 
{"plz": "66976", "ort": "Rodalben", "name": "Münchweiler an der Rodalb", "street": "Am Rathaus 9"}, 
{"plz": "66987", "ort": "Thaleischweiler-Fröschen", "name": "Thaleischweiler-Fröschen", "street": "Hauptstraße 52"}, 
{"plz": "66994", "ort": "Dahn", "name": "Bruchweiler-Bärenbach", "street": "Schulstraße 29"}]