[{"plz": "67059", "ort": "Ludwigshafen", "name": "Ludwigshafen am Rhein, Stadt", "street": "Rathausplatz 20", "phone": "0621-504-0", "email": "buergerdienste@ludwigshafen.de"}, 
{"plz": "67065", "ort": "Ludwigshafen", "name": "Ludwigshafen Achtmorgenstr.", "street": "Achtmorgenstr. 9", "phone": "0621-504-0", "email": "buergerdienste@ludwigshafen.de"}, 
{"plz": "67069", "ort": "Ludwigshafen", "name": "Ludwigshafen Oppau", "street": "Edigheimer Str. 26", "phone": "0621-504-0", "email": "buergerdienste@ludwigshafen.de"}, 
{"plz": "67071", "ort": "Ludwigshafen", "name": "Ludwigshafen Oggersheim", "street": "Schillerplatz 2", "phone": "0621-504-0", "email": "buergerdienste@ludwigshafen.de"}, 
{"plz": "67098", "ort": "Bad Dürkheim", "name": "Bad Dürkheim, Stadt", "street": "Mannheimer Straße 24"}, 
{"plz": "67105", "ort": "Schifferstadt", "name": "Schifferstadt, Stadt", "street": "Marktplatz 2"}, 
{"plz": "67112", "ort": "Mutterstadt", "name": "Mutterstadt", "street": "Oggersheimer Straße 10"}, 
{"plz": "67117", "ort": "Limburgerhof", "name": "Limburgerhof", "street": "Burgunder Platz 2"}, 
{"plz": "67125", "ort": "Dannstadt-Schauernheim", "name": "Dannstadt-Schauernheim", "street": "Am Rathausplatz 1"}, 
{"plz": "67133", "ort": "Maxdorf", "name": "Birkenheide", "street": "Hauptstraße 79"}, 
{"plz": "67146", "ort": "Deidesheim", "name": "Niederkirchen bei Deidesheim", "street": "Am Bahnhof 5"}, 
{"plz": "67157", "ort": "Wachenheim an der Weinstraße", "name": "Wachenheim an der Weinstraße, Stadt", "street": "Weinstraße 16"}, 
{"plz": "67165", "ort": "Waldsee", "name": "Otterstadt", "street": "Ludwigstraße 99"}, 
{"plz": "67227", "ort": "Frankenthal (Pfalz)", "name": "Frankenthal (Pfalz), Stadt", "street": "Rathausplatz 2-7"}, 
{"plz": "67240", "ort": "Bobenheim-Roxheim", "name": "Bobenheim-Roxheim", "street": "Rathausplatz 1"}, 
{"plz": "67245", "ort": "Lambsheim", "name": "Heuchelheim bei Frankenthal", "street": "Mühltorstraße 25"}, 
{"plz": "67251", "ort": "Freinsheim", "name": "Weisenheim am Sand", "street": "Bahnhofstraße 12"}, 
{"plz": "67269", "ort": "Grünstadt", "name": "Bockenheim an der Weinstraße", "street": "Industriestraße 11"}, 
{"plz": "67269", "ort": "Grünstadt", "name": "Grünstadt, Stadt", "street": "Kreuzerweg 2"}, 
{"plz": "67292", "ort": "Kirchheimbolanden", "name": "Kirchheimbolanden, Stadt", "street": "Neue Allee 2"}, 
{"plz": "67304", "ort": "Eisenberg (Pfalz)", "name": "Eisenberg (Pfalz), Stadt", "street": "Hauptstraße 86"}, 
{"plz": "67307", "ort": "Göllheim", "name": "Albisheim (Pfrimm)", "street": "Freiherr-vom-Stein-Straße 1-3"}, 
{"plz": "67346", "ort": "Speyer", "name": "Speyer, Stadt", "street": "Maximilianstraße 100"}, 
{"plz": "67360", "ort": "Lingenfeld", "name": "Weingarten (Pfalz)", "street": "Hauptstraße 60"}, 
{"plz": "67373", "ort": "Dudenhofen", "name": "Dudenhofen", "street": "Konrad-Adenauer-Platz 6"}, 
{"plz": "67433", "ort": "Neustadt an der Weinstraße", "name": "Neustadt an der Weinstraße, Stadt", "street": "Marktplatz 1"}, 
{"plz": "67454", "ort": "Haßloch", "name": "Haßloch", "street": "Rathausplatz 1"}, 
{"plz": "67459", "ort": "Böhl-Iggelheim", "name": "Böhl-Iggelheim", "street": "Am Schwarzweiher 7"}, 
{"plz": "67466", "ort": "Lambrecht (Pfalz)", "name": "Lambrecht (Pfalz), Stadt", "street": "Sommerbergstraße 3"}, 
{"plz": "67480", "ort": "Edenkoben", "name": "Rhodt unter Rietburg", "street": "Poststraße 23"}, 
{"plz": "67487", "ort": "Maikammer", "name": "Kirrweiler (Pfalz)", "street": "Immengartenstraße 24"}, 
{"plz": "67547", "ort": "Worms", "name": "Worms", "street": "Adenauerring 1", "phone": "06241-8533-737", "email": "buergerservice@worms.de"}, 
{"plz": "67547", "ort": "Worms", "name": "Worms, Stadt", "street": "Marktplatz 2"}, 
{"plz": "67574", "ort": "Osthofen", "name": "Dittelsheim-Heßloch", "street": "Am Schneller 3"}, 
{"plz": "67575", "ort": "Eich", "name": "Hamm am Rhein", "street": "Hauptstraße 26"}, 
{"plz": "67590", "ort": "Monsheim", "name": "Flörsheim-Dalsheim", "street": "Alzeyer Straße 15"}, 
{"plz": "67657", "ort": "Kaiserslautern", "name": "Kaiserslautern, Stadt", "street": "Willy-Brandt-Platz 1", "phone": "0631-365-2538", "email": "buergercenter@kaiserslautern.de"}, 
{"plz": "67677", "ort": "Enkenbach-Alsenborn", "name": "Enkenbach-Alsenborn", "street": "Hauptstraße 18"}, 
{"plz": "67685", "ort": "Weilerbach", "name": "Reichenbach-Steegen", "street": "Rummelstraße 15"}, 
{"plz": "67697", "ort": "Otterberg", "name": "Hirschhorn/ Pfalz", "street": "Hauptstraße 27"}, 
{"plz": "67714", "ort": "Waldfischbach-Burgalben", "name": "Waldfischbach-Burgalben", "street": "Friedhofstraße 3"}, 
{"plz": "67722", "ort": "Winnweiler", "name": "Münchweiler an der Alsenz", "street": "Jakobstraße 29"}, 
{"plz": "67742", "ort": "Lauterecken", "name": "Rutsweiler an der Lauter", "street": "Schulstraße 6 a"}, 
{"plz": "67806", "ort": "Rockenhausen", "name": "Niederhausen an der Appel", "street": "Bezirksamtsstraße 7"}]