[{"plz": "61118", "ort": "Bad Vilbel", "name": "Bad Vilbel, Stadt", "street": "Am Sonnenplatz 1"}, 
{"plz": "61130", "ort": "Nidderau", "name": "Nidderau, Stadt", "street": "Am Steinweg 1"}, 
{"plz": "61137", "ort": "Schöneck", "name": "Schöneck", "street": "Herrnhofstraße 8"}, 
{"plz": "61138", "ort": "Niederdorfelden", "name": "Niederdorfelden", "street": "Burgstraße 5"}, 
{"plz": "61169", "ort": "Friedberg (Hessen)", "name": "Friedberg (Hessen), Kreisstadt", "street": "Mainzer-Tor-Anlage 6"}, 
{"plz": "61184", "ort": "Karben", "name": "Karben, Stadt", "street": "Rathausplatz 1"}, 
{"plz": "61191", "ort": "Rosbach v. d. Höhe", "name": "Rosbach v. d. Höhe, Stadt", "street": "Homburger Straße 64"}, 
{"plz": "61194", "ort": "Niddatal", "name": "Niddatal, Stadt", "street": "Hauptstraße 2"}, 
{"plz": "61197", "ort": "Florstadt", "name": "Florstadt, Stadt", "street": "Freiherr-vom-Stein-Straße 1"}, 
{"plz": "61200", "ort": "Wölfersheim", "name": "Wölfersheim", "street": "Hauptstraße 60"}, 
{"plz": "61203", "ort": "Reichelsheim (Wetterau)", "name": "Reichelsheim (Wetterau), Stadt", "street": "Zum Rathaus 1"}, 
{"plz": "61206", "ort": "Wöllstadt", "name": "Wöllstadt", "street": "Paul-Hallmann-Straße 3"}, 
{"plz": "61209", "ort": "Echzell", "name": "Echzell", "street": "Lindenstraße 9"}, 
{"plz": "61231", "ort": "Bad Nauheim", "name": "Bad Nauheim, Stadt", "street": "Parkstraße 36-38"}, 
{"plz": "61239", "ort": "Ober-Mörlen", "name": "Ober-Mörlen", "street": "Frankfurter Straße 31"}, 
{"plz": "61250", "ort": "Usingen", "name": "Usingen, Stadt", "street": "Wilhelmstraße 1"}, 
{"plz": "61267", "ort": "Neu-Anspach", "name": "Neu-Anspach, Stadt", "street": "Bahnhofstraße 26"}, 
{"plz": "61273", "ort": "Wehrheim", "name": "Wehrheim", "street": "Dorfborngasse 1"}, 
{"plz": "61276", "ort": "Weilrod", "name": "Weilrod", "street": "Am Senner 1"}, 
{"plz": "61279", "ort": "Grävenwiesbach", "name": "Grävenwiesbach", "street": "Bahnhofsweg 2 a"}, 
{"plz": "61343", "ort": "Bad Homburg v. d. Höhe", "name": "Bad Homburg v. d. Höhe, Stadt", "street": "Rathausplatz 1"}, 
{"plz": "61381", "ort": "Friedrichsdorf", "name": "Friedrichsdorf, Stadt", "street": "Hugenottenstraße 55"}, 
{"plz": "61389", "ort": "Schmitten", "name": "Schmitten im Taunus", "street": "Parkstraße 2"}, 
{"plz": "61440", "ort": "Oberursel (Taunus)", "name": "Oberursel (Taunus), Stadt", "street": "Rathausplatz 1"}, 
{"plz": "61449", "ort": "Steinbach (Taunus)", "name": "Steinbach (Taunus), Stadt", "street": "Gartenstraße 20"}, 
{"plz": "61462", "ort": "Königstein im Taunus", "name": "Königstein im Taunus, Stadt", "street": "Burgweg 5"}, 
{"plz": "61476", "ort": "Kronberg im Taunus", "name": "Kronberg im Taunus, Stadt", "street": "Katharinenstraße 7"}, 
{"plz": "61479", "ort": "Glashütten", "name": "Glashütten", "street": "Schloßborner Weg 2"}]