[{"plz": "64283", "ort": "Darmstadt", "name": "Darmstadt", "street": "Luisenplatz 5", "phone": "06151-115", "email": "meldeamt@darmstadt.de"}, 
{"plz": "64283", "ort": "Darmstadt", "name": "Darmstadt, Wissenschaftsstadt", "street": "Luisenplatz 5 A"}, 
{"plz": "64291", "ort": "Darmstadt", "name": "Darmstadt Wixhausen", "street": "Falltorstr. 11", "phone": "06150-18497-450", "email": "meldeamt@darmstadt.de"}, 
{"plz": "64319", "ort": "Pfungstadt", "name": "Pfungstadt, Stadt", "street": "Kirchstraße 12-14"}, 
{"plz": "64331", "ort": "Weiterstadt", "name": "Weiterstadt, Stadt", "street": "Riedbahnstraße 6"}, 
{"plz": "64342", "ort": "Seeheim-Jugenheim", "name": "Seeheim-Jugenheim", "street": "Schulstraße 12"}, 
{"plz": "64347", "ort": "Griesheim", "name": "Griesheim, Stadt", "street": "Wilhelm-Leuschner-Straße 75"}, 
{"plz": "64354", "ort": "Reinheim", "name": "Reinheim, Stadt", "street": "Cestasplatz 1"}, 
{"plz": "64367", "ort": "Mühltal", "name": "Mühltal", "street": "Ober-Ramstädter Straße 2-4"}, 
{"plz": "64372", "ort": "Ober-Ramstadt", "name": "Ober-Ramstadt, Stadt", "street": "Darmstädter Straße 29"}, 
{"plz": "64380", "ort": "Roßdorf", "name": "Roßdorf", "street": "Erbacher Straße 1"}, 
{"plz": "64385", "ort": "Reichelsheim (Odenwald)", "name": "Reichelsheim (Odenwald)", "street": "Bismarckstraße 43"}, 
{"plz": "64390", "ort": "Erzhausen", "name": "Erzhausen", "street": "Rodenseestraße 3"}, 
{"plz": "64395", "ort": "Brensbach", "name": "Brensbach", "street": "Ezyer Straße 5"}, 
{"plz": "64397", "ort": "Modautal", "name": "Modautal", "street": "Odenwaldstraße 34"}, 
{"plz": "64401", "ort": "Groß-Bieberau", "name": "Groß-Bieberau, Stadt", "street": "Marktstraße 28-30"}, 
{"plz": "64404", "ort": "Bickenbach", "name": "Bickenbach", "street": "Darmstädter Straße 7"}, 
{"plz": "64405", "ort": "Fischbachtal", "name": "Fischbachtal", "street": "Darmstädter Straße 8"}, 
{"plz": "64407", "ort": "Fränkisch-Crumbach", "name": "Fränkisch-Crumbach", "street": "Rodensteiner Straße 8"}, 
{"plz": "64409", "ort": "Messel", "name": "Messel", "street": "Kohlweg 15"}, 
{"plz": "64521", "ort": "Groß-Gerau", "name": "Groß-Gerau, Stadt", "street": "Am Marktplatz 1"}, 
{"plz": "64546", "ort": "Mörfelden-Walldorf", "name": "Mörfelden-Walldorf, Stadt", "street": "Westendstraße 8"}, 
{"plz": "64560", "ort": "Riedstadt", "name": "Riedstadt, Büchnerstadt", "street": "Rathausplatz 1"}, 
{"plz": "64569", "ort": "Nauheim", "name": "Nauheim", "street": "Weingartenstraße 46-50"}, 
{"plz": "64572", "ort": "Büttelborn", "name": "Büttelborn", "street": "Mainzer Straße 13"}, 
{"plz": "64579", "ort": "Gernsheim", "name": "Gernsheim, Schöfferstadt", "street": "Stadthausplatz 1"}, 
{"plz": "64584", "ort": "Biebesheim am Rhein", "name": "Biebesheim am Rhein", "street": "Rathausplatz 1"}, 
{"plz": "64589", "ort": "Stockstadt am Rhein", "name": "Stockstadt am Rhein", "street": "Kirchstrasse 6"}, 
{"plz": "64625", "ort": "Bensheim", "name": "Bensheim, Stadt", "street": "Kirchbergstraße 18"}, 
{"plz": "64646", "ort": "Heppenheim (Bergstraße)", "name": "Heppenheim (Bergstraße), Kreisstadt", "street": "Großer Markt 1"}, 
{"plz": "64653", "ort": "Lorsch", "name": "Lorsch, Karolingerstadt", "street": "Kaiser-Wilhelm-Platz 1"}, 
{"plz": "64658", "ort": "Fürth", "name": "Fürth", "street": "Hauptstraße 19"}, 
{"plz": "64665", "ort": "Alsbach-Hähnlein", "name": "Alsbach-Hähnlein", "street": "Bickenbacher Straße 6"}, 
{"plz": "64668", "ort": "Rimbach", "name": "Rimbach", "street": "Rathausstraße 1"}, 
{"plz": "64673", "ort": "Zwingenberg", "name": "Zwingenberg, Stadt", "street": "Untergasse 16"}, 
{"plz": "64678", "ort": "Lindenfels", "name": "Lindenfels, Stadt", "street": "Burgstraße 39"}, 
{"plz": "64683", "ort": "Einhausen", "name": "Einhausen", "street": "Marktplatz 5"}, 
{"plz": "64686", "ort": "Lautertal (Odenwald)", "name": "Lautertal (Odenwald)", "street": "Nibelungenstraße 280"}, 
{"plz": "64689", "ort": "Grasellenbach", "name": "Grasellenbach", "street": "Schulstraße 1"}, 
{"plz": "64711", "ort": "Erbach", "name": "Erbach, Kreisstadt", "street": "Neckarstraße 3"}, 
{"plz": "64720", "ort": "Michelstadt", "name": "Michelstadt, Stadt", "street": "Frankfurter Straße 3"}, 
{"plz": "64732", "ort": "Bad König", "name": "Bad König, Stadt", "street": "Schloßplatz 3"}, 
{"plz": "64739", "ort": "Höchst i. Odw.", "name": "Höchst i. Odw.", "street": "Montmelianer Platz 4"}, 
{"plz": "64747", "ort": "Breuberg", "name": "Breuberg, Stadt", "street": "Ernst-Ludwig-Straße 2-4"}, 
{"plz": "64750", "ort": "Lützelbach", "name": "Lützelbach", "street": "Mainstraße 1"}, 
{"plz": "64753", "ort": "Brombachtal", "name": "Brombachtal", "street": "Hauptstraße 59"}, 
{"plz": "64756", "ort": "Mossautal", "name": "Mossautal", "street": "Ortsstraße 124"}, 
{"plz": "64760", "ort": "Oberzent", "name": "Oberzent, Stadt", "street": "Metzkeil 1"}, 
{"plz": "64807", "ort": "Dieburg", "name": "Dieburg, Stadt", "street": "Markt 4"}, 
{"plz": "64823", "ort": "Groß-Umstadt", "name": "Groß-Umstadt, Stadt", "street": "Markt 1"}, 
{"plz": "64832", "ort": "Babenhausen", "name": "Babenhausen, Stadt", "street": "Marktplatz 2"}, 
{"plz": "64839", "ort": "Münster (Hessen)", "name": "Münster (Hessen)", "street": "Mozartstraße 8"}, 
{"plz": "64846", "ort": "Groß-Zimmern", "name": "Groß-Zimmern", "street": "Rathausplatz 1"}, 
{"plz": "64850", "ort": "Schaafheim", "name": "Schaafheim", "street": "Wilhelm-Leuschner-Straße 3"}, 
{"plz": "64853", "ort": "Otzberg", "name": "Otzberg", "street": "Otzbergstraße 13"}, 
{"plz": "64859", "ort": "Eppertshausen", "name": "Eppertshausen", "street": "Franz-Gruber-Platz 14"}]