[{"plz": "74072", "ort": "Heilbronn", "name": "Heilbronn Zentrales Bürgeramt im Rathaus", "street": "Marktplatz 7", "phone": "07131-56-0", "email": "zentrales.buergeramt@stadt-heilbronn.de"}, 
{"plz": "74078", "ort": "Heilbronn", "name": "Heilbronn Neckargartach", "street": "Mittelstr. 3", "phone": "07131-285-110", "email": "buergeramt.neckargartach@heilbronn.de"}, 
{"plz": "74078", "ort": "Heilbronn", "name": "Heilbronn Biberach", "street": "Am Ratsplatz 3", "phone": "07066-911-990", "email": "buergeramt.biberach@heilbronn.de"}, 
{"plz": "74078", "ort": "Heilbronn", "name": "Heilbronn Kirchhausen", "street": "Schlossplatz 2", "phone": "07066-7044", "email": "buergeramt.kirchhausen@heilbronn.de"}, 
{"plz": "74078", "ort": "Heilbronn", "name": "Heilbronn Frankenbach", "street": "Speyerer Str. 13", "phone": "07131-645-460", "email": "buergeramt.frankenbach@stadt-heilbronn.de"}, 
{"plz": "74080", "ort": "Heilbronn", "name": "Heilbronn Böckingen", "street": "Großgartacher Str. 61", "phone": "07131-563-801", "email": "buergeramt.boeckingen@heilbronn.de"}, 
{"plz": "74081", "ort": "Heilbronn", "name": "Heilbronn Sontheim", "street": "Hauptstr. 7", "phone": "07131-589-150", "email": "buergeramt.sontheim@heilbronn.de"}, 
{"plz": "74081", "ort": "Heilbronn", "name": "Heilbronn Verwaltungssprechstunden in Klingenberg", "street": "Theodor-Heuss-Str. 113", "phone": "07131-398-800", "email": "buergeramt.boeckingen@heilbronn.de"}, 
{"plz": "74081", "ort": "Heilbronn", "name": "Heilbronn Horkheim", "street": "Schleusenstr. 18", "phone": "07131-251-118", "email": "buergeramt.horkheim@heilbronn.de"}, 
{"plz": "74172", "ort": "Neckarsulm", "name": "Neckarsulm, Stadt", "street": "Marktstraße 18"}, 
{"plz": "74177", "ort": "Bad Friedrichshall", "name": "Bad Friedrichshall, Stadt", "street": "Friedrichshaller Straße 35"}, 
{"plz": "74177", "ort": "Bad Friedrichshall", "name": "Bad Friedrichshall, Stadt", "street": "Rathausplatz 1"}, 
{"plz": "74182", "ort": "Obersulm", "name": "Löwenstein, Stadt", "street": "Bernhardstraße 1"}, 
{"plz": "74189", "ort": "Weinsberg", "name": "Lehrensteinsfeld", "street": "Marktplatz 11"}, 
{"plz": "74193", "ort": "Schwaigern", "name": "Schwaigern, Stadt", "street": "Rathaus"}, 
{"plz": "74193", "ort": "Schwaigern", "name": "Schwaigern, Stadt", "street": "Marktstraße 2"}, 
{"plz": "74196", "ort": "Neuenstadt am Kocher", "name": "Neuenstadt am Kocher, Stadt", "street": "Hauptstraße 50"}, 
{"plz": "74199", "ort": "Untergruppenbach", "name": "Untergruppenbach", "street": "Kirchstraße 2"}, 
{"plz": "74206", "ort": "Bad Wimpfen", "name": "Bad Wimpfen, Stadt", "street": "Marktplatz 1"}, 
{"plz": "74211", "ort": "Leingarten", "name": "Leingarten, Stadt", "street": "Heilbronner Straße 38"}, 
{"plz": "74214", "ort": "Schöntal", "name": "Schöntal", "street": "Klosterhof 1"}, 
{"plz": "74219", "ort": "Möckmühl", "name": "Möckmühl, Stadt", "street": "Hauptstraße 23"}, 
{"plz": "74223", "ort": "Flein", "name": "Flein", "street": "Kellergasse 1"}, 
{"plz": "74223", "ort": "Flein", "name": "Talheim", "street": "Kellergasse 7"}, 
{"plz": "74226", "ort": "Nordheim", "name": "Nordheim", "street": "Hauptstraße 26"}, 
{"plz": "74229", "ort": "Oedheim", "name": "Oedheim", "street": "Ratsstraße 1"}, 
{"plz": "74232", "ort": "Abstatt", "name": "Abstatt", "street": "Rathausstraße 30"}, 
{"plz": "74235", "ort": "Erlenbach", "name": "Erlenbach", "street": "Klingenstraße 2"}, 
{"plz": "74238", "ort": "Krautheim", "name": "Krautheim, Stadt", "street": "Burgweg 5"}, 
{"plz": "74238", "ort": "Krautheim", "name": "Krautheim, Stadt", "street": "Rathaus"}, 
{"plz": "74239", "ort": "Hardthausen am Kocher", "name": "Hardthausen am Kocher", "street": "Lampoldshauser Straße 8"}, 
{"plz": "74243", "ort": "Langenbrettach", "name": "Langenbrettach", "street": "Rathausstraße 1"}, 
{"plz": "74245", "ort": "Löwenstein", "name": "Löwenstein, Stadt", "street": "Maybachstraße 32"}, 
{"plz": "74246", "ort": "Eberstadt", "name": "Eberstadt", "street": "Hauptstraße 39"}, 
{"plz": "74248", "ort": "Ellhofen", "name": "Ellhofen", "street": "Kirchplatz 1"}, 
{"plz": "74249", "ort": "Jagsthausen", "name": "Jagsthausen", "street": "Hauptstraße 3"}, 
{"plz": "74251", "ort": "Lehrensteinsfeld", "name": "Lehrensteinsfeld", "street": "Ellhofener Straße 2"}, 
{"plz": "74252", "ort": "Massenbachhausen", "name": "Massenbachhausen", "street": "Heilbronner Straße 54"}, 
{"plz": "74254", "ort": "Offenau", "name": "Offenau", "street": "Jagstfelder Straße 1"}, 
{"plz": "74255", "ort": "Roigheim", "name": "Roigheim", "street": "Hauptstraße 20"}, 
{"plz": "74257", "ort": "Untereisesheim", "name": "Untereisesheim", "street": "Rathausstraße 1"}, 
{"plz": "74259", "ort": "Widdern", "name": "Widdern, Stadt", "street": "Keltergasse 5"}, 
{"plz": "74321", "ort": "Bietigheim-Bissingen", "name": "Bietigheim-Bissingen, Stadt", "street": "Marktplatz 8"}, 
{"plz": "74336", "ort": "Brackenheim", "name": "Brackenheim, Stadt", "street": "Marktplatz 1"}, 
{"plz": "74343", "ort": "Sachsenheim", "name": "Sachsenheim, Stadt", "street": "Äußerer Schloßhof 3 und 5"}, 
{"plz": "74348", "ort": "Lauffen am Neckar", "name": "Lauffen am Neckar, Stadt", "street": "Rathausstraße 10"}, 
{"plz": "74354", "ort": "Besigheim", "name": "Besigheim, Stadt", "street": "Marktplatz 12"}, 
{"plz": "74357", "ort": "Bönnigheim", "name": "Kirchheim am Neckar", "street": "Kirchheimer Straße 1"}, 
{"plz": "74360", "ort": "Ilsfeld", "name": "Beilstein, Stadt", "street": "Rathaus"}, 
{"plz": "74360", "ort": "Ilsfeld", "name": "Ilsfeld", "street": "Rathausstraße 8"}, 
{"plz": "74363", "ort": "Güglingen", "name": "Güglingen, Stadt", "street": "Marktstraße 19-21"}, 
{"plz": "74366", "ort": "Kirchheim am Neckar", "name": "Kirchheim am Neckar", "street": "Hauptstraße 78"}, 
{"plz": "74369", "ort": "Löchgau", "name": "Löchgau", "street": "Hauptstraße 49"}, 
{"plz": "74372", "ort": "Sersheim", "name": "Sersheim", "street": "Schloßstraße 21"}, 
{"plz": "74374", "ort": "Zaberfeld", "name": "Zaberfeld", "street": "Schloßberg 5"}, 
{"plz": "74376", "ort": "Gemmrigheim", "name": "Gemmrigheim", "street": "Ottmarsheimer Straße 1"}, 
{"plz": "74379", "ort": "Ingersheim", "name": "Ingersheim", "street": "Hindenburgplatz 10"}, 
{"plz": "74382", "ort": "Neckarwestheim", "name": "Neckarwestheim", "street": "Marktplatz 1"}, 
{"plz": "74385", "ort": "Pleidelsheim", "name": "Pleidelsheim", "street": "Marbacher Straße 5"}, 
{"plz": "74388", "ort": "Talheim", "name": "Talheim", "street": "Rathausplatz 18"}, 
{"plz": "74389", "ort": "Cleebronn", "name": "Cleebronn", "street": "Keltergasse 2"}, 
{"plz": "74391", "ort": "Erligheim", "name": "Erligheim", "street": "Rathausstraße 7"}, 
{"plz": "74392", "ort": "Freudental", "name": "Freudental", "street": "Schloßplatz 1"}, 
{"plz": "74394", "ort": "Hessigheim", "name": "Hessigheim", "street": "Besigheimer Straße 17"}, 
{"plz": "74395", "ort": "Mundelsheim", "name": "Mundelsheim", "street": "Hindenburgstraße 1"}, 
{"plz": "74397", "ort": "Pfaffenhofen", "name": "Pfaffenhofen", "street": "Rodbachstraße 15"}, 
{"plz": "74399", "ort": "Walheim", "name": "Walheim", "street": "Hauptstraße 68"}, 
{"plz": "74405", "ort": "Gaildorf", "name": "Sulzbach-Laufen", "street": "Postfach 50"}, 
{"plz": "74405", "ort": "Gaildorf", "name": "Gaildorf, Stadt", "street": "Schloßstraße 20"}, 
{"plz": "74417", "ort": "Gschwend", "name": "Gschwend", "street": "Gmünder Straße 2"}, 
{"plz": "74420", "ort": "Oberrot", "name": "Oberrot", "street": "Rottalstraße 44"}, 
{"plz": "74423", "ort": "Obersontheim", "name": "Obersontheim", "street": "Heilberger Straße 4"}, 
{"plz": "74423", "ort": "Obersontheim", "name": "Obersontheim", "street": "Rathausplatz 1"}, 
{"plz": "74424", "ort": "Bühlertann", "name": "Bühlertann", "street": "Hauptstraße 12"}, 
{"plz": "74427", "ort": "Fichtenberg", "name": "Fichtenberg", "street": "Rathausstraße 13"}, 
{"plz": "74429", "ort": "Sulzbach-Laufen", "name": "Sulzbach-Laufen", "street": "Eisbachstraße 24"}, 
{"plz": "74523", "ort": "Schwäbisch Hall", "name": "Schwäbisch Hall, Stadt", "street": "Am Markt 6"}, 
{"plz": "74523", "ort": "Schwäbisch Hall", "name": "Schwäbisch Hall, Stadt", "street": "Am Markt 4"}, 
{"plz": "74532", "ort": "Ilshofen", "name": "Ilshofen, Stadt", "street": "Haller Straße 1"}, 
{"plz": "74532", "ort": "Ilshofen", "name": "Vellberg, Stadt", "street": "Hallerstraße 6"}, 
{"plz": "74535", "ort": "Mainhardt", "name": "Mainhardt", "street": "Hauptstraße 1"}, 
{"plz": "74538", "ort": "Rosengarten", "name": "Rosengarten", "street": "Hauptstraße 39"}, 
{"plz": "74541", "ort": "Vellberg", "name": "Vellberg, Stadt", "street": "Im Städtle 28"}, 
{"plz": "74542", "ort": "Braunsbach", "name": "Untermünkheim", "street": "Hohenloher Straße 33"}, 
{"plz": "74542", "ort": "Braunsbach", "name": "Braunsbach", "street": "Geislinger Straße 11"}, 
{"plz": "74544", "ort": "Michelbach an der Bilz", "name": "Michelbach an der Bilz", "street": "Hirschfelder Straße 13"}, 
{"plz": "74545", "ort": "Michelfeld", "name": "Michelfeld", "street": "Haller Straße 35"}, 
{"plz": "74549", "ort": "Wolpertshausen", "name": "Wolpertshausen", "street": "Haller Straße 15"}, 
{"plz": "74564", "ort": "Crailsheim", "name": "Crailsheim, Stadt", "street": "Marktplatz 1"}, 
{"plz": "74572", "ort": "Blaufelden", "name": "Blaufelden", "street": "Hindenburgplatz 4"}, 
{"plz": "74575", "ort": "Schrozberg", "name": "Schrozberg, Stadt", "street": "Krailshausener Straße 15"}, 
{"plz": "74579", "ort": "Fichtenau", "name": "Fichtenau", "street": "Hauptstraße 2"}, 
{"plz": "74579", "ort": "Fichtenau", "name": "Fichtenau", "street": "Rathaus"}, 
{"plz": "74582", "ort": "Gerabronn", "name": "Langenburg, Stadt", "street": "Blaufeldener Straße 14"}, 
{"plz": "74585", "ort": "Rot am See", "name": "Kirchberg an der Jagst, Stadt", "street": "Raiffeisenstraße 1"}, 
{"plz": "74586", "ort": "Frankenhardt", "name": "Frankenhardt", "street": "Crailsheimer Straße 3"}, 
{"plz": "74589", "ort": "Satteldorf", "name": "Satteldorf", "street": "Satteldorfer Hauptstraße 50"}, 
{"plz": "74592", "ort": "Kirchberg an der Jagst", "name": "Kirchberg an der Jagst, Stadt", "street": "Schloßstraße 10"}, 
{"plz": "74594", "ort": "Kreßberg", "name": "Kreßberg", "street": "Untere Hirtenstraße 34"}, 
{"plz": "74595", "ort": "Langenburg", "name": "Langenburg, Stadt", "street": "Hauptstraße 15"}, 
{"plz": "74597", "ort": "Stimpfach", "name": "Stimpfach", "street": "Kirchstraße 22"}, 
{"plz": "74599", "ort": "Wallhausen", "name": "Wallhausen", "street": "Seestraße 2"}, 
{"plz": "74613", "ort": "Öhringen", "name": "Öhringen, Stadt", "street": "Marktplatz 15"}, 
{"plz": "74626", "ort": "Bretzfeld", "name": "Bretzfeld", "street": "Adolzfurter Straße 12"}, 
{"plz": "74629", "ort": "Pfedelbach", "name": "Pfedelbach", "street": "Hauptstraße 17"}, 
{"plz": "74632", "ort": "Neuenstein", "name": "Neuenstein, Stadt", "street": "Schloßstraße 20"}, 
{"plz": "74635", "ort": "Kupferzell", "name": "Kupferzell", "street": "Am Marktplatz 14-16"}, 
{"plz": "74635", "ort": "Kupferzell", "name": "Neuenstein, Stadt", "street": "Marktplatz 14-16"}, 
{"plz": "74638", "ort": "Waldenburg", "name": "Waldenburg, Stadt", "street": "Hauptstraße 13"}, 
{"plz": "74639", "ort": "Zweiflingen", "name": "Zweiflingen", "street": "Eichacher Straße 17"}, 
{"plz": "74653", "ort": "Ingelfingen", "name": "Ingelfingen, Stadt", "street": "Schloßstraße 12"}, 
{"plz": "74653", "ort": "Künzelsau", "name": "Ingelfingen, Stadt", "street": "Stuttgarter Straße 7"}, 
{"plz": "74670", "ort": "Forchtenberg", "name": "Forchtenberg, Stadt", "street": "Hauptstraße 14"}, 
{"plz": "74673", "ort": "Mulfingen", "name": "Mulfingen", "street": "Kirchweg 1"}, 
{"plz": "74676", "ort": "Niedernhall", "name": "Forchtenberg, Stadt", "street": "Hauptstraße 30"}, 
{"plz": "74677", "ort": "Dörzbach", "name": "Dörzbach", "street": "Marktplatz 2"}, 
{"plz": "74679", "ort": "Weißbach", "name": "Weißbach", "street": "Niedernhaller Straße 5"}, 
{"plz": "74706", "ort": "Osterburken", "name": "Osterburken, Stadt", "street": "Marktplatz 3"}, 
{"plz": "74722", "ort": "Buchen (Odenwald)", "name": "Buchen (Odenwald), Stadt", "street": "Wimpinaplatz 3"}, 
{"plz": "74731", "ort": "Walldürn", "name": "Walldürn, Stadt", "street": "Burgstraße 3"}, 
{"plz": "74736", "ort": "Hardheim", "name": "Hardheim", "street": "Schloßplatz 6"}, 
{"plz": "74740", "ort": "Adelsheim", "name": "Adelsheim, Stadt", "street": "Marktstraße 7"}, 
{"plz": "74740", "ort": "Adelsheim", "name": "Adelsheim, Stadt", "street": "Rathaus"}, 
{"plz": "74743", "ort": "Seckach", "name": "Seckach", "street": "Bahnhofstraße 30"}, 
{"plz": "74744", "ort": "Ahorn", "name": "Ahorn", "street": "Schloßstraße 24"}, 
{"plz": "74746", "ort": "Höpfingen", "name": "Höpfingen", "street": "Heidelberger Straße 23"}, 
{"plz": "74747", "ort": "Ravenstein", "name": "Ravenstein, Stadt", "street": "Lindenstraße 4"}, 
{"plz": "74749", "ort": "Rosenberg", "name": "Rosenberg", "street": "Hauptstraße 26"}, 
{"plz": "74821", "ort": "Mosbach", "name": "Mosbach, Stadt", "street": "Hauptstraße 29"}, 
{"plz": "74831", "ort": "Gundelsheim", "name": "Gundelsheim, Stadt", "street": "Tiefenbacher Straße 16"}, 
{"plz": "74834", "ort": "Elztal", "name": "Elztal", "street": "Hauptstraße 8"}, 
{"plz": "74838", "ort": "Limbach", "name": "Fahrenbach", "street": "Muckentaler Straße 9"}, 
{"plz": "74842", "ort": "Billigheim", "name": "Billigheim", "street": "Sulzbacher Straße 9"}, 
{"plz": "74847", "ort": "Obrigheim", "name": "Obrigheim", "street": "Hauptstraße 7"}, 
{"plz": "74850", "ort": "Schefflenz", "name": "Schefflenz", "street": "Brauereistraße 1"}, 
{"plz": "74850", "ort": "Schefflenz", "name": "Schefflenz", "street": "Mittelstraße 47"}, 
{"plz": "74855", "ort": "Haßmersheim", "name": "Haßmersheim", "street": "Theodor-Heuss-Straße 45"}, 
{"plz": "74858", "ort": "Aglasterhausen", "name": "Aglasterhausen", "street": "Am Marktplatz 1"}, 
{"plz": "74861", "ort": "Neudenau", "name": "Neudenau, Stadt", "street": "Hauptstraße 27"}, 
{"plz": "74862", "ort": "Binau", "name": "Binau", "street": "Reichenbucher Straße 38 A"}, 
{"plz": "74864", "ort": "Fahrenbach", "name": "Fahrenbach", "street": "Adolf-Weber-Straße 23"}, 
{"plz": "74865", "ort": "Neckarzimmern", "name": "Neckarzimmern", "street": "Hauptstraße 4"}, 
{"plz": "74867", "ort": "Neunkirchen", "name": "Neunkirchen", "street": "Marktplatz 1"}, 
{"plz": "74869", "ort": "Schwarzach", "name": "Schwarzach", "street": "Hauptstraße 14"}, 
{"plz": "74889", "ort": "Sinsheim", "name": "Sinsheim, Stadt", "street": "Wilhelmstraße 14-18"}, 
{"plz": "74906", "ort": "Bad Rappenau", "name": "Bad Rappenau, Stadt", "street": "Kirchplatz 4"}, 
{"plz": "74909", "ort": "Meckesheim", "name": "Eschelbronn", "street": "Friedrichstraße 10"}, 
{"plz": "74912", "ort": "Kirchardt", "name": "Kirchardt", "street": "Goethestraße 5"}, 
{"plz": "74915", "ort": "Waibstadt", "name": "Neckarbischofsheim, Stadt", "street": "Hauptstraße 31"}, 
{"plz": "74918", "ort": "Angelbachtal", "name": "Angelbachtal", "street": "Schloßstraße 1"}, 
{"plz": "74921", "ort": "Helmstadt-Bargen", "name": "Helmstadt-Bargen", "street": "Rabanstraße 14"}, 
{"plz": "74924", "ort": "Neckarbischofsheim", "name": "Neckarbischofsheim, Stadt", "street": "Alexandergasse 2"}, 
{"plz": "74925", "ort": "Epfenbach", "name": "Epfenbach", "street": "Hauptstraße 28"}, 
{"plz": "74927", "ort": "Eschelbronn", "name": "Eschelbronn", "street": "Bahnhofstraße 1"}, 
{"plz": "74928", "ort": "Hüffenhardt", "name": "Hüffenhardt", "street": "Reisengasse 1"}, 
{"plz": "74930", "ort": "Ittlingen", "name": "Ittlingen", "street": "Hauptstraße 101"}, 
{"plz": "74931", "ort": "Lobbach", "name": "Lobbach", "street": "Hauptstraße 52"}, 
{"plz": "74933", "ort": "Neidenstein", "name": "Neidenstein", "street": "Schloßstraße 9"}, 
{"plz": "74934", "ort": "Reichartshausen", "name": "Reichartshausen", "street": "Rathausstraße 3"}, 
{"plz": "74936", "ort": "Siegelsbach", "name": "Siegelsbach", "street": "Wagenbacher Straße 4A"}, 
{"plz": "74937", "ort": "Spechbach", "name": "Spechbach", "street": "Hauptstraße 35"}, 
{"plz": "74939", "ort": "Zuzenhausen", "name": "Zuzenhausen", "street": "Hauptstraße 25"}]