[{"plz": "87435", "ort": "Kempten (Allgäu)", "name": "Kempten (Allgäu)", "street": "Rathausplatz 22"}, 
{"plz": "87435", "ort": "Kempten", "name": "Kempten", "street": "Rathausplatz 22\nErdgeschoss", "phone": "0831-2525-0", "email": "poststelle@kempten.de"}, 
{"plz": "87444", "ort": "Waltenhofen", "name": "Waltenhofen", "street": "Postfach 80"}, 
{"plz": "87449", "ort": "Altusried", "name": "Altusried, M", "street": "Postfach 1146"}, 
{"plz": "87459", "ort": "Pfronten", "name": "Pfronten", "street": "Allgäuer Straße 6"}, 
{"plz": "87460", "ort": "Dietmannsried", "name": "Dietmannsried, M", "street": "Postfach 1120"}, 
{"plz": "87466", "ort": "Oy-Mittelberg", "name": "Oy-Mittelberg", "street": "Hauptstraße 28"}, 
{"plz": "87467", "ort": "Durach", "name": "Durach", "street": "Postfach 27"}, 
{"plz": "87474", "ort": "Buchenberg", "name": "Buchenberg, M", "street": "Rathaussteige 2"}, 
{"plz": "87477", "ort": "Sulzberg", "name": "Sulzberg, M", "street": "Rathausplatz 4"}, 
{"plz": "87478", "ort": "Weitnau", "name": "Missen-Wilhams", "street": "Postfach 9"}, 
{"plz": "87482", "ort": "Nesselwang", "name": "Nesselwang, M", "street": "Postfach 1209"}, 
{"plz": "87487", "ort": "Wiggensbach", "name": "Wiggensbach, M", "street": "Marktplatz 3"}, 
{"plz": "87488", "ort": "Betzigau", "name": "Betzigau", "street": "Rotkreuzstraße 2"}, 
{"plz": "87490", "ort": "Haldenwang", "name": "Haldenwang", "street": "Römerstraße 3"}, 
{"plz": "87493", "ort": "Lauben", "name": "Lauben", "street": "Dorfstraße 2"}, 
{"plz": "87497", "ort": "Wertach", "name": "Wertach, M", "street": "Rathausstraße 3"}, 
{"plz": "87499", "ort": "Wildpoldsried", "name": "Wildpoldsried", "street": "Kemptener Straße 2"}, 
{"plz": "87504", "ort": "Immenstadt i.Allgäu", "name": "Immenstadt i.Allgäu, St", "street": "Postfach 1461"}, 
{"plz": "87527", "ort": "Sonthofen", "name": "Sonthofen, St", "street": "Rathausplatz 1"}, 
{"plz": "87527", "ort": "Ofterschwang", "name": "Ofterschwang", "street": "Kirchgasse 1"}, 
{"plz": "87528", "ort": "Oberstaufen", "name": "Oberstaufen, M", "street": "Postfach 70"}, 
{"plz": "87536", "ort": "Fischen i.Allgäu", "name": "Bolsterlang", "street": "Rathausweg 4"}, 
{"plz": "87538", "ort": "Balderschwang", "name": "Balderschwang", "street": "Dorf 11"}, 
{"plz": "87538", "ort": "Obermaiselstein", "name": "Obermaiselstein", "street": "Am Scheid 18"}, 
{"plz": "87538", "ort": "Fischen i.Allgäu", "name": "Fischen i.Allgäu", "street": "Weiler 16"}, 
{"plz": "87539", "ort": "Bad Hindelang", "name": "Bad Hindelang, M", "street": "Postfach 1142"}, 
{"plz": "87542", "ort": "Blaichach", "name": "Blaichach", "street": "Postfach 1140"}, 
{"plz": "87545", "ort": "Burgberg i.Allgäu", "name": "Burgberg i.Allgäu", "street": "Grüntenstraße 2"}, 
{"plz": "87549", "ort": "Rettenberg", "name": "Rettenberg", "street": "Bichelweg 2"}, 
{"plz": "87555", "ort": "Oberstdorf", "name": "Oberstdorf, M", "street": "Postfach 1540"}, 
{"plz": "87577", "ort": "Kaufbeuren", "name": "Kaufbeuren", "street": "Postfach 1752"}, 
{"plz": "87611", "ort": "Marktoberdorf", "name": "Marktoberdorf, St", "street": "Postfach 1353"}, 
{"plz": "87629", "ort": "Füssen", "name": "Füssen, St", "street": "Lechhalde 3"}, 
{"plz": "87630", "ort": "Obergünzburg", "name": "Obergünzburg, M", "street": "Postfach 1164"}, 
{"plz": "87637", "ort": "Seeg", "name": "Lengenwang", "street": "Hauptstraße 39"}, 
{"plz": "87640", "ort": "Biessenhofen", "name": "Ruderatshofen", "street": "Füssener Straße 12"}, 
{"plz": "87642", "ort": "Halblech", "name": "Halblech", "street": "Dorfstraße 18"}, 
{"plz": "87643", "ort": "Schwangau", "name": "Schwangau", "street": "Postfach 65"}, 
{"plz": "87647", "ort": "Unterthingau", "name": "Unterthingau, M", "street": "Marktplatz 9"}, 
{"plz": "87647", "ort": "Kraftisried", "name": "Kraftisried", "street": "Reinhardsrieder Straße 10"}, 
{"plz": "87653", "ort": "Eggenthal", "name": "Friesenried", "street": "Römerstraße 12"}, 
{"plz": "87656", "ort": "Germaringen", "name": "Germaringen", "street": "Westendorfer Straße 4a"}, 
{"plz": "87657", "ort": "Görisried", "name": "Görisried", "street": "Kirchplatz 8"}, 
{"plz": "87665", "ort": "Mauerstetten", "name": "Mauerstetten", "street": "Postfach 1110"}, 
{"plz": "87666", "ort": "Pforzen", "name": "Irsee, M", "street": "Bahnhofstraße 7"}, 
{"plz": "87671", "ort": "Ronsberg", "name": "Ronsberg, M", "street": "Schulweg 3"}, 
{"plz": "87672", "ort": "Roßhaupten", "name": "Rieden am Forggensee", "street": "Hauptstraße 10"}, 
{"plz": "87674", "ort": "Ruderatshofen", "name": "Ruderatshofen", "street": "Marktoberdorfer Straße 7"}, 
{"plz": "87675", "ort": "Stötten a.Auerberg", "name": "Rettenbach a.Auerberg", "street": "Füssener Straße 11"}, 
{"plz": "87679", "ort": "Westendorf", "name": "Oberostendorf", "street": "Kaltentaler Straße 1"}, 
{"plz": "87679", "ort": "Westendorf", "name": "Oberostendorf", "street": "Kaltentaler Straße 1 (Dösingen)"}, 
{"plz": "87688", "ort": "Memmingen", "name": "Memmingen", "street": "Postfach 1853"}, 
{"plz": "87719", "ort": "Mindelheim", "name": "Mindelheim, St", "street": "Maximilianstraße 26"}, 
{"plz": "87720", "ort": "Ottobeuren", "name": "Ottobeuren, M", "street": "Postfach 1129"}, 
{"plz": "87725", "ort": "Babenhausen", "name": "Babenhausen, M", "street": "Postfach 1146"}, 
{"plz": "87730", "ort": "Bad Grönenbach", "name": "Bad Grönenbach, M", "street": "Marktplatz 1"}, 
{"plz": "87733", "ort": "Markt Rettenbach", "name": "Markt Rettenbach, M", "street": "Ottobeurer Straße 10"}, 
{"plz": "87737", "ort": "Boos", "name": "Heimertingen", "street": "Fuggerstraße 3"}, 
{"plz": "87739", "ort": "Breitenbrunn", "name": "Breitenbrunn", "street": "Kirchstraße 1"}, 
{"plz": "87740", "ort": "Buxheim", "name": "Buxheim", "street": "Kirchplatz 2"}, 
{"plz": "87742", "ort": "Dirlewang", "name": "Dirlewang, M", "street": "Marktstraße 19"}, 
{"plz": "87745", "ort": "Eppishausen", "name": "Eppishausen", "street": "Mörgener Straße 8"}, 
{"plz": "87746", "ort": "Erkheim", "name": "Erkheim, M", "street": "Babenhauser Straße 7"}, 
{"plz": "87746", "ort": "Erkheim", "name": "Erkheim, M", "street": "Marktstraße 1"}, 
{"plz": "87746", "ort": "Westerheim", "name": "Westerheim", "street": "Bahnhofstraße 2"}, 
{"plz": "87757", "ort": "Kirchheim i.Schw.", "name": "Kirchheim i.Schw., M", "street": "Marktplatz 6"}, 
{"plz": "87757", "ort": "Kirchheim i.Schw.", "name": "Kirchheim i.Schw., M", "street": "Marktpklatz 6"}, 
{"plz": "87758", "ort": "Kronburg", "name": "Kronburg", "street": "Museumstraße 1"}, 
{"plz": "87761", "ort": "Lauben", "name": "Lauben", "street": "Erkheimer Straße 7"}, 
{"plz": "87763", "ort": "Lautrach", "name": "Lautrach", "street": "Deybachstraße 2"}, 
{"plz": "87764", "ort": "Legau", "name": "Lautrach", "street": "Marktplatz 1"}, 
{"plz": "87766", "ort": "Memmingerberg", "name": "Memmingerberg", "street": "Postfach 1160"}, 
{"plz": "87769", "ort": "Oberrieden", "name": "Oberrieden", "street": "Schulweg 1"}, 
{"plz": "87772", "ort": "Pfaffenhausen", "name": "Pfaffenhausen, M", "street": "Hauptstraße 34"}, 
{"plz": "87775", "ort": "Salgen", "name": "Salgen", "street": "Johannesweg 28"}, 
{"plz": "87776", "ort": "Sontheim", "name": "Sontheim", "street": "Hauptstraße 41"}]