[{"plz": "79098", "ort": "Freiburg im Breisgau", "name": "Freiburg im Breisgau, Stadt", "street": "Rathausplatz 2-4"}, 
{"plz": "79106", "ort": "Freiburg", "name": "Freiburg Rathaus im Stühlinger", "street": "Fehrenbachallee 12", "phone": "0761-201-0", "email": "buergeramt@stadt.freiburg.de"}, 
{"plz": "79183", "ort": "Waldkirch", "name": "Gutach im Breisgau", "street": "Marktplatz 1-5"}, 
{"plz": "79189", "ort": "Bad Krozingen", "name": "Bad Krozingen, Stadt", "street": "Basler Straße 30"}, 
{"plz": "79194", "ort": "Gundelfingen", "name": "Gundelfingen", "street": "Alte Bundesstraße 31"}, 
{"plz": "79194", "ort": "Heuweiler", "name": "Heuweiler", "street": "Dorfstraße 21"}, 
{"plz": "79199", "ort": "Kirchzarten", "name": "Kirchzarten", "street": "Talvogteistraße 12"}, 
{"plz": "79206", "ort": "Breisach am Rhein", "name": "Breisach am Rhein, Stadt", "street": "Münsterplatz 1"}, 
{"plz": "79211", "ort": "Denzlingen", "name": "Vörstetten", "street": "Hauptstraße 110"}, 
{"plz": "79215", "ort": "Elzach", "name": "Winden im Elztal", "street": "Hauptstraße 69"}, 
{"plz": "79215", "ort": "Biederbach", "name": "Biederbach", "street": "Dorfstraße 18"}, 
{"plz": "79219", "ort": "Staufen im Breisgau", "name": "Staufen im Breisgau, Stadt", "street": "Rathaus"}, 
{"plz": "79219", "ort": "Staufen im Breisgau", "name": "Staufen im Breisgau, Stadt", "street": "Hauptstraße 53"}, 
{"plz": "79224", "ort": "Umkirch", "name": "Umkirch", "street": "Vinzenz-Kremp-Weg 1"}, 
{"plz": "79227", "ort": "Schallstadt", "name": "Pfaffenweiler", "street": "Kirchstraße 16"}, 
{"plz": "79232", "ort": "March", "name": "March", "street": "Am Felsenkeller 2"}, 
{"plz": "79232", "ort": "March", "name": "Umkirch", "street": "Rathaus"}, 
{"plz": "79235", "ort": "Vogtsburg im Kaiserstuhl", "name": "Vogtsburg im Kaiserstuhl, Stadt", "street": "Bahnhofstraße 20"}, 
{"plz": "79238", "ort": "Ehrenkirchen", "name": "Ehrenkirchen", "street": "Jengerstraße 6"}, 
{"plz": "79241", "ort": "Ihringen", "name": "Ihringen", "street": "Bachenstraße 42"}, 
{"plz": "79244", "ort": "Münstertal/Schwarzwald", "name": "Münstertal/Schwarzwald", "street": "Wasen 47"}, 
{"plz": "79249", "ort": "Merzhausen", "name": "Merzhausen", "street": "Friedhofweg 11"}, 
{"plz": "79252", "ort": "Stegen", "name": "Stegen", "street": "Dorfplatz 1"}, 
{"plz": "79254", "ort": "Oberried", "name": "Oberried", "street": "Klosterplatz 4"}, 
{"plz": "79256", "ort": "Buchenbach", "name": "Buchenbach", "street": "Hauptstraße 20"}, 
{"plz": "79258", "ort": "Hartheim am Rhein", "name": "Hartheim am Rhein", "street": "Feldkircher Straße 17"}, 
{"plz": "79261", "ort": "Gutach im Breisgau", "name": "Gutach im Breisgau", "street": "Dorfstraße 33"}, 
{"plz": "79263", "ort": "Simonswald", "name": "Simonswald", "street": "Talstraße 12"}, 
{"plz": "79268", "ort": "Bötzingen", "name": "Eichstetten am Kaiserstuhl", "street": "Hauptstraße 11"}, 
{"plz": "79271", "ort": "St. Peter", "name": "St. Märgen", "street": "Klosterhof 12"}, 
{"plz": "79274", "ort": "St. Märgen", "name": "St. Märgen", "street": "Rathausplatz 6"}, 
{"plz": "79276", "ort": "Reute", "name": "Reute", "street": "Hinter den Eichen 2"}, 
{"plz": "79279", "ort": "Vörstetten", "name": "Vörstetten", "street": "Freiburger Straße 2"}, 
{"plz": "79280", "ort": "Au", "name": "Au", "street": "Dorfstraße 25"}, 
{"plz": "79282", "ort": "Ballrechten-Dottingen", "name": "Ballrechten-Dottingen", "street": "Alfred-Löffler-Straße 1"}, 
{"plz": "79283", "ort": "Bollschweil", "name": "Bollschweil", "street": "Hexentalstraße 56"}, 
{"plz": "79285", "ort": "Ebringen", "name": "Ebringen", "street": "Schloßplatz 1"}, 
{"plz": "79286", "ort": "Glottertal", "name": "Glottertal", "street": "Talstraße 45"}, 
{"plz": "79288", "ort": "Gottenheim", "name": "Gottenheim", "street": "Hauptstraße 25"}, 
{"plz": "79289", "ort": "Horben", "name": "Horben", "street": "Dorfstraße 2"}, 
{"plz": "79291", "ort": "Merdingen", "name": "Merdingen", "street": "Kirchgasse 2"}, 
{"plz": "79292", "ort": "Pfaffenweiler", "name": "Pfaffenweiler", "street": "Rathausgasse 4"}, 
{"plz": "79294", "ort": "Sölden", "name": "Sölden", "street": "Staufener Straße 4"}, 
{"plz": "79295", "ort": "Sulzburg", "name": "Sulzburg, Stadt", "street": "Hauptstraße 60"}, 
{"plz": "79297", "ort": "Winden im Elztal", "name": "Winden im Elztal", "street": "Bahnhofstraße 1"}, 
{"plz": "79299", "ort": "Wittnau", "name": "Wittnau", "street": "Kirchweg 2"}, 
{"plz": "79312", "ort": "Emmendingen", "name": "Emmendingen, Stadt", "street": "Rathaus"}, 
{"plz": "79312", "ort": "Emmendingen", "name": "Emmendingen, Stadt", "street": "Landvogtei 10"}, 
{"plz": "79331", "ort": "Teningen", "name": "Teningen", "street": "Riegeler Straße 12"}, 
{"plz": "79336", "ort": "Herbolzheim", "name": "Herbolzheim, Stadt", "street": "Hauptstraße 26"}, 
{"plz": "79341", "ort": "Kenzingen", "name": "Herbolzheim, Stadt", "street": "Hauptstraße 15"}, 
{"plz": "79346", "ort": "Endingen am Kaiserstuhl", "name": "Endingen am Kaiserstuhl, Stadt", "street": "Marktplatz 6"}, 
{"plz": "79348", "ort": "Freiamt", "name": "Freiamt", "street": "Sägplatz 1"}, 
{"plz": "79350", "ort": "Sexau", "name": "Sexau", "street": "Dorfstraße 61"}, 
{"plz": "79353", "ort": "Bahlingen am Kaiserstuhl", "name": "Bahlingen am Kaiserstuhl", "street": "Webergässle 2"}, 
{"plz": "79356", "ort": "Eichstetten am Kaiserstuhl", "name": "Eichstetten am Kaiserstuhl", "street": "Hauptstraße 43"}, 
{"plz": "79359", "ort": "Riegel am Kaiserstuhl", "name": "Riegel am Kaiserstuhl", "street": "Hauptstraße 31"}, 
{"plz": "79361", "ort": "Sasbach am Kaiserstuhl", "name": "Sasbach am Kaiserstuhl", "street": "Hauptstraße 15"}, 
{"plz": "79362", "ort": "Forchheim", "name": "Forchheim", "street": "Herrenstraße 35"}, 
{"plz": "79364", "ort": "Malterdingen", "name": "Malterdingen", "street": "Hauptstraße 18"}, 
{"plz": "79365", "ort": "Rheinhausen", "name": "Rheinhausen", "street": "Hauptstraße 95"}, 
{"plz": "79367", "ort": "Weisweil", "name": "Weisweil", "street": "Hinterdorfstraße 14"}, 
{"plz": "79369", "ort": "Wyhl am Kaiserstuhl", "name": "Wyhl am Kaiserstuhl", "street": "Hauptstraße 9"}, 
{"plz": "79379", "ort": "Müllheim", "name": "Sulzburg, Stadt", "street": "Bismarckstraße 3"}, 
{"plz": "79395", "ort": "Neuenburg am Rhein", "name": "Neuenburg am Rhein, Stadt", "street": "Rathausplatz 5"}, 
{"plz": "79400", "ort": "Kandern", "name": "Malsburg-Marzell", "street": "Waldeckstraße 39"}, 
{"plz": "79410", "ort": "Badenweiler", "name": "Badenweiler", "street": "Luisenstraße 5"}, 
{"plz": "79415", "ort": "Bad Bellingen", "name": "Bad Bellingen", "street": "Rheinstraße 25"}, 
{"plz": "79418", "ort": "Schliengen", "name": "Bad Bellingen", "street": "Wasserschloß Entenstein"}, 
{"plz": "79423", "ort": "Heitersheim", "name": "Ballrechten-Dottingen", "street": "Hauptstraße 9"}, 
{"plz": "79424", "ort": "Auggen", "name": "Auggen", "street": "Hauptstraße 28"}, 
{"plz": "79426", "ort": "Buggingen", "name": "Buggingen", "street": "Hauptstraße 31"}, 
{"plz": "79427", "ort": "Eschbach", "name": "Eschbach", "street": "Hauptstraße 24"}, 
{"plz": "79429", "ort": "Malsburg-Marzell", "name": "Malsburg-Marzell", "street": "Rathausplatz 1"}, 
{"plz": "79539", "ort": "Lörrach", "name": "Lörrach, Stadt", "street": "Luisenstraße 16"}, 
{"plz": "79576", "ort": "Weil am Rhein", "name": "Weil am Rhein, Stadt", "street": "Rathausplatz 1"}, 
{"plz": "79585", "ort": "Steinen", "name": "Steinen", "street": "Eisenbahnstraße 31"}, 
{"plz": "79588", "ort": "Efringen-Kirchen", "name": "Efringen-Kirchen", "street": "Hauptstraße 26"}, 
{"plz": "79589", "ort": "Binzen", "name": "Eimeldingen", "street": "Am Rathaus 6"}, 
{"plz": "79591", "ort": "Eimeldingen", "name": "Eimeldingen", "street": "Dorfstraße 1"}, 
{"plz": "79592", "ort": "Fischingen", "name": "Fischingen", "street": "Kirchplatz 6"}, 
{"plz": "79594", "ort": "Inzlingen", "name": "Inzlingen", "street": "Wasserschloss"}, 
{"plz": "79595", "ort": "Rümmingen", "name": "Rümmingen", "street": "Lörracher Straße 9"}, 
{"plz": "79597", "ort": "Schallbach", "name": "Schallbach", "street": "Dorfstraße 6"}, 
{"plz": "79599", "ort": "Wittlingen", "name": "Wittlingen", "street": "Am Rathausplatz 1"}, 
{"plz": "79618", "ort": "Rheinfelden (Baden)", "name": "Rheinfelden (Baden), Stadt", "street": "Kirchplatz 2"}, 
{"plz": "79639", "ort": "Grenzach-Wyhlen", "name": "Grenzach-Wyhlen", "street": "Hauptstraße 10"}, 
{"plz": "79650", "ort": "Schopfheim", "name": "Hausen im Wiesental", "street": "Hauptstraße 29-31"}, 
{"plz": "79664", "ort": "Wehr", "name": "Wehr, Stadt", "street": "Hauptstraße 16"}, 
{"plz": "79669", "ort": "Zell im Wiesental", "name": "Zell im Wiesental, Stadt", "street": "Constanze-Weber-Gasse 4"}, 
{"plz": "79669", "ort": "Zell im Wiesental", "name": "Zell im Wiesental, Stadt", "street": "Teichstraße 4"}, 
{"plz": "79674", "ort": "Todtnau", "name": "Todtnau, Stadt", "street": "Rathausplatz 1"}, 
{"plz": "79677", "ort": "Schönau im Schwarzwald", "name": "Schönau im Schwarzwald, Stadt", "street": "Talstraße 22"}, 
{"plz": "79677", "ort": "Böllen", "name": "Böllen", "street": "Oberböllen 19"}, 
{"plz": "79677", "ort": "Aitern", "name": "Aitern", "street": "Schulweg 6"}, 
{"plz": "79677", "ort": "Schönenberg", "name": "Schönenberg", "street": "Belchenstraße 1"}, 
{"plz": "79677", "ort": "Wembach", "name": "Wembach", "street": "Bifigstraße 2"}, 
{"plz": "79677", "ort": "Tunau", "name": "Tunau", "street": "Dorfstraße 2"}, 
{"plz": "79677", "ort": "Fröhnd", "name": "Fröhnd", "street": "Unterkastel 21"}, 
{"plz": "79682", "ort": "Todtmoos", "name": "Todtmoos", "street": "St. Blasier Straße 2"}, 
{"plz": "79685", "ort": "Häg-Ehrsberg", "name": "Häg-Ehrsberg", "street": "Rathaustraße 27"}, 
{"plz": "79686", "ort": "Hasel", "name": "Hasel", "street": "Hofstraße 2"}, 
{"plz": "79688", "ort": "Hausen im Wiesental", "name": "Hausen im Wiesental", "street": "Bahnhofstraße 9"}, 
{"plz": "79689", "ort": "Maulburg", "name": "Maulburg", "street": "Hermann-Burte-Straße 57"}, 
{"plz": "79692", "ort": "Kleines Wiesental", "name": "Kleines Wiesental", "street": "Tegernauer Ortsstraße 9"}, 
{"plz": "79694", "ort": "Utzenfeld", "name": "Utzenfeld", "street": "Wiesentalstraße 29"}, 
{"plz": "79695", "ort": "Wieden", "name": "Wieden", "street": "Kirchstraße 2"}, 
{"plz": "79713", "ort": "Bad Säckingen", "name": "Bad Säckingen, Stadt", "street": "Rathausplatz 1"}, 
{"plz": "79725", "ort": "Laufenburg (Baden)", "name": "Laufenburg (Baden), Stadt", "street": "Hauptstraße 30"}, 
{"plz": "79730", "ort": "Murg", "name": "Murg", "street": "Hauptstraße 52"}, 
{"plz": "79733", "ort": "Görwihl", "name": "Görwihl", "street": "Hauptstraße 54"}, 
{"plz": "79736", "ort": "Rickenbach", "name": "Rickenbach", "street": "Hauptstraße 7"}, 
{"plz": "79737", "ort": "Herrischried", "name": "Herrischried", "street": "Hauptstraße 28"}, 
{"plz": "79739", "ort": "Schwörstadt", "name": "Schwörstadt", "street": "Hauptstraße 107"}, 
{"plz": "79761", "ort": "Waldshut-Tiengen", "name": "Waldshut-Tiengen, Stadt", "street": "Kaiserstraße 28-32"}, 
{"plz": "79771", "ort": "Klettgau", "name": "Klettgau", "street": "Degernauerstraße 22"}, 
{"plz": "79774", "ort": "Albbruck", "name": "Albbruck", "street": "Schulstraße 6"}, 
{"plz": "79777", "ort": "Ühlingen-Birkendorf", "name": "Ühlingen-Birkendorf", "street": "Berghausstraße 2"}, 
{"plz": "79777", "ort": "Ühlingen-Birkendorf", "name": "Ühlingen-Birkendorf", "street": "Kirchplatz 1"}, 
{"plz": "79780", "ort": "Stühlingen", "name": "Stühlingen, Stadt", "street": "Schloßstraße 9"}, 
{"plz": "79787", "ort": "Lauchringen", "name": "Lauchringen", "street": "Hohrainstraße 59"}, 
{"plz": "79790", "ort": "Küssaberg", "name": "Hohentengen am Hochrhein", "street": "Gemeindezentrum 1"}, 
{"plz": "79793", "ort": "Wutöschingen", "name": "Wutöschingen", "street": "Kirchstraße 5"}, 
{"plz": "79798", "ort": "Jestetten", "name": "Dettighofen", "street": "Hornbergstraße 2"}, 
{"plz": "79801", "ort": "Hohentengen am Hochrhein", "name": "Hohentengen am Hochrhein", "street": "Kirchstraße 4"}, 
{"plz": "79802", "ort": "Dettighofen", "name": "Dettighofen", "street": "Berwanger Straße 5"}, 
{"plz": "79804", "ort": "Dogern", "name": "Dogern", "street": "Rathausweg 1"}, 
{"plz": "79805", "ort": "Eggingen", "name": "Eggingen", "street": "Bürgerstraße 7"}, 
{"plz": "79807", "ort": "Lottstetten", "name": "Lottstetten", "street": "Rathausplatz 1"}, 
{"plz": "79809", "ort": "Weilheim", "name": "Weilheim", "street": "Badener Platz 1"}, 
{"plz": "79822", "ort": "Titisee-Neustadt", "name": "Eisenbach (Hochschwarzwald)", "street": "Pfauenstraße 2-4"}, 
{"plz": "79837", "ort": "St. Blasien", "name": "Dachsberg (Südschwarzwald)", "street": "Rathaus"}, 
{"plz": "79837", "ort": "Häusern", "name": "Häusern", "street": "St.-Fridolin-Straße 5"}, 
{"plz": "79837", "ort": "Ibach", "name": "Ibach", "street": "Hofrain 1"}, 
{"plz": "79837", "ort": "St. Blasien", "name": "St. Blasien, Stadt", "street": "Am Kurgarten 11"}, 
{"plz": "79843", "ort": "Löffingen", "name": "Löffingen, Stadt", "street": "Rathausplatz 1"}, 
{"plz": "79848", "ort": "Bonndorf im Schwarzwald", "name": "Bonndorf im Schwarzwald, Stadt", "street": "Martinstraße 8"}, 
{"plz": "79853", "ort": "Lenzkirch", "name": "Lenzkirch", "street": "Kirchplatz 1"}, 
{"plz": "79856", "ort": "Hinterzarten", "name": "Hinterzarten", "street": "Rathausstraße 12"}, 
{"plz": "79859", "ort": "Schluchsee", "name": "Feldberg (Schwarzwald)", "street": "Fischbacher Straße 7"}, 
{"plz": "79862", "ort": "Höchenschwand", "name": "Höchenschwand", "street": "Waldshuter Straße 5"}, 
{"plz": "79865", "ort": "Grafenhausen", "name": "Grafenhausen", "street": "Rathausplatz 1"}, 
{"plz": "79868", "ort": "Feldberg (Schwarzwald)", "name": "Feldberg (Schwarzwald)", "street": "Kirchgasse 1"}, 
{"plz": "79871", "ort": "Eisenbach (Hochschwarzwald)", "name": "Eisenbach (Hochschwarzwald)", "street": "Bei der Kirche 1"}, 
{"plz": "79872", "ort": "Bernau im Schwarzwald", "name": "Bernau im Schwarzwald", "street": "Rathausstraße 18"}, 
{"plz": "79874", "ort": "Breitnau", "name": "Breitnau", "street": "Dorfstraße 11"}, 
{"plz": "79875", "ort": "Dachsberg (Südschwarzwald)", "name": "Dachsberg (Südschwarzwald)", "street": "Rathausstraße 1"}, 
{"plz": "79877", "ort": "Friedenweiler", "name": "Friedenweiler", "street": "Hauptstraße 24"}, 
{"plz": "79879", "ort": "Wutach", "name": "Wutach", "street": "Amtshausstraße 2"}]