[{"plz": "72070", "ort": "Tübingen", "name": "Tübingen Verwaltungsstelle Hirschau", "street": "Kingersheimer Str. 57", "phone": "07071-204-6050", "email": "rathaus-hirschau@tuebingen.de"}, 
{"plz": "72070", "ort": "Tübingen", "name": "Tübingen Verwaltungsstelle Hagelloch", "street": "Hagenloher Str. 1", "phone": "07071-204-6070", "email": "rathaus-hagelloch@tuebingen.de"}, 
{"plz": "72070", "ort": "Tübingen", "name": "Tübingen Stadtmitte", "street": "Schmiedtorstr. 4", "phone": "07071-204-2020", "email": "buergeramt@tuebingen.de"}, 
{"plz": "72070", "ort": "Tübingen", "name": "Tübingen Verwaltungsstelle Unterjesingen", "street": "Jesinger Hauptstr. 56", "phone": "07071-204-6060", "email": "rathaus-unterjesingen@tuebingen.de"}, 
{"plz": "72070", "ort": "Tübingen", "name": "Tübingen, Universitätsstadt", "street": "Am Markt 1"}, 
{"plz": "72072", "ort": "Tübingen", "name": "Tübingen Verwaltungsstelle Derendingen", "street": "Sieben-Höfe-Str. 11", "phone": "07071-204-1308", "email": "rathaus-derendingen@tuebingen.de"}, 
{"plz": "72072", "ort": "Tübingen", "name": "Tübingen Verwaltungsstelle Bühl", "street": "Bühler Rathausplatz 1", "phone": "07071-204-6040", "email": "rathaus-buehl@tuebingen.de"}, 
{"plz": "72072", "ort": "Tübingen", "name": "Tübingen Verwaltungsstelle Weilheim", "street": "Wilonstr. 43", "phone": "07071-204-6020", "email": "rathaus-weilheim@tuebingen.de"}, 
{"plz": "72072", "ort": "Tübingen", "name": "Tübingen Verwaltungsstelle Kilchberg", "street": "Tessinstr. 7", "phone": "07071-204-6030", "email": "rathaus-kilchberg@tuebingen.de"}, 
{"plz": "72074", "ort": "Tübingen", "name": "Tübingen Verwaltungsstelle Lustnau", "street": "Steige 14", "phone": "07071-204-1260", "email": "rathaus-lustnau@tuebingen.de"}, 
{"plz": "72074", "ort": "Tübingen", "name": "Tübingen Verwaltungsstelle Bebenhausen", "street": "Schönbuchstr. 2", "phone": "07071-204-6080", "email": "rathaus-bebenhausen@tuebingen.de"}, 
{"plz": "72074", "ort": "Tübingen", "name": "Tübingen Verwaltungsstelle Pfrondorf", "street": "Lustnauer Str. 1", "phone": "07071-204-6090", "email": "rathaus-pfrondorf@tuebingen.de"}, 
{"plz": "72108", "ort": "Rottenburg am Neckar", "name": "Rottenburg am Neckar, Stadt", "street": "Marktplatz 18"}, 
{"plz": "72116", "ort": "Mössingen", "name": "Mössingen, Stadt", "street": "Freiherr-Vom-Stein-Straße 20"}, 
{"plz": "72119", "ort": "Ammerbuch", "name": "Ammerbuch", "street": "Kirchstraße 6"}, 
{"plz": "72124", "ort": "Pliezhausen", "name": "Walddorfhäslach", "street": "Marktplatz 1"}, 
{"plz": "72127", "ort": "Kusterdingen", "name": "Kusterdingen", "street": "Kirchentellinsfurter Straße 9"}, 
{"plz": "72131", "ort": "Ofterdingen", "name": "Ofterdingen", "street": "Rathausgasse 2"}, 
{"plz": "72135", "ort": "Dettenhausen", "name": "Dettenhausen", "street": "Bismarckstraße 7"}, 
{"plz": "72138", "ort": "Kirchentellinsfurt", "name": "Kirchentellinsfurt", "street": "Rathausplatz 1"}, 
{"plz": "72141", "ort": "Walddorfhäslach", "name": "Walddorfhäslach", "street": "Hauptstraße 9"}, 
{"plz": "72144", "ort": "Dußlingen", "name": "Dußlingen", "street": "Rathausplatz 1"}, 
{"plz": "72145", "ort": "Hirrlingen", "name": "Hirrlingen", "street": "Schloßhof 1"}, 
{"plz": "72147", "ort": "Nehren", "name": "Nehren", "street": "Hauptstraße 32"}, 
{"plz": "72149", "ort": "Neustetten", "name": "Neustetten", "street": "Hohenzollernstraße 4"}, 
{"plz": "72160", "ort": "Horb am Neckar", "name": "Horb am Neckar, Stadt", "street": "Marktplatz 8"}, 
{"plz": "72172", "ort": "Sulz am Neckar", "name": "Sulz am Neckar, Stadt", "street": "Obere Hauptstraße 2"}, 
{"plz": "72175", "ort": "Dornhan", "name": "Dornhan, Stadt", "street": "Obere Torstraße 2"}, 
{"plz": "72181", "ort": "Starzach", "name": "Starzach", "street": "Hauptstraße 15"}, 
{"plz": "72184", "ort": "Eutingen im Gäu", "name": "Eutingen im Gäu", "street": "Marktstraße 17"}, 
{"plz": "72186", "ort": "Empfingen", "name": "Empfingen", "street": "Mühlheimer Straße 2"}, 
{"plz": "72189", "ort": "Vöhringen", "name": "Vöhringen", "street": "Sulzer Straße 8"}, 
{"plz": "72202", "ort": "Nagold", "name": "Haiterbach, Stadt", "street": "Marktstraße 27"}, 
{"plz": "72213", "ort": "Altensteig", "name": "Altensteig, Stadt", "street": "Paulusstraße 4"}, 
{"plz": "72213", "ort": "Altensteig", "name": "Altensteig, Stadt", "street": "Rathausplatz 1"}, 
{"plz": "72218", "ort": "Wildberg", "name": "Wildberg, Stadt", "street": "Marktstraße 2"}, 
{"plz": "72221", "ort": "Haiterbach", "name": "Haiterbach, Stadt", "street": "Marktplatz 1"}, 
{"plz": "72224", "ort": "Ebhausen", "name": "Ebhausen", "street": "Marktplatz 1"}, 
{"plz": "72226", "ort": "Simmersfeld", "name": "Simmersfeld", "street": "Gartenstraße 14"}, 
{"plz": "72227", "ort": "Egenhausen", "name": "Egenhausen", "street": "Hauptstraße 19"}, 
{"plz": "72229", "ort": "Rohrdorf", "name": "Rohrdorf", "street": "Komtureihof 4"}, 
{"plz": "72250", "ort": "Freudenstadt", "name": "Bad Rippoldsau-Schapbach", "street": "Marktplatz 1"}, 
{"plz": "72270", "ort": "Baiersbronn", "name": "Baiersbronn", "street": "Oberdorfstraße 46"}, 
{"plz": "72275", "ort": "Alpirsbach", "name": "Alpirsbach, Stadt", "street": "Marktplatz 2"}, 
{"plz": "72280", "ort": "Dornstetten", "name": "Dornstetten, Stadt", "street": "Hauptstraße 18"}, 
{"plz": "72280", "ort": "Dornstetten", "name": "Dornstetten, Stadt", "street": "Marktplatz 1 + 2"}, 
{"plz": "72285", "ort": "Pfalzgrafenweiler", "name": "Pfalzgrafenweiler", "street": "Hauptstraße 1"}, 
{"plz": "72290", "ort": "Loßburg", "name": "Loßburg", "street": "Hauptstraße 50"}, 
{"plz": "72293", "ort": "Glatten", "name": "Glatten", "street": "Lombacher Straße 27"}, 
{"plz": "72294", "ort": "Grömbach", "name": "Grömbach", "street": "Lindenweg 8"}, 
{"plz": "72296", "ort": "Schopfloch", "name": "Schopfloch", "street": "Marktplatz 2"}, 
{"plz": "72297", "ort": "Seewald", "name": "Seewald", "street": "Wildbader Straße 1"}, 
{"plz": "72299", "ort": "Wörnersberg", "name": "Wörnersberg", "street": "Lindenweg 1"}, 
{"plz": "72336", "ort": "Balingen", "name": "Geislingen, Stadt", "street": "Färberstraße 2"}, 
{"plz": "72348", "ort": "Rosenfeld", "name": "Rosenfeld, Stadt", "street": "Frauenberggasse 1"}, 
{"plz": "72351", "ort": "Geislingen", "name": "Geislingen, Stadt", "street": "Vorstadtstraße 9"}, 
{"plz": "72355", "ort": "Schömberg", "name": "Weilen unter den Rinnen", "street": "Schillerstraße 29"}, 
{"plz": "72355", "ort": "Schömberg", "name": "Schömberg, Stadt", "street": "Alte Hauptstraße 7"}, 
{"plz": "72356", "ort": "Dautmergen", "name": "Dautmergen", "street": "Grabenstraße 1"}, 
{"plz": "72358", "ort": "Dormettingen", "name": "Dormettingen", "street": "Wasenstraße 38"}, 
{"plz": "72359", "ort": "Dotternhausen", "name": "Dotternhausen", "street": "Hauptstraße 21"}, 
{"plz": "72361", "ort": "Hausen am Tann", "name": "Hausen am Tann", "street": "Mühlstraße 6"}, 
{"plz": "72362", "ort": "Nusplingen", "name": "Nusplingen", "street": "Marktplatz 8"}, 
{"plz": "72364", "ort": "Obernheim", "name": "Obernheim", "street": "Hauptstraße 8"}, 
{"plz": "72365", "ort": "Ratshausen", "name": "Ratshausen", "street": "Schloßhof 4"}, 
{"plz": "72367", "ort": "Weilen unter den Rinnen", "name": "Weilen unter den Rinnen", "street": "Angelstraße 1"}, 
{"plz": "72369", "ort": "Zimmern unter der Burg", "name": "Zimmern unter der Burg", "street": "Kirchstraße 5"}, 
{"plz": "72379", "ort": "Hechingen", "name": "Hechingen, Stadt", "street": "Marktplatz 1"}, 
{"plz": "72393", "ort": "Burladingen", "name": "Burladingen, Stadt", "street": "Hauptstraße 49"}, 
{"plz": "72401", "ort": "Haigerloch", "name": "Haigerloch, Stadt", "street": "Oberstadtstraße 11"}, 
{"plz": "72406", "ort": "Bisingen", "name": "Grosselfingen", "street": "Heidelbergstraße 9"}, 
{"plz": "72411", "ort": "Bodelshausen", "name": "Bodelshausen", "street": "Am Burghof 8"}, 
{"plz": "72414", "ort": "Rangendingen", "name": "Rangendingen", "street": "Schulstraße 8"}, 
{"plz": "72415", "ort": "Grosselfingen", "name": "Grosselfingen", "street": "Bruderschaftsstraße 66"}, 
{"plz": "72417", "ort": "Jungingen", "name": "Jungingen", "street": "Lehrstraße 3"}, 
{"plz": "72419", "ort": "Neufra", "name": "Neufra", "street": "Im Oberdorf 41"}, 
{"plz": "72458", "ort": "Albstadt", "name": "Albstadt, Stadt", "street": "Marktstraße 35"}, 
{"plz": "72469", "ort": "Meßstetten", "name": "Meßstetten, Stadt", "street": "Hauptstraße 9"}, 
{"plz": "72474", "ort": "Winterlingen", "name": "Winterlingen", "street": "Marktstraße 7"}, 
{"plz": "72475", "ort": "Bitz", "name": "Bitz", "street": "Hindenburgplatz 7"}, 
{"plz": "72477", "ort": "Schwenningen", "name": "Schwenningen", "street": "Alte Pfarrstraße 9"}, 
{"plz": "72479", "ort": "Straßberg", "name": "Straßberg", "street": "Lindenstraße 5"}, 
{"plz": "72488", "ort": "Sigmaringen", "name": "Sigmaringen, Stadt", "street": "Fürst-Wilhelm-Straße 15"}, 
{"plz": "72501", "ort": "Gammertingen", "name": "Veringenstadt, Stadt", "street": "Hohenzollernstraße 5"}, 
{"plz": "72505", "ort": "Krauchenwies", "name": "Krauchenwies", "street": "Hausenerstraße 1"}, 
{"plz": "72510", "ort": "Stetten am kalten Markt", "name": "Stetten am kalten Markt", "street": "Rathausplatz 1"}, 
{"plz": "72510", "ort": "Stetten am kalten Markt", "name": "Stetten am kalten Markt", "street": "Schlosshof 1"}, 
{"plz": "72511", "ort": "Bingen", "name": "Bingen", "street": "Hauptstraße 21"}, 
{"plz": "72513", "ort": "Hettingen", "name": "Hettingen, Stadt", "street": "Rathaus im Schloß"}, 
{"plz": "72514", "ort": "Inzigkofen", "name": "Inzigkofen", "street": "Ziegelweg 2"}, 
{"plz": "72516", "ort": "Scheer", "name": "Scheer, Stadt", "street": "Hauptstraße 1"}, 
{"plz": "72517", "ort": "Sigmaringendorf", "name": "Sigmaringendorf", "street": "Hauptstraße 9"}, 
{"plz": "72519", "ort": "Veringenstadt", "name": "Veringenstadt, Stadt", "street": "Im Städtle 116"}, 
{"plz": "72525", "ort": "Münsingen", "name": "Münsingen, Stadt", "street": "Bachwiesenstraße 7"}, 
{"plz": "72531", "ort": "Hohenstein", "name": "Hohenstein", "street": "Im Dorf 14"}, 
{"plz": "72532", "ort": "Gomadingen", "name": "Gomadingen", "street": "Marktplatz 2"}, 
{"plz": "72534", "ort": "Hayingen", "name": "Hayingen, Stadt", "street": "Marktstraße 1"}, 
{"plz": "72535", "ort": "Heroldstatt", "name": "Heroldstatt", "street": "Am Berg 1"}, 
{"plz": "72537", "ort": "Mehrstetten", "name": "Mehrstetten", "street": "Marktplatz 1"}, 
{"plz": "72539", "ort": "Pfronstetten", "name": "Pfronstetten", "street": "Hauptstraße 25"}, 
{"plz": "72555", "ort": "Metzingen", "name": "Metzingen, Stadt", "street": "Stuttgarter Straße 2-4"}, 
{"plz": "72574", "ort": "Bad Urach", "name": "Bad Urach, Stadt", "street": "Marktplatz 8-9"}, 
{"plz": "72581", "ort": "Dettingen an der Erms", "name": "Dettingen an der Erms", "street": "Rathausplatz 1"}, 
{"plz": "72582", "ort": "Grabenstetten", "name": "Grabenstetten", "street": "Böhringer Straße 10"}, 
{"plz": "72584", "ort": "Hülben", "name": "Hülben", "street": "Hauptstraße 1"}, 
{"plz": "72585", "ort": "Riederich", "name": "Riederich", "street": "Mittelstädter Straße 17"}, 
{"plz": "72587", "ort": "Römerstein", "name": "Römerstein", "street": "Albstraße 2"}, 
{"plz": "72589", "ort": "Westerheim", "name": "Westerheim", "street": "Kirchenplatz 16"}, 
{"plz": "72622", "ort": "Nürtingen", "name": "Nürtingen, Stadt", "street": "Marktstraße 7"}, 
{"plz": "72631", "ort": "Aichtal", "name": "Aichtal, Stadt", "street": "Waldenbucher Straße 30"}, 
{"plz": "72636", "ort": "Frickenhausen", "name": "Frickenhausen", "street": "Mittlere Straße 18"}, 
{"plz": "72639", "ort": "Neuffen", "name": "Neuffen, Stadt", "street": "Hauptstraße 19"}, 
{"plz": "72644", "ort": "Oberboihingen", "name": "Oberboihingen", "street": "Rathausgasse 3"}, 
{"plz": "72649", "ort": "Wolfschlugen", "name": "Wolfschlugen", "street": "Kirchstraße 19"}, 
{"plz": "72654", "ort": "Neckartenzlingen", "name": "Neckartailfingen", "street": "Planstraße 2"}, 
{"plz": "72655", "ort": "Altdorf", "name": "Altdorf", "street": "Spitalhof 1"}, 
{"plz": "72657", "ort": "Altenriet", "name": "Altenriet", "street": "Brunnenstraße 5"}, 
{"plz": "72658", "ort": "Bempflingen", "name": "Bempflingen", "street": "Metzinger Straße 3"}, 
{"plz": "72660", "ort": "Beuren", "name": "Beuren", "street": "Linsenhofer Straße 2"}, 
{"plz": "72661", "ort": "Grafenberg", "name": "Grafenberg", "street": "Bergstraße 30"}, 
{"plz": "72663", "ort": "Großbettlingen", "name": "Großbettlingen", "street": "Schweizerhof 2"}, 
{"plz": "72664", "ort": "Kohlberg", "name": "Kohlberg", "street": "Metzinger Straße 1"}, 
{"plz": "72666", "ort": "Neckartailfingen", "name": "Neckartailfingen", "street": "Nürtinger Straße 4"}, 
{"plz": "72667", "ort": "Schlaitdorf", "name": "Schlaitdorf", "street": "Hauptstraße 32"}, 
{"plz": "72669", "ort": "Unterensingen", "name": "Unterensingen", "street": "Kirchstraße 31"}, 
{"plz": "72764", "ort": "Reutlingen", "name": "Reutlingen, Stadt", "street": "Marktplatz 22"}, 
{"plz": "72764", "ort": "Reutlingen", "name": "Reutlingen Außenstelle Orschel-Hagen", "street": "Dresdner Platz 4", "phone": "07121-966-086", "email": "buergeramt.buehner@reutlingen.de"}, 
{"plz": "72764", "ort": "Reutlingen", "name": "Reutlingen", "street": "Marktplatz 22\nim Erdgeschoss des Reutlinger Rathauses", "phone": "07121-303-5577", "email": "buergeramt@reutlingen.de"}, 
{"plz": "72766", "ort": "Reutlingen", "name": "Reutlingen Bezirksamt Mittelstadt", "street": "Neckartenzlinger Str. 26", "phone": "07127-972-313", "email": "bza.mittelstadt@reutlingen.de"}, 
{"plz": "72766", "ort": "Reutlingen", "name": "Reutlingen Bezirksamt Reicheneck", "street": "Alte Dorfstr. 25", "phone": "07121-493-151", "email": "bza.reicheneck@reutlingen.de"}, 
{"plz": "72766", "ort": "Reutlingen", "name": "Reutlingen Bezirksamt Sondelfingen", "street": "Reichenecker Str. 73", "phone": "07121-491-224", "email": "bza.sondelfingen@reutlingen.de"}, 
{"plz": "72768", "ort": "Reutlingen", "name": "Reutlingen Bezirksamt Rommelsbach", "street": "Bei der Kirche 10", "phone": "07121-303-5801", "email": "bza.rommelsbach@reutlingen.de"}, 
{"plz": "72768", "ort": "Reutlingen", "name": "Reutlingen Bezirksamt Oferdingen", "street": "Mittelstädter Str. 12", "phone": "07121-620-481", "email": "bza.oferdingen@reutlingen.de"}, 
{"plz": "72768", "ort": "Reutlingen", "name": "Reutlingen Bezirksamt Altenburg", "street": "Bei der Schule 4", "phone": "07121-670-353", "email": "bza.altenburg@reutlingen.de"}, 
{"plz": "72768", "ort": "Reutlingen", "name": "Reutlingen Bezirksamt Sickenhausen", "street": "Eichgartenstr. 8", "phone": "07121-670-359", "email": "bza.sickenhausen@reutlingen.de"}, 
{"plz": "72768", "ort": "Reutlingen", "name": "Reutlingen Bezirksamt Degerschlacht", "street": "Martin-Knapp-Str. 1", "phone": "07121-600-101", "email": "bza.degerschlacht@reutlingen.de"}, 
{"plz": "72770", "ort": "Reutlingen", "name": "Reutlingen Bezirksamt Bronnweiler", "street": "Im Wiesaztal 18", "phone": "07072-920-063", "email": "bza.bronnweiler@reutlingen.de"}, 
{"plz": "72770", "ort": "Reutlingen", "name": "Reutlingen Bezirksamt Betzingen", "street": "Wannweiler Str. 1", "phone": "07121-303-2156", "email": "bza.betzingen@reutlingen.de"}, 
{"plz": "72770", "ort": "Reutlingen", "name": "Reutlingen Bezirksamt Gönningen", "street": "Stöfflerplatz 2", "phone": "07072-7026", "email": "bza.goenningen@reutlingen.de"}, 
{"plz": "72770", "ort": "Reutlingen", "name": "Reutlingen Bezirksamt Ohmenhausen", "street": "Auf der Lind 12", "phone": "07121-54-355", "email": "bza.ohmenhausen@reutlingen.de"}, 
{"plz": "72793", "ort": "Pfullingen", "name": "Pfullingen, Stadt", "street": "Marktplatz 5"}, 
{"plz": "72800", "ort": "Eningen unter Achalm", "name": "Eningen unter Achalm", "street": "Rathausplatz 1"}, 
{"plz": "72805", "ort": "Lichtenstein", "name": "Lichtenstein", "street": "Rathausplatz 17"}, 
{"plz": "72810", "ort": "Gomaringen", "name": "Gomaringen", "street": "Rathausstraße 4"}, 
{"plz": "72813", "ort": "St. Johann", "name": "St. Johann", "street": "Schulstraße 1"}, 
{"plz": "72818", "ort": "Trochtelfingen", "name": "Trochtelfingen, Stadt", "street": "Rathausplatz 9"}, 
{"plz": "72820", "ort": "Sonnenbühl", "name": "Sonnenbühl", "street": "Hauptstraße 2"}, 
{"plz": "72827", "ort": "Wannweil", "name": "Wannweil", "street": "Hauptstraße 11"}, 
{"plz": "72829", "ort": "Engstingen", "name": "Engstingen", "street": "Kirchstraße 6"}]