[{"plz": "75015", "ort": "Bretten", "name": "Bretten, Stadt", "street": "Untere Kirchgasse 9"}, 
{"plz": "75031", "ort": "Eppingen", "name": "Eppingen, Stadt", "street": "Marktplatz 1"}, 
{"plz": "75031", "ort": "Eppingen", "name": "Eppingen, Stadt", "street": "Rathausstraße 14"}, 
{"plz": "75038", "ort": "Oberderdingen", "name": "Oberderdingen", "street": "Amthof 13"}, 
{"plz": "75045", "ort": "Walzbachtal", "name": "Walzbachtal", "street": "Wössinger Straße 26-28"}, 
{"plz": "75050", "ort": "Gemmingen", "name": "Gemmingen", "street": "Hausener Straße 1"}, 
{"plz": "75053", "ort": "Gondelsheim", "name": "Gondelsheim", "street": "Bruchsaler Straße 32"}, 
{"plz": "75056", "ort": "Sulzfeld", "name": "Zaisenhausen", "street": "Rathausplatz 1"}, 
{"plz": "75057", "ort": "Kürnbach", "name": "Kürnbach", "street": "Marktplatz 12"}, 
{"plz": "75059", "ort": "Zaisenhausen", "name": "Zaisenhausen", "street": "Hauptstraße 97"}, 
{"plz": "75175", "ort": "Pforzheim", "name": "Pforzheim, Stadt", "street": "Marktplatz 1"}, 
{"plz": "75175", "ort": "Pforzheim", "name": "Pforzheim", "street": "Östliche Karl-Friedrich-Str. 2-4\nAltes Rathaus", "phone": "07231-39-1111", "email": "buergercentrum@pforzheim.de"}, 
{"plz": "75180", "ort": "Pforzheim", "name": "Pforzheim Ortsverwaltung Büchenbronn", "street": "Pforzheimer Str. 1\nRathaus Büchenbronn", "phone": "07231-39-0", "email": "ov-buechenbronn@pforzheim.de"}, 
{"plz": "75181", "ort": "Pforzheim", "name": "Pforzheim Ortsverwaltung Hohenwart", "street": "Kastanienallee 5\nRathaus Hohenwart", "phone": "07231-39-0", "email": "ov-hohenwart@pforzheim.de"}, 
{"plz": "75181", "ort": "Pforzheim", "name": "Pforzheim Ortsverwaltung Eutingen", "street": "Hauptstr. 93\nRathaus Eutingen", "phone": "07231-39-0", "email": "ov-eutingen@pforzheim.de"}, 
{"plz": "75181", "ort": "Pforzheim", "name": "Pforzheim Ortsverwaltung Würm", "street": "Schulstr. 8\nRathaus Würm", "phone": "07231-39-0", "email": "ov-wuerm@pforzheim.de"}, 
{"plz": "75181", "ort": "Pforzheim", "name": "Pforzheim Ortsverwaltung Huchenfeld", "street": "Huchenfelder Hauptstr. 129\nRathaus Huchenfeld", "phone": "07231-39-0", "email": "ov-huchenfeld@pforzheim.de"}, 
{"plz": "75196", "ort": "Remchingen", "name": "Remchingen", "street": "San-Biagio-Platani-Platz 8"}, 
{"plz": "75203", "ort": "Königsbach-Stein", "name": "Königsbach-Stein", "street": "Marktplatz 6"}, 
{"plz": "75203", "ort": "Königsbach-Stein", "name": "Königsbach-Stein", "street": "Marktstraße 15"}, 
{"plz": "75210", "ort": "Keltern", "name": "Keltern", "street": "Weinbergstraße 9"}, 
{"plz": "75217", "ort": "Birkenfeld", "name": "Birkenfeld", "street": "Marktplatz 6"}, 
{"plz": "75223", "ort": "Niefern-Öschelbronn", "name": "Niefern-Öschelbronn", "street": "Friedenstraße 11"}, 
{"plz": "75228", "ort": "Ispringen", "name": "Ispringen", "street": "Gartenstraße 12"}, 
{"plz": "75233", "ort": "Tiefenbronn", "name": "Tiefenbronn", "street": "Gemmingenstraße 1"}, 
{"plz": "75236", "ort": "Kämpfelbach", "name": "Kämpfelbach", "street": "Kelterstraße 1"}, 
{"plz": "75239", "ort": "Eisingen", "name": "Eisingen", "street": "Talstraße 1"}, 
{"plz": "75242", "ort": "Neuhausen", "name": "Neuhausen", "street": "Pforzheimer Straße 20"}, 
{"plz": "75245", "ort": "Neulingen", "name": "Ölbronn-Dürrn", "street": "Schlossstraße 2"}, 
{"plz": "75248", "ort": "Ölbronn-Dürrn", "name": "Ölbronn-Dürrn", "street": "Hauptstraße 53"}, 
{"plz": "75249", "ort": "Kieselbronn", "name": "Kieselbronn", "street": "Hauptstraße 20"}, 
{"plz": "75305", "ort": "Neuenbürg", "name": "Neuenbürg, Stadt", "street": "Rathausstraße 2"}, 
{"plz": "75323", "ort": "Bad Wildbad", "name": "Bad Wildbad, Stadt", "street": "Kernerstraße 11"}, 
{"plz": "75328", "ort": "Schömberg", "name": "Schömberg", "street": "Lindenstraße 7"}, 
{"plz": "75331", "ort": "Engelsbrand", "name": "Engelsbrand", "street": "Eichbergstraße 1"}, 
{"plz": "75334", "ort": "Straubenhardt", "name": "Straubenhardt", "street": "Ittersbacher Straße 1"}, 
{"plz": "75335", "ort": "Dobel", "name": "Dobel", "street": "Neusatzer Straße 2"}, 
{"plz": "75337", "ort": "Enzklösterle", "name": "Enzklösterle", "street": "Friedensstraße 16"}, 
{"plz": "75339", "ort": "Höfen an der Enz", "name": "Höfen an der Enz", "street": "Wildbader Straße 1"}, 
{"plz": "75365", "ort": "Calw", "name": "Oberreichenbach", "street": "Marktplatz 9"}, 
{"plz": "75378", "ort": "Bad Liebenzell", "name": "Bad Liebenzell, Stadt", "street": "Kurhausdamm 2-4"}, 
{"plz": "75382", "ort": "Althengstett", "name": "Althengstett", "street": "Postfach 1141"}, 
{"plz": "75382", "ort": "Althengstett", "name": "Althengstett", "street": "Simmozheimer Straße 16"}, 
{"plz": "75385", "ort": "Bad Teinach-Zavelstein", "name": "Bad Teinach-Zavelstein, Stadt", "street": "Rathaus"}, 
{"plz": "75385", "ort": "Bad Teinach-Zavelstein", "name": "Bad Teinach-Zavelstein, Stadt", "street": "Rathausstraße 9"}, 
{"plz": "75387", "ort": "Neubulach", "name": "Neubulach, Stadt", "street": "Marktplatz 3"}, 
{"plz": "75389", "ort": "Neuweiler", "name": "Neuweiler", "street": "Marktstraße 7"}, 
{"plz": "75391", "ort": "Gechingen", "name": "Gechingen", "street": "Calwer Straße 14"}, 
{"plz": "75392", "ort": "Deckenpfronn", "name": "Deckenpfronn", "street": "Marktplatz 1"}, 
{"plz": "75394", "ort": "Oberreichenbach", "name": "Oberreichenbach", "street": "Schulstraße 3"}, 
{"plz": "75395", "ort": "Ostelsheim", "name": "Ostelsheim", "street": "Hauptstraße 8"}, 
{"plz": "75397", "ort": "Simmozheim", "name": "Simmozheim", "street": "Hauptstraße 8"}, 
{"plz": "75399", "ort": "Unterreichenbach", "name": "Unterreichenbach", "street": "Im Oberdorf 15"}, 
{"plz": "75417", "ort": "Mühlacker", "name": "Mühlacker, Stadt", "street": "Kelterplatz 7"}, 
{"plz": "75428", "ort": "Illingen", "name": "Illingen", "street": "Ortszentrum 8"}, 
{"plz": "75433", "ort": "Maulbronn", "name": "Maulbronn, Stadt", "street": "Klosterhof 31"}, 
{"plz": "75438", "ort": "Knittlingen", "name": "Knittlingen, Stadt", "street": "Marktstraße 19"}, 
{"plz": "75443", "ort": "Ötisheim", "name": "Ötisheim", "street": "Schönenberger Straße 2"}, 
{"plz": "75446", "ort": "Wiernsheim", "name": "Wiernsheim", "street": "Marktplatz 1"}, 
{"plz": "75447", "ort": "Sternenfels", "name": "Sternenfels", "street": "Maulbronner Straße 7"}, 
{"plz": "75449", "ort": "Wurmberg", "name": "Wurmberg", "street": "Uhlandstraße 15"}]