[{"plz": "71032", "ort": "Böblingen", "name": "Böblingen, Stadt", "street": "Marktplatz 16"}, 
{"plz": "71063", "ort": "Sindelfingen", "name": "Sindelfingen Servicepunkt", "street": "Rathausplatz 1", "phone": "07031-94-0", "email": "servicepunkt@sindelfingen.de"}, 
{"plz": "71069", "ort": "Sindelfingen", "name": "Sindelfingen Bezirksamt Darmsheim", "street": "Widdumstr. 12", "phone": "07031-94-871", "email": "darmsheim@sindelfingen.de"}, 
{"plz": "71069", "ort": "Sindelfingen", "name": "Sindelfingen Bezirksamt Maichingen", "street": "Sindelfinger Str. 44", "phone": "07031-94-110", "email": "maichingen@sindelfingen.de"}, 
{"plz": "71083", "ort": "Herrenberg", "name": "Herrenberg, Stadt", "street": "Marktplatz 5"}, 
{"plz": "71088", "ort": "Holzgerlingen", "name": "Holzgerlingen, Stadt", "street": "Böblinger Straße 5-7"}, 
{"plz": "71093", "ort": "Weil im Schönbuch", "name": "Weil im Schönbuch", "street": "Marktplatz 3"}, 
{"plz": "71101", "ort": "Schönaich", "name": "Schönaich", "street": "Bühlstraße 10"}, 
{"plz": "71106", "ort": "Magstadt", "name": "Magstadt", "street": "Marktplatz 1"}, 
{"plz": "71111", "ort": "Waldenbuch", "name": "Waldenbuch, Stadt", "street": "Marktplatz 1 + 5"}, 
{"plz": "71111", "ort": "Waldenbuch", "name": "Waldenbuch, Stadt", "street": "Grabenstraße 9"}, 
{"plz": "71116", "ort": "Gärtringen", "name": "Gärtringen", "street": "Hauptstraße 16-18"}, 
{"plz": "71116", "ort": "Gärtringen", "name": "Gärtringen", "street": "Rohrweg 2"}, 
{"plz": "71120", "ort": "Grafenau", "name": "Grafenau", "street": "Hofstetten 12"}, 
{"plz": "71126", "ort": "Gäufelden", "name": "Gäufelden", "street": "Rathausplatz 1"}, 
{"plz": "71126", "ort": "Gäufelden", "name": "Mötzingen", "street": "Postfach 20"}, 
{"plz": "71131", "ort": "Jettingen", "name": "Jettingen", "street": "Albstraße 2"}, 
{"plz": "71134", "ort": "Aidlingen", "name": "Aidlingen", "street": "Hauptstraße 6"}, 
{"plz": "71139", "ort": "Ehningen", "name": "Ehningen", "street": "Königstraße 29"}, 
{"plz": "71144", "ort": "Steinenbronn", "name": "Steinenbronn", "street": "Stuttgarter Straße 5"}, 
{"plz": "71149", "ort": "Bondorf", "name": "Bondorf", "street": "Hindenburgstraße 33"}, 
{"plz": "71154", "ort": "Nufringen", "name": "Nufringen", "street": "Hauptstraße 28"}, 
{"plz": "71155", "ort": "Altdorf", "name": "Altdorf", "street": "Kirchplatz 5"}, 
{"plz": "71157", "ort": "Hildrizhausen", "name": "Hildrizhausen", "street": "Herrenberger Straße 13"}, 
{"plz": "71159", "ort": "Mötzingen", "name": "Mötzingen", "street": "Schlossgartenstraße 1"}, 
{"plz": "71229", "ort": "Leonberg", "name": "Leonberg, Stadt", "street": "Belforter Platz 1"}, 
{"plz": "71254", "ort": "Ditzingen", "name": "Ditzingen, Stadt", "street": "Am Laien 1"}, 
{"plz": "71263", "ort": "Weil der Stadt", "name": "Weil der Stadt, Stadt", "street": "Marktplatz 4"}, 
{"plz": "71272", "ort": "Renningen", "name": "Renningen, Stadt", "street": "Hauptstraße 1"}, 
{"plz": "71277", "ort": "Rutesheim", "name": "Rutesheim, Stadt", "street": "Leonberger Straße 15"}, 
{"plz": "71282", "ort": "Hemmingen", "name": "Hemmingen", "street": "Münchinger Straße 5"}, 
{"plz": "71287", "ort": "Weissach", "name": "Weissach", "street": "Rathausplatz 1"}, 
{"plz": "71292", "ort": "Friolzheim", "name": "Friolzheim", "street": "Rathausstraße 7"}, 
{"plz": "71296", "ort": "Heimsheim", "name": "Heimsheim, Stadt", "street": "Schlosshof 5"}, 
{"plz": "71297", "ort": "Mönsheim", "name": "Heimsheim, Stadt", "street": "Schulstraße 2"}, 
{"plz": "71299", "ort": "Wimsheim", "name": "Wimsheim", "street": "Rathausstraße 1"}, 
{"plz": "71332", "ort": "Waiblingen", "name": "Waiblingen, Stadt", "street": "Kurze Straße 33"}, 
{"plz": "71364", "ort": "Winnenden", "name": "Winnenden, Stadt", "street": "Wiesenstraße 10"}, 
{"plz": "71364", "ort": "Winnenden", "name": "Winnenden, Stadt", "street": "Torstraße 10"}, 
{"plz": "71384", "ort": "Weinstadt", "name": "Weinstadt, Stadt", "street": "Marktplatz 1"}, 
{"plz": "71394", "ort": "Kernen im Remstal", "name": "Kernen im Remstal", "street": "Stettener Straße 12"}, 
{"plz": "71397", "ort": "Leutenbach", "name": "Leutenbach", "street": "Rathausplatz 1"}, 
{"plz": "71404", "ort": "Korb", "name": "Korb", "street": "J.-F.-Weishaar-Straße 7-9"}, 
{"plz": "71409", "ort": "Schwaikheim", "name": "Schwaikheim", "street": "Marktplatz 2-4"}, 
{"plz": "71522", "ort": "Backnang", "name": "Kirchberg an der Murr", "street": "Am Rathaus 1"}, 
{"plz": "71540", "ort": "Murrhardt", "name": "Murrhardt, Stadt", "street": "Marktplatz 10"}, 
{"plz": "71543", "ort": "Wüstenrot", "name": "Wüstenrot", "street": "Eichwaldstraße 19"}, 
{"plz": "71546", "ort": "Aspach", "name": "Aspach", "street": "Backnanger Straße 9"}, 
{"plz": "71549", "ort": "Auenwald", "name": "Auenwald", "street": "Lippoldsweilerstraße 15"}, 
{"plz": "71554", "ort": "Weissach im Tal", "name": "Weissach im Tal", "street": "Kirchberg 2-4"}, 
{"plz": "71560", "ort": "Sulzbach an der Murr", "name": "Sulzbach an der Murr", "street": "Bahnhofstraße 3"}, 
{"plz": "71563", "ort": "Affalterbach", "name": "Affalterbach", "street": "Marbacher Straße 17"}, 
{"plz": "71566", "ort": "Althütte", "name": "Althütte", "street": "Rathausplatz 1"}, 
{"plz": "71570", "ort": "Oppenweiler", "name": "Oppenweiler", "street": "Schloßstraße 12"}, 
{"plz": "71573", "ort": "Allmersbach im Tal", "name": "Allmersbach im Tal", "street": "Backnanger Straße 42"}, 
{"plz": "71576", "ort": "Burgstetten", "name": "Burgstetten", "street": "Rathausstraße 18"}, 
{"plz": "71577", "ort": "Großerlach", "name": "Großerlach", "street": "Stuttgarter Straße 18"}, 
{"plz": "71579", "ort": "Spiegelberg", "name": "Spiegelberg", "street": "Sulzbacher Straße 7"}, 
{"plz": "71638", "ort": "Ludwigsburg", "name": "Ludwigsburg, Stadt", "street": "Wilhelmstraße 11"}, 
{"plz": "71638", "ort": "Ludwigsburg", "name": "Ludwigsburg", "street": "Wilhelmstr. 9", "phone": "07141-910-3015", "email": "buergerbuero@ludwigsburg.de"}, 
{"plz": "71638", "ort": "Ludwigsburg", "name": "Ludwigsburg Bauen", "street": "Wilhelmstr. 5", "phone": "07141-9102-255", "email": "buergerbuerobauen@ludwigsburg.de"}, 
{"plz": "71642", "ort": "Ludwigsburg", "name": "Ludwigsburg Poppenweiler", "street": "Kelterplatz 10", "phone": "07141-9103-650", "email": "buergerbuero.pw@ludwigsburg.de"}, 
{"plz": "71642", "ort": "Ludwigsburg", "name": "Ludwigsburg Neckarweihingen", "street": "Neue Str. 23", "phone": "07141-9102-551", "email": "buergerbuero.nw@ludwigsburg.de"}, 
{"plz": "71665", "ort": "Vaihingen an der Enz", "name": "Vaihingen an der Enz, Stadt", "street": "Marktplatz 1"}, 
{"plz": "71672", "ort": "Marbach am Neckar", "name": "Marbach am Neckar, Stadt", "street": "Marktstraße 23"}, 
{"plz": "71679", "ort": "Asperg", "name": "Asperg, Stadt", "street": "Marktplatz 1"}, 
{"plz": "71686", "ort": "Remseck am Neckar", "name": "Remseck am Neckar, Stadt", "street": "Fellbacher Straße 2"}, 
{"plz": "71691", "ort": "Freiberg am Neckar", "name": "Freiberg am Neckar, Stadt", "street": "Marktplatz 2"}, 
{"plz": "71696", "ort": "Möglingen", "name": "Möglingen", "street": "Rathausplatz 3"}, 
{"plz": "71701", "ort": "Schwieberdingen", "name": "Schwieberdingen", "street": "Schloßhof 1"}, 
{"plz": "71701", "ort": "Schwieberdingen", "name": "Schwieberdingen", "street": "Postfach 30"}, 
{"plz": "71706", "ort": "Markgröningen", "name": "Markgröningen, Stadt", "street": "Marktplatz 1"}, 
{"plz": "71711", "ort": "Murr", "name": "Murr", "street": "Hindenburgstraße 60"}, 
{"plz": "71711", "ort": "Steinheim an der Murr", "name": "Steinheim an der Murr, Stadt", "street": "Marktstraße 29"}, 
{"plz": "71717", "ort": "Beilstein", "name": "Beilstein, Stadt", "street": "Hauptstraße 19"}, 
{"plz": "71720", "ort": "Oberstenfeld", "name": "Oberstenfeld", "street": "Großbottwarer Straße 20"}, 
{"plz": "71723", "ort": "Großbottwar", "name": "Großbottwar, Stadt", "street": "Marktplatz 1"}, 
{"plz": "71726", "ort": "Benningen am Neckar", "name": "Benningen am Neckar", "street": "Studionstraße 10"}, 
{"plz": "71729", "ort": "Erdmannhausen", "name": "Erdmannhausen", "street": "Pflasterstraße 15"}, 
{"plz": "71732", "ort": "Tamm", "name": "Tamm", "street": "Hauptstraße 100"}, 
{"plz": "71735", "ort": "Eberdingen", "name": "Eberdingen", "street": "Stuttgarter Straße 34"}, 
{"plz": "71737", "ort": "Kirchberg an der Murr", "name": "Kirchberg an der Murr", "street": "Kirchplatz 2"}, 
{"plz": "71739", "ort": "Oberriexingen", "name": "Oberriexingen, Stadt", "street": "Hauptstraße 14"}]