[{"plz": "76124", "ort": "Karlsruhe", "name": "Karlsruhe Ost", "street": "Beuthener Str. 42", "email": "buergerdienste@oa.karlsruhe.de"}, 
{"plz": "76124", "ort": "Karlsruhe", "name": "Karlsruhe K8", "street": "Kaiserallee 8", "email": "buergerdienste@oa.karlsruhe.de"}, 
{"plz": "76124", "ort": "Karlsruhe", "name": "Karlsruhe Mitte", "street": "Karl-Friedrich-Str. 10\nRathaus am Marktplatz", "email": "buergerdienste@oa.karlsruhe.de"}, 
{"plz": "76124", "ort": "Karlsruhe", "name": "Karlsruhe H9-11", "street": "Helmholtzstr. 9-11", "email": "buergerdienste@oa.karlsruhe.de"}, 
{"plz": "76133", "ort": "Karlsruhe", "name": "Karlsruhe, Stadt", "street": "Karl-Friedrich-Straße 10"}, 
{"plz": "76149", "ort": "Karlsruhe", "name": "Karlsruhe Ortsverwaltung Neureut", "street": "Neureuter Hauptstr. 256-258", "phone": "0721-7805-0", "email": "neureut@karlsruhe.de"}, 
{"plz": "76227", "ort": "Karlsruhe", "name": "Karlsruhe Durlach", "street": "Pfinztalstr. 33", "phone": "0721-133-1920", "email": "durlach@karlsruhe.de"}, 
{"plz": "76228", "ort": "Karlsruhe", "name": "Karlsruhe Ortsverwaltung Stupferich", "street": "Kleinsteinbacher Str. 16\nZimmer 6", "phone": "0721-94761-0", "email": "stupferich@karlsruhe.de"}, 
{"plz": "76228", "ort": "Karlsruhe", "name": "Karlsruhe Ortsverwaltung Wolfartsweier", "street": "Rathausstr.2", "phone": "0721-94376-0", "email": "wolfartsweier@karlsruhe.de"}, 
{"plz": "76228", "ort": "Karlsruhe", "name": "Karlsruhe Hohenwettersbach", "street": "Kirchplatz 4", "phone": "0721-46449-0", "email": "hohenwet@karlsruhe.de"}, 
{"plz": "76228", "ort": "Karlsruhe", "name": "Karlsruhe Ortsverwaltung Wettersbach", "street": "Am Wetterbach 40", "phone": "0721-94550-0", "email": "wettersbach@karlsruhe.de"}, 
{"plz": "76229", "ort": "Karlsruhe", "name": "Karlsruhe Grötzingen", "street": "Rathausplatz 1\nRathaus 2", "phone": "0721-94851-0", "email": "groetzingen@karlsruhe.de"}, 
{"plz": "76275", "ort": "Ettlingen", "name": "Ettlingen, Stadt", "street": "Marktplatz 2"}, 
{"plz": "76287", "ort": "Rheinstetten", "name": "Rheinstetten, Stadt", "street": "Rappenwörthstraße 49"}, 
{"plz": "76297", "ort": "Stutensee", "name": "Stutensee, Stadt", "street": "Rathausstraße 3"}, 
{"plz": "76307", "ort": "Karlsbad", "name": "Karlsbad", "street": "Hirtenstraße 14"}, 
{"plz": "76316", "ort": "Malsch", "name": "Malsch", "street": "Hauptstraße 71"}, 
{"plz": "76327", "ort": "Pfinztal", "name": "Pfinztal", "street": "Hauptstraße 70"}, 
{"plz": "76332", "ort": "Bad Herrenalb", "name": "Bad Herrenalb, Stadt", "street": "Rathausplatz 11"}, 
{"plz": "76337", "ort": "Waldbronn", "name": "Waldbronn", "street": "Marktplatz 7"}, 
{"plz": "76344", "ort": "Eggenstein-Leopoldshafen", "name": "Eggenstein-Leopoldshafen", "street": "Friedrichstraße 32"}, 
{"plz": "76351", "ort": "Linkenheim-Hochstetten", "name": "Linkenheim-Hochstetten", "street": "Karlsruher Straße 41"}, 
{"plz": "76356", "ort": "Weingarten (Baden)", "name": "Weingarten (Baden)", "street": "Marktplatz 2"}, 
{"plz": "76359", "ort": "Marxzell", "name": "Marxzell", "street": "Karlsruher Straße 2"}, 
{"plz": "76437", "ort": "Rastatt", "name": "Rastatt, Stadt", "street": "Kaiserstraße 91"}, 
{"plz": "76437", "ort": "Rastatt", "name": "Rastatt, Stadt", "street": "Marktplatz 1"}, 
{"plz": "76448", "ort": "Durmersheim", "name": "Elchesheim-Illingen", "street": "Rathausplatz 1"}, 
{"plz": "76456", "ort": "Kuppenheim", "name": "Kuppenheim, Stadt", "street": "Friedensplatz"}, 
{"plz": "76456", "ort": "Kuppenheim", "name": "Kuppenheim, Stadt", "street": "Schlossstraße 6"}, 
{"plz": "76461", "ort": "Muggensturm", "name": "Muggensturm", "street": "Hauptstraße 33-35"}, 
{"plz": "76467", "ort": "Bietigheim", "name": "Bietigheim", "street": "Malscher Straße 22"}, 
{"plz": "76470", "ort": "Ötigheim", "name": "Ötigheim", "street": "Schulstraße 3"}, 
{"plz": "76473", "ort": "Iffezheim", "name": "Iffezheim", "street": "Hauptstraße 54"}, 
{"plz": "76474", "ort": "Au am Rhein", "name": "Au am Rhein", "street": "Hauptstraße 5"}, 
{"plz": "76476", "ort": "Bischweier", "name": "Bischweier", "street": "Bahnhofstraße 17"}, 
{"plz": "76477", "ort": "Elchesheim-Illingen", "name": "Elchesheim-Illingen", "street": "Rathausplatz 8"}, 
{"plz": "76479", "ort": "Steinmauern", "name": "Steinmauern", "street": "Hauptstraße 82"}, 
{"plz": "76530", "ort": "Baden-Baden", "name": "Baden-Baden, Stadt", "street": "Marktplatz 2"}, 
{"plz": "76547", "ort": "Sinzheim", "name": "Hügelsheim", "street": "Hauptstraße 71"}, 
{"plz": "76547", "ort": "Sinzheim", "name": "Sinzheim", "street": "Marktplatz 1"}, 
{"plz": "76549", "ort": "Hügelsheim", "name": "Hügelsheim", "street": "Hauptstraße 34"}, 
{"plz": "76571", "ort": "Gaggenau", "name": "Gaggenau, Stadt", "street": "Hauptstraße 71"}, 
{"plz": "76593", "ort": "Gernsbach", "name": "Gernsbach, Stadt", "street": "Igelbachstraße 11"}, 
{"plz": "76596", "ort": "Forbach", "name": "Forbach", "street": "Landstraße 27"}, 
{"plz": "76597", "ort": "Loffenau", "name": "Loffenau", "street": "Untere Dorfstraße 1"}, 
{"plz": "76599", "ort": "Weisenbach", "name": "Weisenbach", "street": "Hauptstraße 3"}, 
{"plz": "76646", "ort": "Bruchsal", "name": "Karlsdorf-Neuthard", "street": "Kaiserstraße 66"}, 
{"plz": "76661", "ort": "Philippsburg", "name": "Oberhausen-Rheinhausen", "street": "Rote-Tor-Straße 6-10"}, 
{"plz": "76669", "ort": "Bad Schönborn", "name": "Bad Schönborn", "street": "Friedrichsstraße 67"}, 
{"plz": "76669", "ort": "Bad Schönborn", "name": "Bad Schönborn", "street": "Huttenstraße 11"}, 
{"plz": "76676", "ort": "Graben-Neudorf", "name": "Graben-Neudorf", "street": "Hauptstraße 39"}, 
{"plz": "76684", "ort": "Östringen", "name": "Östringen, Stadt", "street": "Am Kirchberg 19"}, 
{"plz": "76689", "ort": "Karlsdorf-Neuthard", "name": "Karlsdorf-Neuthard", "street": "Amalienstraße 1"}, 
{"plz": "76694", "ort": "Forst", "name": "Forst", "street": "Weiherer Straße 1"}, 
{"plz": "76698", "ort": "Ubstadt-Weiher", "name": "Ubstadt-Weiher", "street": "Bruchsaler Straße 1-3"}, 
{"plz": "76703", "ort": "Kraichtal", "name": "Kraichtal, Stadt", "street": "Rathausstraße 30"}, 
{"plz": "76706", "ort": "Dettenheim", "name": "Dettenheim", "street": "Bächlestraße 33"}, 
{"plz": "76707", "ort": "Hambrücken", "name": "Hambrücken", "street": "Hauptstraße 108"}, 
{"plz": "76709", "ort": "Kronau", "name": "Kronau", "street": "Kirrlacher Straße 2"}, 
{"plz": "76726", "ort": "Germersheim", "name": "Germersheim, Stadt", "street": "Kolpingplatz 3"}, 
{"plz": "76744", "ort": "Wörth am Rhein", "name": "Wörth am Rhein, Stadt", "street": "Mozartstraße 2"}, 
{"plz": "76751", "ort": "Jockgrim", "name": "Rheinzabern", "street": "Untere Buchstraße 22"}, 
{"plz": "76756", "ort": "Bellheim", "name": "Ottersheim bei Landau", "street": "Schubertstraße 18"}, 
{"plz": "76761", "ort": "Rülzheim", "name": "Leimersheim", "street": "Am Deutschordensplatz 1"}, 
{"plz": "76767", "ort": "Hagenbach", "name": "Hagenbach, Stadt", "street": "Ludwigstraße 20"}, 
{"plz": "76829", "ort": "Landau in der Pfalz", "name": "Ilbesheim bei Landau in der Pfalz", "street": "An 44 Nr.31"}, 
{"plz": "76829", "ort": "Landau in der Pfalz", "name": "Landau in der Pfalz, Stadt", "street": "Marktstraße 50"}, 
{"plz": "76846", "ort": "Hauenstein", "name": "Hinterweidenthal", "street": "Schulstraße 4"}, 
{"plz": "76855", "ort": "Annweiler am Trifels", "name": "Annweiler am Trifels, Stadt", "street": "Meßplatz 1"}, 
{"plz": "76863", "ort": "Herxheim bei Landau/Pfalz", "name": "Herxheim bei Landau/ Pfalz", "street": "Obere Hauptstraße 2"}, 
{"plz": "76870", "ort": "Kandel", "name": "Erlenbach bei Kandel", "street": "Gartenstraße 8"}, 
{"plz": "76877", "ort": "Offenbach an der Queich", "name": "Offenbach an der Queich", "street": "Konrad-Lerch-Ring 6"}, 
{"plz": "76887", "ort": "Bad Bergzabern", "name": "Gleiszellen-Gleishorbach", "street": "Königstraße 61"}]