[{"plz": "17033", "ort": "Neubrandenburg", "name": "Neubrandenburg, Vier-Tore-Stadt", "street": "Friedrich-Engels-Ring 53", "phone": "0395-555-1111", "email": "buergerservice@neubrandenburg.de"}, 
{"plz": "17039", "ort": "Neverin", "name": "Trollenhagen", "street": "Dorfstraße 36"}, 
{"plz": "17087", "ort": "Altentreptow", "name": "Altentreptow, Stadt", "street": "Rathausstraße 1"}, 
{"plz": "17094", "ort": "Burg Stargard", "name": "Burg Stargard, Stadt", "street": "Mühlenstrasse 30"}, 
{"plz": "17098", "ort": "Friedland", "name": "Friedland, Stadt", "street": "Riemannstraße 42"}, 
{"plz": "17109", "ort": "Demmin", "name": "Demmin, Hansestadt", "street": "Markt 1"}, 
{"plz": "17109", "ort": "Demmin", "name": "Hohenbollentin", "street": "Goethestraße 43"}, 
{"plz": "17121", "ort": "Loitz", "name": "Sassen-Trantow", "street": "Lange Straße 83"}, 
{"plz": "17126", "ort": "Jarmen", "name": "Jarmen, Stadt", "street": "Dr.-Georg-Kohnert-Straße 5"}, 
{"plz": "17139", "ort": "Malchin", "name": "Kummerow, Seegemeinde", "street": "Am Markt 1"}, 
{"plz": "17153", "ort": "Reuterstadt Stavenhagen", "name": "Stavenhagen, Reuterstadt, Stadt", "street": "Schloß 1"}, 
{"plz": "17159", "ort": "Dargun", "name": "Dargun, Stadt", "street": "Platz des Friedens 6"}, 
{"plz": "17166", "ort": "Bergringstadt Teterow", "name": "Groß Wüstenfelde", "street": "von Pentz-Allee 7"}, 
{"plz": "17166", "ort": "Teterow", "name": "Teterow, Bergringstadt", "street": "Marktplatz 1-3"}, 
{"plz": "17179", "ort": "Warbelstadt Gnoien", "name": "Gnoien, Warbelstadt", "street": "Teterower Straße 11a"}, 
{"plz": "17192", "ort": "Waren (Müritz)", "name": "Torgelow am See", "street": "Warendorfer Straße 4"}, 
{"plz": "17192", "ort": "Waren (Müritz)", "name": "Waren (Müritz), Stadt", "street": "Zum Amtsbrink 1"}, 
{"plz": "17207", "ort": "Röbel/Müritz", "name": "Röbel/Müritz, Stadt", "street": "Marktplatz 1"}, 
{"plz": "17213", "ort": "Inselstadt Malchow", "name": "Malchow, Inselstadt", "street": "Alter Markt 1"}, 
{"plz": "17217", "ort": "Penzlin", "name": "Ankershagen, Schliemanngemeinde", "street": "Warener Chaussee 55a"}, 
{"plz": "17235", "ort": "Residenzstadt Neustrelitz", "name": "Wokuhl-Dabelow", "street": "Marienstraße 5"}, 
{"plz": "17235", "ort": "Neustrelitz", "name": "Neustrelitz, Residenzstadt", "street": "Markt 1"}, 
{"plz": "17252", "ort": "Mirow", "name": "Wesenberg, Stadt", "street": "R.-Breitscheid-Straße 24"}, 
{"plz": "17258", "ort": "Feldberger Seenlandschaft, OT Feldberg", "name": "Feldberger Seenlandschaft", "street": "Prenzlauer Straße 2"}, 
{"plz": "17268", "ort": "Templin", "name": "Templin, Stadt", "street": "Prenzlauer Allee 7"}, 
{"plz": "17268", "ort": "Gerswalde", "name": "Temmen-Ringenwalde", "street": "Dorfmitte 14a"}, 
{"plz": "17268", "ort": "Boitzenburger Land", "name": "Boitzenburger Land", "street": "Templiner Straße 17"}, 
{"plz": "17279", "ort": "Lychen", "name": "Lychen, Stadt", "street": "Am Markt 1"}, 
{"plz": "17291", "ort": "Gramzow", "name": "Oberuckersee", "street": "Poststraße 25"}, 
{"plz": "17291", "ort": "Prenzlau", "name": "Prenzlau, Stadt", "street": "Am Steintor 4"}, 
{"plz": "17291", "ort": "Nordwestuckermark OT Schönermark", "name": "Nordwestuckermark", "street": "Amtsstraße 8"}, 
{"plz": "17309", "ort": "Pasewalk", "name": "Pasewalk, Stadt", "street": "Haußmannstraße 85"}, 
{"plz": "17321", "ort": "Löcknitz", "name": "Rothenklempenow", "street": "Chausseestraße 30"}, 
{"plz": "17326", "ort": "Brüssow", "name": "Carmzow-Wallmow", "street": "Prenzlauer Straße 8"}, 
{"plz": "17335", "ort": "Strasburg (Uckermark)", "name": "Strasburg (Uckermark), Stadt", "street": "Schulstraße 1"}, 
{"plz": "17337", "ort": "Uckerland", "name": "Uckerland", "street": "Hauptstraße 35"}, 
{"plz": "17348", "ort": "Windmühlenstadt Woldegk", "name": "Woldegk, Windmühlenstadt", "street": "Karl-Liebknecht-Platz 1"}, 
{"plz": "17358", "ort": "Torgelow", "name": "Hammer a.d. Uecker", "street": "Bahnhofstraße 2"}, 
{"plz": "17367", "ort": "Eggesin", "name": "Vogelsang-Warsin", "street": "Stettiner Straße 1"}, 
{"plz": "17373", "ort": "Ueckermünde", "name": "Ueckermünde, Seebad , Stadt", "street": "Am Rathaus 3"}, 
{"plz": "17389", "ort": "Anklam", "name": "Anklam, Hansestadt", "street": "Markt 3"}, 
{"plz": "17392", "ort": "Spantekow", "name": "Stolpe an der Peene", "street": "Rebelower Damm 2"}, 
{"plz": "17406", "ort": "Usedom", "name": "Koserow, Ostseebad", "street": "Markt 7"}, 
{"plz": "17424", "ort": "Heringsdorf", "name": "Heringsdorf, Ostseebad", "street": "Kurparkstraße 4"}, 
{"plz": "17438", "ort": "Wolgast", "name": "Wolgast, Stadt", "street": "Burgstraße 6"}, 
{"plz": "17454", "ort": "Ostseebad Zinnowitz", "name": "Trassenheide, Ostseebad", "street": "Möwenstraße 1"}, 
{"plz": "17489", "ort": "Greifswald", "name": "Greifswald", "street": "Markt 15\nHaus 1", "phone": "03834-8536-0", "email": "einwohnermeldeabteilung@greifswald.de"}, 
{"plz": "17489", "ort": "Greifswald", "name": "Greifswald, Universitäts- und Hansestadt", "street": "Markt"}, 
{"plz": "17495", "ort": "Züssow", "name": "Gützkow, Stadt", "street": "Dorfstraße 6"}, 
{"plz": "17498", "ort": "Neuenkirchen", "name": "Hinrichshagen", "street": "Theodor-Körner-Straße 36"}, 
{"plz": "17509", "ort": "Seebad Lubmin", "name": "Neu Boltenhagen", "street": "Geschwister-Scholl-Weg 15"}]