[{"plz": "18055", "ort": "Rostock", "name": "Rostock, Hanse- und Universitätsstadt", "street": "Neuer Markt 1"}, 
{"plz": "18055", "ort": "Rostock", "name": "Rostock Ortsamt Mitte in Stadtmitte", "street": "Neuer Markt 1a", "phone": "0381-381-2230", "email": "ortsamtmitte@rostock.de"}, 
{"plz": "18069", "ort": "Rostock", "name": "Rostock Ortsamt West in Reutershagen", "street": "Goerdelerstr. 53", "phone": "0381-381-2800-bis-2805", "email": "ortsamtwest@rostock.de"}, 
{"plz": "18107", "ort": "Rostock", "name": "Rostock Ortsamt Nordwest 2 in Lütten Klein", "street": "Warnowallee 30", "phone": "0381-381-3119", "email": "ortsamtnw2@rostock.de"}, 
{"plz": "18109", "ort": "Rostock", "name": "Rostock Ortsamt Nordwest 1 in Groß Klein", "street": "Albrecht-Tischbein-Str. 48", "phone": "0381-381-2248", "email": "ortsamtnw1@rostock.de"}, 
{"plz": "18147", "ort": "Rostock", "name": "Rostock Ortsamt Ost in Toitenwinkel", "street": "Jawaharlal-Nehru-Str. 33", "phone": "0381-381-5200", "email": "ortsamtost@rostock.de"}, 
{"plz": "18181", "ort": "Graal-Müritz", "name": "Graal-Müritz, Ostseeheilbad", "street": "Ribnitzer Straße 21"}, 
{"plz": "18182", "ort": "Gelbensande", "name": "Blankenhagen", "street": "Eichenallee 20"}, 
{"plz": "18184", "ort": "Broderstorf", "name": "Broderstorf", "street": "Moorweg 5"}, 
{"plz": "18190", "ort": "Sanitz", "name": "Sanitz", "street": "Rostocker Straße 19"}, 
{"plz": "18195", "ort": "Tessin", "name": "Tessin, Blumenstadt", "street": "Alter Markt 1"}, 
{"plz": "18196", "ort": "Dummerstorf", "name": "Dummerstorf", "street": "Griebnitzer Weg 2"}, 
{"plz": "18198", "ort": "Kritzmow", "name": "Elmenhorst/Lichtenhagen", "street": "Schulweg 1a"}, 
{"plz": "18209", "ort": "Bad Doberan", "name": "Admannshagen-Bargeshagen", "street": "Kammerhof 3"}, 
{"plz": "18209", "ort": "Bad Doberan", "name": "Bad Doberan, Stadt", "street": "Severinstraße 6"}, 
{"plz": "18225", "ort": "Kühlungsborn", "name": "Kühlungsborn, Ostseebad, Stadt", "street": "Ostseeallee 20"}, 
{"plz": "18233", "ort": "Neubukow", "name": "Rerik, Ostseebad, Stadt", "street": "Panzower Landweg 1"}, 
{"plz": "18233", "ort": "Neubukow", "name": "Neubukow, Schliemannstadt", "street": "Am Markt 1"}, 
{"plz": "18236", "ort": "Kröpelin", "name": "Kröpelin, Stadt", "street": "Am Markt 1"}, 
{"plz": "18239", "ort": "Satow", "name": "Satow", "street": "Heller Weg 2a"}, 
{"plz": "18246", "ort": "Bützow", "name": "Bützow, Stadt", "street": "Am Markt 1"}, 
{"plz": "18258", "ort": "Schwaan", "name": "Schwaan, Stadt", "street": "Pferdemarkt 2"}, 
{"plz": "18273", "ort": "Güstrow", "name": "Güstrow, Barlachstadt", "street": "Markt 1"}, 
{"plz": "18273", "ort": "Barlachstadt Güstrow", "name": "Groß Schwiesow", "street": "Haselstraße 4"}, 
{"plz": "18292", "ort": "Krakow am See", "name": "Krakow am See, Stadt", "street": "Markt 2"}, 
{"plz": "18299", "ort": "Laage", "name": "Dolgen am See", "street": "Am Markt 7"}, 
{"plz": "18311", "ort": "Bernsteinstadt Ribnitz-Damgarten", "name": "Ribnitz-Damgarten, Bernsteinstadt", "street": "Am Markt 1"}, 
{"plz": "18337", "ort": "Marlow", "name": "Marlow, Stadt", "street": "Am Markt 1"}, 
{"plz": "18356", "ort": "Barth", "name": "Divitz-Spoldershagen", "street": "Teergang 2"}, 
{"plz": "18374", "ort": "Zingst", "name": "Zingst, Ostseeheilbad", "street": "Hanshäger Straße 1"}, 
{"plz": "18375", "ort": "Born a. Darß", "name": "Ahrenshoop, Ostseebad", "street": "Chausseestraße 68a"}, 
{"plz": "18439", "ort": "Stralsund", "name": "Stralsund", "street": "Schillstr. 5-7", "phone": "03831-253-728", "email": "ordnungsamt@stralsund.de"}, 
{"plz": "18439", "ort": "Stralsund", "name": "Stralsund, Hansestadt", "street": "Alter Markt 2"}, 
{"plz": "18442", "ort": "Niepars", "name": "Groß Kordshagen", "street": "Gartenstraße 69b"}, 
{"plz": "18445", "ort": "Altenpleen", "name": "Groß Mohrdorf", "street": "Parkstraße 2"}, 
{"plz": "18461", "ort": "Franzburg", "name": "Millienhagen-Oebelitz", "street": "Ernst-Thälmann-Straße 71"}, 
{"plz": "18465", "ort": "Tribsees", "name": "Bad Sülze, Stadt", "street": "Karl-Marx-Straße 18"}, 
{"plz": "18507", "ort": "Grimmen", "name": "Grimmen, Stadt", "street": "Markt 1"}, 
{"plz": "18516", "ort": "Süderholz", "name": "Süderholz", "street": "Rakower Straße 1"}, 
{"plz": "18519", "ort": "Sundhagen, OT Miltzow", "name": "Wittenhagen", "street": "Bahnhofsallee 8a"}, 
{"plz": "18528", "ort": "Bergen auf Rügen", "name": "Bergen auf Rügen, Stadt", "street": "Markt 5-6"}, 
{"plz": "18546", "ort": "Sassnitz", "name": "Sassnitz, Stadt", "street": "Hauptstraße 33"}, 
{"plz": "18551", "ort": "Sagard", "name": "Altenkirchen", "street": "Ernst-Thälmann-Straße 37"}, 
{"plz": "18573", "ort": "Samtens", "name": "Insel Hiddensee, Seebad", "street": "Dorfplatz 2"}, 
{"plz": "18581", "ort": "Putbus", "name": "Putbus, Stadt", "street": "Markt 8"}, 
{"plz": "18586", "ort": "Ostseebad Baabe", "name": "Mönchgut, Ostseebad", "street": "Göhrener Weg 1"}, 
{"plz": "18609", "ort": "Binz", "name": "Binz, Ostseebad", "street": "Jasmunder Straße 11"}]