[{"plz": "19053", "ort": "Schwerin", "name": "Schwerin, Landeshauptstadt", "street": "Am Packhof 2-6", "phone": "0385-545-1111", "email": "buergerbuero@schwerin.de"}, 
{"plz": "19073", "ort": "Stralendorf", "name": "Wittenförden", "street": "Dorfstraße 30"}, 
{"plz": "19089", "ort": "Crivitz", "name": "Raben Steinfeld", "street": "Amtsstraße 5"}, 
{"plz": "19205", "ort": "Gadebusch", "name": "Gadebusch, Stadt", "street": "Am Markt 1"}, 
{"plz": "19209", "ort": "Lützow", "name": "Dalberg-Wendelstorf", "street": "Dorfmitte 24"}, 
{"plz": "19217", "ort": "Rehna", "name": "Wedendorfersee", "street": "Freiheitsplatz 1"}, 
{"plz": "19230", "ort": "Hagenow", "name": "Bresegard bei Picher", "street": "Bahnhofstraße 25"}, 
{"plz": "19230", "ort": "Hagenow", "name": "Hagenow, Stadt", "street": "Lange Straße 28-32"}, 
{"plz": "19243", "ort": "Wittenburg", "name": "Wittenburg, Stadt", "street": "Molkereistraße 4"}, 
{"plz": "19246", "ort": "Zarrentin am Schaalsee", "name": "Zarrentin am Schaalsee, Stadt", "street": "Kirchplatz 8"}, 
{"plz": "19249", "ort": "Lübtheen", "name": "Lübtheen, Stadt", "street": "Salzstraße 17"}, 
{"plz": "19258", "ort": "Boizenburg/Elbe", "name": "Boizenburg/ Elbe, Stadt", "street": "Kirchplatz 1"}, 
{"plz": "19258", "ort": "Boizenburg/Elbe", "name": "Tessin b. Boizenburg", "street": "Fritz-Reuter-Straße 3"}, 
{"plz": "19273", "ort": "Neuhaus/Elbe", "name": "Amt Neuhaus", "street": "Am Markt 4"}, 
{"plz": "19288", "ort": "Ludwigslust", "name": "Bresegard bei Eldena", "street": "Wöbbeliner Straße 5"}, 
{"plz": "19288", "ort": "Ludwigslust", "name": "Ludwigslust, Stadt", "street": "Schloßstraße 38"}, 
{"plz": "19300", "ort": "Grabow", "name": "Grabow, Stadt", "street": "Am Markt 1"}, 
{"plz": "19303", "ort": "Dömitz", "name": "Grebs-Niendorf", "street": "Goethestraße 21"}, 
{"plz": "19306", "ort": "Neustadt-Glewe", "name": "Neustadt-Glewe, Stadt", "street": "Markt 1"}, 
{"plz": "19309", "ort": "Lenzen", "name": "Lenzen (Elbe), Stadt", "street": "Kellerstraße 4"}, 
{"plz": "19322", "ort": "Wittenberge", "name": "Wittenberge, Stadt", "street": "August-Bebel-Straße 10"}, 
{"plz": "19336", "ort": "Bad Wilsnack", "name": "Bad Wilsnack, Stadt", "street": "Am Markt 1"}, 
{"plz": "19339", "ort": "Plattenburg OT Kletzke", "name": "Plattenburg", "street": "Dorfstraße 52a"}, 
{"plz": "19348", "ort": "Perleberg", "name": "Perleberg, Stadt", "street": "Großer Markt"}, 
{"plz": "19357", "ort": "Karstädt", "name": "Karstädt", "street": "Mühlenstraße 1"}, 
{"plz": "19370", "ort": "Parchim", "name": "Obere Warnow", "street": "Walter-Hase-Straße 42"}, 
{"plz": "19370", "ort": "Parchim", "name": "Parchim, Stadt", "street": "Schuhmarkt 1"}, 
{"plz": "19386", "ort": "Lübz", "name": "Gallin-Kuppentin", "street": "Am Markt 22"}, 
{"plz": "19395", "ort": "Plau am See", "name": "Plau am See, Stadt", "street": "Markt 2"}, 
{"plz": "19399", "ort": "Goldberg", "name": "Goldberg, Stadt", "street": "Lange Straße 67"}, 
{"plz": "19406", "ort": "Sternberg", "name": "Sternberg, Stadt", "street": "Am Markt 1"}]