[{"plz": "92211", "ort": "Amberg", "name": "Amberg", "street": "Postfach 2155"}, 
{"plz": "92230", "ort": "Sulzbach-Rosenberg", "name": "Sulzbach-Rosenberg, St", "street": "Postfach 1254"}, 
{"plz": "92242", "ort": "Hirschau", "name": "Hirschau, St", "street": "Rathausplatz 1"}, 
{"plz": "92245", "ort": "Kümmersbruck", "name": "Kümmersbruck", "street": "Schulstraße 37"}, 
{"plz": "92246", "ort": "Vilseck", "name": "Vilseck, St", "street": "Postfach 9"}, 
{"plz": "92253", "ort": "Schnaittenbach", "name": "Schnaittenbach, St", "street": "Rosenbühlstraße 1"}, 
{"plz": "92256", "ort": "Hahnbach", "name": "Hahnbach, M", "street": "Herbert-Falk-Straße 5"}, 
{"plz": "92259", "ort": "Neukirchen b.Sulzbach-Rosenberg", "name": "Neukirchen b.Sulzbach-Rosenberg", "street": "Am Rathaus 1"}, 
{"plz": "92260", "ort": "Ammerthal", "name": "Ammerthal", "street": "Mühlweg 16a"}, 
{"plz": "92263", "ort": "Ebermannsdorf", "name": "Ebermannsdorf", "street": "Schulstraße 8"}, 
{"plz": "92265", "ort": "Edelsfeld", "name": "Edelsfeld", "street": "Hirschbachstraße 8"}, 
{"plz": "92266", "ort": "Ensdorf", "name": "Ensdorf", "street": "Hauptstraße 4"}, 
{"plz": "92269", "ort": "Fensterbach", "name": "Fensterbach", "street": "Knöllinger Straße 5"}, 
{"plz": "92271", "ort": "Freihung", "name": "Freihung, M", "street": "Rathausstraße 4"}, 
{"plz": "92272", "ort": "Freudenberg", "name": "Freudenberg", "street": "Hammermühle 1"}, 
{"plz": "92277", "ort": "Hohenburg", "name": "Hohenburg, M", "street": "Marktplatz 19"}, 
{"plz": "92278", "ort": "Illschwang", "name": "Illschwang", "street": "Am Dorfplatz 5"}, 
{"plz": "92280", "ort": "Kastl", "name": "Kastl, M", "street": "Marktplatz 1"}, 
{"plz": "92281", "ort": "Königstein", "name": "Königstein, M", "street": "Oberer Markt 20"}, 
{"plz": "92283", "ort": "Lauterhofen", "name": "Lauterhofen, M", "street": "Marktplatz 11"}, 
{"plz": "92284", "ort": "Poppenricht", "name": "Poppenricht", "street": "Rathausplatz 1"}, 
{"plz": "92286", "ort": "Rieden", "name": "Rieden, M", "street": "Hirschwalder  Straße 27"}, 
{"plz": "92287", "ort": "Schmidmühlen", "name": "Schmidmühlen, M", "street": "Rathausstraße 1"}, 
{"plz": "92289", "ort": "Ursensollen", "name": "Ursensollen", "street": "Rathausstraße 1"}, 
{"plz": "92305", "ort": "Neumarkt i.d.OPf.", "name": "Neumarkt i.d.OPf., GKSt", "street": "Postfach 1540"}, 
{"plz": "92318", "ort": "Neumarkt i.d.OPf.", "name": "Sengenthal", "street": "Bahnhofstraße 12"}, 
{"plz": "92327", "ort": "Parsberg", "name": "Parsberg, St", "street": "Alte-Seer-Straße 2"}, 
{"plz": "92331", "ort": "Lupburg", "name": "Lupburg, M", "street": "Burgstraße 14"}, 
{"plz": "92332", "ort": "Berching", "name": "Berching, St", "street": "Postfach 55"}, 
{"plz": "92339", "ort": "Beilngries", "name": "Beilngries, St", "street": "Hauptstraße 24"}, 
{"plz": "92340", "ort": "Freystadt", "name": "Freystadt, St", "street": "Postfach 61"}, 
{"plz": "92343", "ort": "Dietfurt a.d.Altmühl", "name": "Dietfurt a.d.Altmühl, St", "street": "Postfach 40"}, 
{"plz": "92348", "ort": "Berg b.Neumarkt i.d.OPf.", "name": "Berg b.Neumarkt i.d.OPf.", "street": "Herrnstraße 1"}, 
{"plz": "92349", "ort": "Postbauer-Heng", "name": "Postbauer-Heng, M", "street": "Postfach 1063"}, 
{"plz": "92355", "ort": "Velburg", "name": "Velburg, St", "street": "Hinterer Markt 1"}, 
{"plz": "92358", "ort": "Seubersdorf i.d.OPf.", "name": "Seubersdorf i.d.OPf.", "street": "Schulstraße 4"}, 
{"plz": "92359", "ort": "Mühlhausen", "name": "Mühlhausen", "street": "Postfach 52"}, 
{"plz": "92363", "ort": "Breitenbrunn", "name": "Breitenbrunn, M", "street": "Von-Tilly-Straße 7"}, 
{"plz": "92364", "ort": "Deining", "name": "Deining", "street": "Schloßstraße 6"}, 
{"plz": "92366", "ort": "Hohenfels", "name": "Hohenfels, M", "street": "Pfarrer-Ertl-Platz 3"}, 
{"plz": "92409", "ort": "Schwandorf", "name": "Schwandorf, GKSt", "street": "Postfach 1880"}, 
{"plz": "92431", "ort": "Neunburg vorm Wald", "name": "Neunburg vorm Wald, St", "street": "Schrannenplatz 1"}, 
{"plz": "92431", "ort": "Neunburg vorm Wald", "name": "Neukirchen-Balbini, M", "street": "Kolpingstraße 3"}, 
{"plz": "92432", "ort": "Bruck i.d.OPf.", "name": "Bruck i.d.OPf., M", "street": "Postfach 1165"}, 
{"plz": "92437", "ort": "Bodenwöhr", "name": "Bodenwöhr", "street": "Postfach 1109"}, 
{"plz": "92440", "ort": "Wackersdorf", "name": "Steinberg am See", "street": "Postfach 64"}, 
{"plz": "92443", "ort": "Rötz", "name": "Rötz, St", "street": "Postfach 60"}, 
{"plz": "92501", "ort": "Nabburg", "name": "Nabburg, St", "street": "Postfach 1160"}, 
{"plz": "92515", "ort": "Schwarzenfeld", "name": "Schwarzach b.Nabburg", "street": "Postfach 40"}, 
{"plz": "92526", "ort": "Oberviechtach", "name": "Oberviechtach, St", "street": "Nabburger Straße 2"}, 
{"plz": "92526", "ort": "Oberviechtach", "name": "Niedermurach", "street": "Bezirksamtstraße 5"}, 
{"plz": "92528", "ort": "Wernberg-Köblitz", "name": "Wernberg-Köblitz, M", "street": "Postfach 1240"}, 
{"plz": "92534", "ort": "Pfreimd", "name": "Pfreimd, St", "street": "Postfach 49"}, 
{"plz": "92536", "ort": "Pfreimd", "name": "Pfreimd, St", "street": "Marienplatz 2"}, 
{"plz": "92539", "ort": "Schönsee", "name": "Schönsee, St", "street": "Hauptstraße 25"}, 
{"plz": "92546", "ort": "Schmidgaden", "name": "Schmidgaden", "street": "Schwarzenfelder Weg 9"}, 
{"plz": "92637", "ort": "Weiden i.d.OPf.", "name": "Weiden i.d.OPf.", "street": "Dr.-Pfleger-Straße 15"}, 
{"plz": "92642", "ort": "Vohenstrauß", "name": "Vohenstrauß, St", "street": "Postfach 1120"}, 
{"plz": "92655", "ort": "Grafenwöhr", "name": "Grafenwöhr, St", "street": "Marktplatz 1"}, 
{"plz": "92657", "ort": "Neustadt a.d.Waldnaab", "name": "Neustadt a.d.Waldnaab, St", "street": "Postfach 1210"}, 
{"plz": "92660", "ort": "Neustadt a.d.Waldnaab", "name": "Kirchendemenreuth", "street": "Naabstraße 5"}, 
{"plz": "92660", "ort": "Neustadt a.d.Waldnaab", "name": "Kirchendemenreuth", "street": "Naabstraße5"}, 
{"plz": "92665", "ort": "Altenstadt a.d.Waldnaab", "name": "Altenstadt a.d.Waldnaab", "street": "Hauptstraße 6"}, 
{"plz": "92670", "ort": "Windischeschenbach", "name": "Windischeschenbach, St", "street": "Hauptstraße 34"}, 
{"plz": "92672", "ort": "Eschenbach i.d.OPf.", "name": "Eschenbach i.d.OPf., St", "street": "Postfach 1260"}, 
{"plz": "92677", "ort": "Erbendorf", "name": "Erbendorf, St", "street": "Postfach 1107"}, 
{"plz": "92685", "ort": "Floß", "name": "Floß, M", "street": "Rathausplatz 3"}, 
{"plz": "92687", "ort": "Pressath", "name": "Schwarzenbach", "street": "Postfach 1226"}, 
{"plz": "92693", "ort": "Eslarn", "name": "Eslarn, M", "street": "Marktplatz 1"}, 
{"plz": "92696", "ort": "Flossenbürg", "name": "Flossenbürg", "street": "Hohenstaufenstraße 24"}, 
{"plz": "92703", "ort": "Krummennaab", "name": "Reuth b.Erbendorf", "street": "Hauptstraße 1"}, 
{"plz": "92706", "ort": "Luhe-Wildenau", "name": "Luhe-Wildenau, M", "street": "Rathausplatz 1"}, 
{"plz": "92708", "ort": "Mantel", "name": "Mantel, M", "street": "Etzenrichter Straße 11"}, 
{"plz": "92709", "ort": "Moosbach", "name": "Moosbach, M", "street": "Brunnenstraße 1"}, 
{"plz": "92711", "ort": "Parkstein", "name": "Parkstein, M", "street": "Schloßgasse 5"}, 
{"plz": "92714", "ort": "Pleystein", "name": "Pleystein, St", "street": "Postfach 1107"}, 
{"plz": "92718", "ort": "Schirmitz", "name": "Irchenrieth", "street": "Hauptstraße 12"}, 
{"plz": "92723", "ort": "Tännesberg", "name": "Leuchtenberg, M", "street": "Pfreimder Straße 1"}, 
{"plz": "92726", "ort": "Waidhaus", "name": "Waidhaus, M", "street": "Schulstraße 4"}, 
{"plz": "92727", "ort": "Waldthurn", "name": "Waldthurn, M", "street": "Vohenstraußer Straße 16"}, 
{"plz": "92729", "ort": "Weiherhammer", "name": "Weiherhammer", "street": "Hauptstraße 3"}]