[{"plz": "93019", "ort": "Regensburg", "name": "Regensburg", "street": "Postfach 110643"}, 
{"plz": "93047", "ort": "Regensburg", "name": "Regensburg Stadtmitte", "street": "D.-Martin-Luther-Str. 3\nErdgeschoss", "phone": "0941-507-3333", "email": "buergerbuero@regensburg.de"}, 
{"plz": "93055", "ort": "Regensburg", "name": "Regensburg Burgweinting", "street": "Friedrich-Viehbacher-Allee 3\n(BUZ)", "phone": "0941-507-2888", "email": "buergerbuero@regensburg.de"}, 
{"plz": "93059", "ort": "Regensburg", "name": "Regensburg Nord", "street": "Brennesstr. 16\nALEX-Center", "phone": "0941-507-1888", "email": "buergerbuero@regensburg.de"}, 
{"plz": "93073", "ort": "Neutraubling", "name": "Neutraubling, St", "street": "Regensburger Straße 9"}, 
{"plz": "93075", "ort": "Bad Abbach", "name": "Bad Abbach, M", "street": "Postfach 1253"}, 
{"plz": "93080", "ort": "Pentling", "name": "Pentling", "street": "Am Rathaus 5"}, 
{"plz": "93081", "ort": "Obertraubling", "name": "Obertraubling", "street": "Postfach 1129"}, 
{"plz": "93086", "ort": "Wörth a.d.Donau", "name": "Wörth a.d.Donau, St", "street": "Rathausplatz 1"}, 
{"plz": "93087", "ort": "Alteglofsheim", "name": "Alteglofsheim", "street": "Bahnhofstraße 10"}, 
{"plz": "93092", "ort": "Barbing", "name": "Barbing", "street": "Kirchstraße 1"}, 
{"plz": "93093", "ort": "Donaustauf", "name": "Bach a.d.Donau", "street": "Wörther Straße 5"}, 
{"plz": "93095", "ort": "Hagelstadt", "name": "Hagelstadt", "street": "Gailsbacher Straße 1"}, 
{"plz": "93096", "ort": "Köfering", "name": "Köfering", "street": "Schulstraße 11"}, 
{"plz": "93098", "ort": "Mintraching", "name": "Mintraching", "street": "Friedenstraße 2"}, 
{"plz": "93102", "ort": "Pfatter", "name": "Pfatter", "street": "Haidauer Straße 40"}, 
{"plz": "93104", "ort": "Sünching", "name": "Aufhausen", "street": "Schulstraße 26"}, 
{"plz": "93105", "ort": "Tegernheim", "name": "Tegernheim", "street": "Ringstraße 47"}, 
{"plz": "93107", "ort": "Thalmassing", "name": "Thalmassing", "street": "Kirchweg 1"}, 
{"plz": "93109", "ort": "Wiesent", "name": "Wiesent", "street": "Bahnhofstraße 1"}, 
{"plz": "93122", "ort": "Regenstauf", "name": "Regenstauf, M", "street": "Postfach 130"}, 
{"plz": "93129", "ort": "Burglengenfeld", "name": "Burglengenfeld, St", "street": "Postfach 1130"}, 
{"plz": "93134", "ort": "Lappersdorf", "name": "Lappersdorf, M", "street": "Postfach 1150"}, 
{"plz": "93139", "ort": "Maxhütte-Haidhof", "name": "Maxhütte-Haidhof, St", "street": "Postfach 1127"}, 
{"plz": "93149", "ort": "Nittenau", "name": "Nittenau, St", "street": "Gerichtsstraße 13"}, 
{"plz": "93150", "ort": "Nittendorf", "name": "Nittendorf, M", "street": "Postfach 1154"}, 
{"plz": "93153", "ort": "Hemau", "name": "Hemau, St", "street": "Postfach 1130"}, 
{"plz": "93156", "ort": "Teublitz", "name": "Teublitz, St", "street": "Postfach 1164"}, 
{"plz": "93161", "ort": "Sinzing", "name": "Sinzing", "street": "Fährenweg 4"}, 
{"plz": "93162", "ort": "Laaber", "name": "Laaber, M", "street": "Postfach 0066"}, 
{"plz": "93167", "ort": "Falkenstein", "name": "Michelsneukirchen", "street": "Marktplatz 1"}, 
{"plz": "93170", "ort": "Bernhardswald", "name": "Bernhardswald", "street": "Rathausplatz 1"}, 
{"plz": "93173", "ort": "Wenzenbach", "name": "Wenzenbach", "street": "Hauptstraße 40"}, 
{"plz": "93176", "ort": "Beratzhausen", "name": "Beratzhausen, M", "street": "Marktstraße 33"}, 
{"plz": "93183", "ort": "Kallmünz", "name": "Holzheim a.Forst", "street": "Keltenweg 1"}, 
{"plz": "93186", "ort": "Pettendorf", "name": "Pettendorf", "street": "Margarethenstraße 4"}, 
{"plz": "93192", "ort": "Wald", "name": "Zell", "street": "Hauptstraße 14"}, 
{"plz": "93194", "ort": "Walderbach", "name": "Reichenbach", "street": "Franz-Xaver-Witt-Straße 2"}, 
{"plz": "93195", "ort": "Wolfsegg", "name": "Pielenhofen", "street": "Judenberger Straße 4"}, 
{"plz": "93197", "ort": "Zeitlarn", "name": "Zeitlarn", "street": "Hauptstraße 30"}, 
{"plz": "93306", "ort": "Kelheim", "name": "Kelheim, St", "street": "Postfach 1751"}, 
{"plz": "93321", "ort": "Abensberg", "name": "Abensberg, St", "street": "Postfach 1240"}, 
{"plz": "93330", "ort": "Neustadt a.d.Donau", "name": "Neustadt a.d.Donau, St", "street": "Postfach 1452"}, 
{"plz": "93336", "ort": "Altmannstein", "name": "Altmannstein, M", "street": "Marktplatz 4"}, 
{"plz": "93337", "ort": "Riedenburg", "name": "Riedenburg, St", "street": "Postfach 40"}, 
{"plz": "93340", "ort": "Saal a.d.Donau", "name": "Saal a.d.Donau", "street": "Postfach 43"}, 
{"plz": "93346", "ort": "Ihrlerstein", "name": "Ihrlerstein", "street": "Hauptstraße 15"}, 
{"plz": "93349", "ort": "Mindelstetten", "name": "Mindelstetten", "street": "Mayer-Platz 1"}, 
{"plz": "93351", "ort": "Painten", "name": "Painten, M", "street": "Marktplatz 24"}, 
{"plz": "93352", "ort": "Rohr i.NB", "name": "Rohr i.NB, M", "street": "Marienplatz 1"}, 
{"plz": "93354", "ort": "Siegenburg", "name": "Siegenburg, M", "street": "Marienplatz 13"}, 
{"plz": "93405", "ort": "Cham", "name": "Cham, St", "street": "Postfach 1553"}, 
{"plz": "93426", "ort": "Roding", "name": "Roding, St", "street": "Schulstraße 15"}, 
{"plz": "93437", "ort": "Furth im Wald", "name": "Furth im Wald, St", "street": "Burgstraße 1"}, 
{"plz": "93438", "ort": "Bad Kötzting", "name": "Bad Kötzting, St", "street": "Postfach 180"}, 
{"plz": "93449", "ort": "Waldmünchen", "name": "Waldmünchen, St", "street": "Marktplatz 14"}, 
{"plz": "93453", "ort": "Neukirchen b.Hl.Blut", "name": "Neukirchen b.Hl.Blut, M", "street": "Marktplatz 2"}, 
{"plz": "93455", "ort": "Traitsching", "name": "Traitsching", "street": "Rathausstraße 1"}, 
{"plz": "93458", "ort": "Eschlkam", "name": "Eschlkam, M", "street": "Waldschmidtplatz 2"}, 
{"plz": "93462", "ort": "Lam", "name": "Lam, M", "street": "Schulweg 4"}, 
{"plz": "93464", "ort": "Tiefenbach", "name": "Treffelstein", "street": "Hauptstraße 33"}, 
{"plz": "93466", "ort": "Chamerau", "name": "Chamerau", "street": "Kindergartenweg 3"}, 
{"plz": "93468", "ort": "Miltach", "name": "Miltach", "street": "Kötztinger Straße 3"}, 
{"plz": "93470", "ort": "Lohberg", "name": "Lohberg", "street": "Rathausweg 1a"}, 
{"plz": "93471", "ort": "Arnbruck", "name": "Arnbruck", "street": "Gemeindezentrum 1"}, 
{"plz": "93473", "ort": "Arnschwang", "name": "Arnschwang", "street": "Kirchgasse 10"}, 
{"plz": "93474", "ort": "Arrach", "name": "Arrach", "street": "Pfarrer-Busch-Straße 8"}, 
{"plz": "93476", "ort": "Blaibach", "name": "Blaibach", "street": "Kirchplatz 6"}, 
{"plz": "93479", "ort": "Grafenwiesen", "name": "Grafenwiesen", "street": "Rathausplatz 6"}, 
{"plz": "93480", "ort": "Hohenwarth", "name": "Hohenwarth", "street": "Schulstraße 3"}, 
{"plz": "93482", "ort": "Pemfling", "name": "Pemfling", "street": "Hauptstraße 13"}, 
{"plz": "93485", "ort": "Rimbach", "name": "Rimbach", "street": "Hohenbogenstraße 10"}, 
{"plz": "93486", "ort": "Runding", "name": "Runding", "street": "Kirchstraße 6"}, 
{"plz": "93488", "ort": "Schönthal", "name": "Schönthal", "street": "Rathausplatz 1"}, 
{"plz": "93489", "ort": "Schorndorf", "name": "Schorndorf", "street": "Kirchplatz 1"}, 
{"plz": "93491", "ort": "Stamsried", "name": "Stamsried, M", "street": "Schloßstraße 10"}, 
{"plz": "93494", "ort": "Waffenbrunn", "name": "Waffenbrunn", "street": "Rhanwaltinger Straße 4"}, 
{"plz": "93495", "ort": "Weiding", "name": "Gleißenberg", "street": "Rathausplatz 1"}, 
{"plz": "93497", "ort": "Willmering", "name": "Willmering", "street": "Rathausplatz 1"}, 
{"plz": "93499", "ort": "Zandt", "name": "Zandt", "street": "Rathausplatz 1"}]