[{"plz": "98527", "ort": "Suhl", "name": "Suhl, Stadt", "street": "Marktplatz 1"}, 
{"plz": "98544", "ort": "Zella-Mehlis", "name": "Zella-Mehlis, Stadt", "street": "Rathausstraße 4"}, 
{"plz": "98547", "ort": "Schwarza", "name": "Obermaßfeld-Grimmenthal", "street": "Zella-Meininger-Straße 6"}, 
{"plz": "98553", "ort": "Schleusingen", "name": "Schleusingen, Stadt", "street": "Markt 9"}, 
{"plz": "98559", "ort": "Oberhof", "name": "Oberhof, Stadt", "street": "Zellaer Straße 10"}, 
{"plz": "98574", "ort": "Schmalkalden", "name": "Schmalkalden, Stadt", "street": "Altmarkt 1"}, 
{"plz": "98587", "ort": "Steinbach-Hallenberg", "name": "Steinbach-Hallenberg, Stadt", "street": "Rathausplatz 2"}, 
{"plz": "98593", "ort": "Floh-Seligenthal", "name": "Floh-Seligenthal", "street": "Bahnhofstraße 4"}, 
{"plz": "98596", "ort": "Brotterode-Trusetal", "name": "Brotterode-Trusetal, Stadt", "street": "Rathausstraße 7"}, 
{"plz": "98597", "ort": "Breitungen/Werra", "name": "Breitungen/Werra", "street": "Rathausstraße 24"}, 
{"plz": "98617", "ort": "Meiningen", "name": "Meiningen, Stadt", "street": "Schlossplatz 1"}, 
{"plz": "98617", "ort": "Rhönblick", "name": "Rhönblick", "street": "Marktgasse 106"}, 
{"plz": "98630", "ort": "Römhild", "name": "Römhild, Stadt", "street": "Griebelstraße 28"}, 
{"plz": "98631", "ort": "Grabfeld", "name": "Grabfeld", "street": "Hauptstraße 28"}, 
{"plz": "98634", "ort": "Wasungen", "name": "Wasungen, Stadt", "street": "Markt 9-11"}, 
{"plz": "98646", "ort": "Hildburghausen", "name": "Hildburghausen, Stadt", "street": "Clara-Zetkin-Straße 3"}, 
{"plz": "98660", "ort": "Themar", "name": "Grimmelshausen", "street": "Markt 1"}, 
{"plz": "98663", "ort": "Heldburg", "name": "Ummerstadt, Stadt", "street": "Häfenmarkt 164"}, 
{"plz": "98666", "ort": "Masserberg", "name": "Masserberg", "street": "Hauptstraße 37"}, 
{"plz": "98667", "ort": "Schönbrunn", "name": "Schleusegrund", "street": "Eisfelder Str.11"}, 
{"plz": "98669", "ort": "Veilsdorf", "name": "Veilsdorf", "street": "Marktplatz 12"}, 
{"plz": "98673", "ort": "Eisfeld", "name": "Eisfeld, Stadt", "street": "Marktstraße 2"}, 
{"plz": "98673", "ort": "Crock", "name": "Brünn/Thür.", "street": "Kirchweg 8"}, 
{"plz": "98693", "ort": "Ilmenau", "name": "Ilmenau, Stadt", "street": "Markt 7"}, 
{"plz": "98701", "ort": "Großbreitenbach", "name": "Großbreitenbach, Stadt", "street": "Markt 11"}, 
{"plz": "98724", "ort": "Neuhaus am Rennweg", "name": "Neuhaus am Rennweg, Stadt", "street": "Kirchweg 2"}, 
{"plz": "98724", "ort": "Lauscha", "name": "Lauscha, Stadt", "street": "Bahnhofstraße 12"}, 
{"plz": "98744", "ort": "Schwarzatal", "name": "Schwarzatal, Stadt", "street": "Markt 5"}]