[{"plz": "95015", "ort": "Hof", "name": "Hof", "street": "Postfach 1665"}, 
{"plz": "95089", "ort": "Selb", "name": "Selb, GKSt", "street": "Postfach 1580"}, 
{"plz": "95105", "ort": "Rehau", "name": "Rehau, St", "street": "Postfach 1560"}, 
{"plz": "95113", "ort": "Naila", "name": "Naila, St", "street": "Postfach 1227"}, 
{"plz": "95120", "ort": "Schwarzenbach a.d.Saale", "name": "Schwarzenbach a.d.Saale, St", "street": "Postfach 1155"}, 
{"plz": "95127", "ort": "Schwarzenbach a.Wald", "name": "Schwarzenbach a.Wald, St", "street": "Postfach 147"}, 
{"plz": "95138", "ort": "Bad Steben", "name": "Bad Steben, M", "street": "Hauptstraße 2"}, 
{"plz": "95139", "ort": "Oberkotzau", "name": "Oberkotzau, M", "street": "Postfach 1141"}, 
{"plz": "95146", "ort": "Selbitz", "name": "Selbitz, St", "street": "Postfach 1150"}, 
{"plz": "95153", "ort": "Kirchenlamitz", "name": "Kirchenlamitz, St", "street": "Postfach 60"}, 
{"plz": "95159", "ort": "Weißenstadt", "name": "Weißenstadt, St", "street": "Postfach 1120"}, 
{"plz": "95164", "ort": "Marktleuthen", "name": "Marktleuthen, St", "street": "Postfach 40"}, 
{"plz": "95169", "ort": "Schönwald", "name": "Schönwald, St", "street": "Postfach 29"}, 
{"plz": "95174", "ort": "Konradsreuth", "name": "Konradsreuth", "street": "Postfach 81"}, 
{"plz": "95177", "ort": "Geroldsgrün", "name": "Geroldsgrün", "street": "Postfach 6"}, 
{"plz": "95180", "ort": "Berg", "name": "Berg", "street": "Kirchplatz 2"}, 
{"plz": "95182", "ort": "Döhlau", "name": "Döhlau", "street": "Am Rathaus 2"}, 
{"plz": "95183", "ort": "Feilitzsch", "name": "Feilitzsch", "street": "Hauptstraße 28"}, 
{"plz": "95189", "ort": "Köditz", "name": "Köditz", "street": "Talstraße 2"}, 
{"plz": "95192", "ort": "Lichtenberg", "name": "Lichtenberg, St", "street": "Marktplatz 16"}, 
{"plz": "95194", "ort": "Regnitzlosau", "name": "Regnitzlosau", "street": "Hauptstraße 24"}, 
{"plz": "95195", "ort": "Röslau", "name": "Röslau", "street": "Marktplatz 1"}, 
{"plz": "95197", "ort": "Schauenstein", "name": "Schauenstein, St", "street": "Postfach 53"}, 
{"plz": "95204", "ort": "Münchberg", "name": "Münchberg, St", "street": "Postfach 467"}, 
{"plz": "95223", "ort": "Helmbrechts", "name": "Helmbrechts, St", "street": "Luitpoldstraße 21"}, 
{"plz": "95234", "ort": "Sparneck", "name": "Sparneck, M", "street": "Marktplatz 4"}, 
{"plz": "95234", "ort": "Sparneck", "name": "Weißdorf", "street": null}, 
{"plz": "95236", "ort": "Stammbach", "name": "Stammbach, M", "street": "Rathausstraße 7"}, 
{"plz": "95239", "ort": "Zell im Fichtelgebirge", "name": "Zell im Fichtelgebirge, M", "street": "Bahnhofstraße 10"}, 
{"plz": "95311", "ort": "Kulmbach", "name": "Kulmbach, GKSt", "street": "Postfach 1969"}, 
{"plz": "95334", "ort": "Mainleus", "name": "Mainleus, M", "street": "Postfach 28"}, 
{"plz": "95339", "ort": "Neuenmarkt", "name": "Neuenmarkt", "street": "Hauptstraße 18"}, 
{"plz": "95339", "ort": "Wirsberg", "name": "Wirsberg, M", "street": "Sessenreuther Straße 2"}, 
{"plz": "95343", "ort": "Stadtsteinach", "name": "Stadtsteinach, St", "street": "Postfach 52"}, 
{"plz": "95343", "ort": "Stadtsteinach", "name": "Stadtsteinach, St", "street": "Marktplatz 8"}, 
{"plz": "95347", "ort": "Thurnau", "name": "Thurnau, M", "street": "Postfach 40"}, 
{"plz": "95352", "ort": "Marktleugast", "name": "Marktleugast, M", "street": "Neuensorger Weg 10"}, 
{"plz": "95353", "ort": "Presseck", "name": "Presseck, M", "street": "Postfach 62"}, 
{"plz": "95359", "ort": "Kasendorf", "name": "Kasendorf, M", "street": "Marktplatz 8"}, 
{"plz": "95365", "ort": "Rugendorf", "name": "Rugendorf", "street": "Am Baumgarten 1"}, 
{"plz": "95367", "ort": "Trebgast", "name": "Harsdorf", "street": "Kulmbacher Straße 36"}, 
{"plz": "95369", "ort": "Untersteinach", "name": "Ludwigschorgast, M", "street": "Postfach 10"}, 
{"plz": "95410", "ort": "Bayreuth", "name": "Bayreuth", "street": "Postfach 101052"}, 
{"plz": "95444", "ort": "Bayreuth", "name": "Bayreuth", "street": "Luitpoldplatz 13\nNeues Rathaus Zimmer 310", "phone": "0921-25-0", "email": "einwohneramt@stadt.bayreuth.de"}, 
{"plz": "95460", "ort": "Bad Berneck i.Fichtelgebirge", "name": "Bad Berneck i.Fichtelgebirge, St", "street": "Bahnhofstraße 77"}, 
{"plz": "95463", "ort": "Bindlach", "name": "Bindlach", "street": "Rathausplatz 1"}, 
{"plz": "95464", "ort": "Weidenberg", "name": "Kirchenpingarten", "street": "Postfach 1110"}, 
{"plz": "95467", "ort": "Speichersdorf", "name": "Speichersdorf", "street": "Postfach 1205"}, 
{"plz": "95473", "ort": "Creußen", "name": "Schnabelwaid, M", "street": "Bahnhofstraße 11"}, 
{"plz": "95475", "ort": "Kemnath", "name": "Kemnath, St", "street": "Postfach 110261"}, 
{"plz": "95480", "ort": "Gefrees", "name": "Gefrees, St", "street": "Postfach 1112"}, 
{"plz": "95485", "ort": "Warmensteinach", "name": "Warmensteinach", "street": "Bahnhofstraße 100"}, 
{"plz": "95486", "ort": "Eckersdorf", "name": "Eckersdorf", "street": "Postfach 20"}, 
{"plz": "95490", "ort": "Mistelgau", "name": "Glashütten", "street": "Bahnhofstraße 35"}, 
{"plz": "95491", "ort": "Ahorntal", "name": "Ahorntal", "street": "Kirchahorn 63"}, 
{"plz": "95493", "ort": "Bischofsgrün", "name": "Bischofsgrün", "street": "Jägerstraße 9"}, 
{"plz": "95497", "ort": "Goldkronach", "name": "Goldkronach, St", "street": "Postfach 27"}, 
{"plz": "95500", "ort": "Heinersreuth", "name": "Heinersreuth", "street": "Kulmbacher Straße 14"}, 
{"plz": "95502", "ort": "Himmelkron", "name": "Himmelkron", "street": "Klosterberg 9"}, 
{"plz": "95505", "ort": "Immenreuth", "name": "Immenreuth", "street": "Kemnather Straße 42"}, 
{"plz": "95508", "ort": "Kulmain", "name": "Kulmain", "street": "Hauptstraße 28"}, 
{"plz": "95509", "ort": "Marktschorgast", "name": "Marktschorgast, M", "street": "Marktplatz 17"}, 
{"plz": "95511", "ort": "Mistelbach", "name": "Mistelbach", "street": "Kanzleistraße 3"}, 
{"plz": "95512", "ort": "Neudrossenfeld", "name": "Neudrossenfeld", "street": "Adam-Seiler-Straße 1"}, 
{"plz": "95615", "ort": "Marktredwitz", "name": "Marktredwitz, GKSt", "street": "Egerstraße 2"}, 
{"plz": "95632", "ort": "Wunsiedel", "name": "Wunsiedel, St", "street": "Marktplatz 6"}, 
{"plz": "95634", "ort": "Tirschenreuth", "name": "Tirschenreuth, St", "street": "Postfach 1220"}, 
{"plz": "95646", "ort": "Waldsassen", "name": "Waldsassen, St", "street": "Postfach 1309"}, 
{"plz": "95653", "ort": "Arzberg", "name": "Arzberg, St", "street": "Postfach 1145"}, 
{"plz": "95662", "ort": "Mitterteich", "name": "Mitterteich, St", "street": "Postfach 1320"}, 
{"plz": "95671", "ort": "Bärnau", "name": "Bärnau, St", "street": "Marktplatz 1"}, 
{"plz": "95672", "ort": "Wiesau", "name": "Falkenberg, M", "street": "Postfach 1165"}, 
{"plz": "95677", "ort": "Waldershof", "name": "Waldershof, St", "street": "Postfach 1117"}, 
{"plz": "95682", "ort": "Brand", "name": "Brand", "street": "Max-Reger-Straße 7"}, 
{"plz": "95683", "ort": "Ebnath", "name": "Ebnath", "street": "Schulstraße 1"}, 
{"plz": "95686", "ort": "Fichtelberg", "name": "Fichtelberg", "street": "Gablonzer Straße 11"}, 
{"plz": "95688", "ort": "Friedenfels", "name": "Friedenfels", "street": "Gemmingen-Straße 23"}, 
{"plz": "95689", "ort": "Fuchsmühl", "name": "Fuchsmühl, M", "street": "Rathausplatz 1"}, 
{"plz": "95691", "ort": "Hohenberg a.d.Eger", "name": "Hohenberg a.d.Eger, St", "street": "Selber Straße 14"}, 
{"plz": "95692", "ort": "Konnersreuth", "name": "Konnersreuth, M", "street": "Hauptstraße 17"}, 
{"plz": "95694", "ort": "Mehlmeisel", "name": "Mehlmeisel", "street": "Rathausplatz 1"}, 
{"plz": "95695", "ort": "Mähring", "name": "Mähring, M", "street": "Großkonreuth 24"}, 
{"plz": "95698", "ort": "Bad Neualbenreuth", "name": "Bad Neualbenreuth, M", "street": "Marktplatz 5"}, 
{"plz": "95700", "ort": "Neusorg", "name": "Pullenreuth", "street": "Hauptstraße 1"}, 
{"plz": "95700", "ort": "Neusorg", "name": "Pullenreuth", "street": "Kirchstraße 10"}, 
{"plz": "95703", "ort": "Plößberg", "name": "Plößberg, M", "street": "Jahnstraße 1"}, 
{"plz": "95706", "ort": "Schirnding", "name": "Hohenberg a.d.Eger, St", "street": "Hauptstraße 5"}, 
{"plz": "95707", "ort": "Thiersheim", "name": "Höchstädt i.Fichtelgebirge", "street": "Postfach 30"}, 
{"plz": "95709", "ort": "Tröstau", "name": "Bad Alexandersbad", "street": "Hauptstraße 6"}]