[{"plz": "54290", "ort": "Trier", "name": "Trier", "street": "Am Augustinerhof 1", "phone": "0651-718-0", "email": "buergeramt@trier.de"}, 
{"plz": "54290", "ort": "Trier", "name": "Trier, Stadt", "street": "Am Augustinerhof"}, 
{"plz": "54295", "ort": "Trier", "name": "Welschbillig", "street": "Gartenfeldstraße 12"}, 
{"plz": "54320", "ort": "Waldrach", "name": "Farschweiler", "street": "Untere Kirchstraße 1"}, 
{"plz": "54329", "ort": "Konz", "name": "Wasserliesch", "street": "Am Markt 11"}, 
{"plz": "54338", "ort": "Schweich", "name": "Naurath (Eifel)", "street": "Brückenstraße 26"}, 
{"plz": "54411", "ort": "Hermeskeil", "name": "Beuren (Hochwald)", "street": "Langer Markt 17"}, 
{"plz": "54424", "ort": "Thalfang", "name": "Gräfendhron", "street": "Saarstraße 7"}, 
{"plz": "54439", "ort": "Saarburg", "name": "Saarburg, Stadt", "street": "Schloßberg 6"}, 
{"plz": "54470", "ort": "Bernkastel-Kues", "name": "Bernkastel-Kues, Stadt", "street": "Gestade 18"}, 
{"plz": "54497", "ort": "Morbach", "name": "Morbach", "street": "Bahnhofstraße 19-23"}, 
{"plz": "54516", "ort": "Wittlich", "name": "Manderscheid, Stadt", "street": "Kurfürstenstraße 1"}, 
{"plz": "54516", "ort": "Wittlich", "name": "Wittlich, Stadt", "street": "Schloßstraße 11"}, 
{"plz": "54550", "ort": "Daun", "name": "Niederstadtfeld", "street": "Leopoldstraße 29"}, 
{"plz": "54568", "ort": "Gerolstein", "name": "Hohenfels-Essingen", "street": "Kyllweg 1"}, 
{"plz": "54595", "ort": "Prüm", "name": "Kleinlangenfeld", "street": "Tiergartenstraße 54"}, 
{"plz": "54634", "ort": "Bitburg", "name": "Hüttingen an der Kyll", "street": "Hubert-Prim-Straße 7"}, 
{"plz": "54634", "ort": "Bitburg", "name": "Bitburg, Stadt", "street": "Rathausplatz 3-4"}, 
{"plz": "54662", "ort": "Speicher", "name": "Speicher, Stadt", "street": "Bahnhofstraße 36"}, 
{"plz": "54673", "ort": "Neuerburg", "name": "Ammeldingen bei Neuerburg", "street": "Pestalozzistraße 7"}, 
{"plz": "54687", "ort": "Arzfeld", "name": "Niederpierscheid", "street": "Luxemburger Straße 6"}]