[{"plz": "01067", "ort": "Dresden", "name": "Altstadt", "street": "Theaterstr. 11-15", "phone": "0351-488-6001", "email": "ortsamt-altstadt@dresden.de"}, 
{"plz": "01067", "ort": "Dresden", "name": "Dresden Altstadt", "street": "Theaterstr. 11", "phone": "0351-488-6070", "email": "buergerbuero-altstadt@dresden.de"}, 
{"plz": "01067", "ort": "Dresden", "name": "Dresden, Stadt", "street": "Dr.-Külz-Ring 19"}, 
{"plz": "01099", "ort": "Dresden", "name": "Dresden Neustadt", "street": "Hoyerswerdaer Str. 3", "phone": "0351-4886-655", "email": "buergerbuero-neustadt@dresden.de"}, 
{"plz": "01099", "ort": "Dresden", "name": "Neustadt", "street": "Atrium am Rosengarten\nHoyerswerdaer Str. 3", "phone": "0351-488-6601", "email": "ortsamt-neustadt@dresden.de"}, 
{"plz": "01108", "ort": "Dresden", "name": "Dresden Verwaltungsstelle Weixdorf", "street": "Weixdorfer Rathausplatz 2", "phone": "0351-4887-948", "email": "ortschaft-weixdorf@dresden.de"}, 
{"plz": "01109", "ort": "Dresden", "name": "Dresden Klotzsche", "street": "Kieler Str. 52", "phone": "0351-4886-590", "email": "buergerbuero-klotzsche@dresden.de"}, 
{"plz": "01109", "ort": "Dresden", "name": "Klotzsche", "street": "Im Rathaus Klotzsche\nKieler Str. 52", "phone": "0351-488-6501", "email": "ortsamt-klotzsche@dresden.de"}, 
{"plz": "01127", "ort": "Dresden", "name": "Dresden Pieschen", "street": "Bürgerstr. 63", "phone": "0351-4885-590", "email": "buergerbuero-pieschen@dresden.de"}, 
{"plz": "01156", "ort": "Dresden", "name": "Gompitz", "street": "Ortschaftsbüro Mobschatz\nAm Tunnelsgrund 7b OT Mobschatz", "phone": "0351-4538631"}, 
{"plz": "01156", "ort": "Dresden", "name": "Cossebaude", "street": "Dresdner Str. 3 OT Cossebaude", "phone": "0351-4887935"}, 
{"plz": "01156", "ort": "Dresden", "name": "Gompitz", "street": "Altnossener Str. 46a", "phone": "0351-5006220"}, 
{"plz": "01156", "ort": "Dresden", "name": "Dresden Verwaltungsstelle Cossebaude", "street": "Dresdner Str. 3", "phone": "0351-4887-935", "email": "ortschaft-cossebaude@dresden.de"}, 
{"plz": "01157", "ort": "Dresden", "name": "Dresden Cotta", "street": "Lübecker Str. 121", "phone": "0351-4885-690", "email": "buergerbuero-cotta@dresden.de"}, 
{"plz": "01169", "ort": "Dresden", "name": "Cotta", "street": "Amalie-Dietrich-Platz 3", "phone": "0351-488-5690", "email": "buergerbuero-cotta@dresden.de"}, 
{"plz": "01187", "ort": "Dresden", "name": "Plauen", "street": "Nöthnitzer Str. 2/5", "phone": "0351-488-680", "email": "ortsamt-plauen@dresden.de1"}, 
{"plz": "01187", "ort": "Dresden", "name": "Dresden Plauen", "street": "Nöthnitzer Str. 2", "phone": "0351-4886-890", "email": "buergerbuero-plauen@dresden.de"}, 
{"plz": "01239", "ort": "Dresden", "name": "Dresden Prohlis", "street": "Prohliser Allee 10", "phone": "0351-4888-390", "email": "buergerbuero-prohlis@dresden.de"}, 
{"plz": "01257", "ort": "Dresden", "name": "Dresden Leuben", "street": "Hertzstr. 23", "phone": "0351-4888-190", "email": "buergerbuero-leuben@dresden.de"}, 
{"plz": "01257", "ort": "Dresden", "name": "Leuben", "street": "Ortsamt/Bürgerbüro\nHertzstr. 23", "phone": "0351-488-8101", "email": "ortsamt-leuben@dresden.de"}, 
{"plz": "01309", "ort": "Dresden", "name": "Dresden Blasewitz", "street": "Naumannstr. 5", "phone": "0351-4888-690", "email": "buergerbuero-blasewitz@dresden.de"}, 
{"plz": "01309", "ort": "Dresden", "name": "Blasewitz", "street": "Im Rathaus Blasewitz\nNaumannstr. 5", "phone": "0351-488-8601", "email": "ortsamt-blasewitz@dresden.de"}, 
{"plz": "01326", "ort": "Dresden", "name": "Loschwitz", "street": "Grundstr. 3", "phone": "0351-488-8501", "email": "ortsamt-loschwitz@dresden.de"}, 
{"plz": "01328", "ort": "Dresden", "name": "Schönfeld-Weißig", "street": "Bautzner Str. 3", "phone": "0351-44487302", "email": "ortschaft-schoenfeld-weissig@dresden.de"}, 
{"plz": "01328", "ort": "Dresden", "name": "Dresden Schönfeld/Weißig", "street": "Bautzner Landstr. 291", "phone": "0351-4887-961", "email": "ortschaft-schoenfeld-weissig-buergerbuero@dresden.de"}, 
{"plz": "01445", "ort": "Radebeul", "name": "Radebeul, Stadt", "street": "Pestalozzistraße 6"}, 
{"plz": "01454", "ort": "Radeberg", "name": "Radeberg, Stadt", "street": "Markt 17-19"}, 
{"plz": "01454", "ort": "Wachau", "name": "Wachau", "street": "Teichstraße 2"}, 
{"plz": "01458", "ort": "Ottendorf-Okrilla", "name": "Ottendorf-Okrilla", "street": "Radeburger Straße 34"}, 
{"plz": "01462", "ort": "Gompitz", "name": "Gompitz", "street": "Altnossener Str. 46a", "phone": "0351-414090"}, 
{"plz": "01465", "ort": "Dresden", "name": "Dresden Verwaltungsstelle Langebrück", "street": "Weißiger Str. 5", "phone": "0351-4887-977", "email": "ortschaft-weixdorf@dresden.de"}, 
{"plz": "01468", "ort": "Moritzburg", "name": "Moritzburg", "street": "Schloßallee 22"}, 
{"plz": "01471", "ort": "Radeburg", "name": "Radeburg, Stadt", "street": "Heinrich-Zille-Straße 6"}, 
{"plz": "01477", "ort": "Arnsdorf", "name": "Arnsdorf", "street": "Bahnhofstraße 15/17"}, 
{"plz": "01558", "ort": "Großenhain", "name": "Großenhain, Stadt", "street": "Hauptmarkt 1"}, 
{"plz": "01561", "ort": "Priestewitz", "name": "Priestewitz", "street": "Staudaer Straße 1"}, 
{"plz": "01561", "ort": "Lampertswalde", "name": "Lampertswalde", "street": "Ortrander Straße 2"}, 
{"plz": "01561", "ort": "Ebersbach", "name": "Ebersbach", "street": "Am Bahndamm 3"}, 
{"plz": "01561", "ort": "Thiendorf", "name": "Thiendorf", "street": "Kamenzer Straße 25"}, 
{"plz": "01561", "ort": "Schönfeld", "name": "Lampertswalde", "street": "Straße der MTS 11"}, 
{"plz": "01589", "ort": "Riesa", "name": "Riesa, Stadt", "street": "Rathausplatz 1"}, 
{"plz": "01594", "ort": "Staucha", "name": "Stauchitz", "street": "Thomas-Müntzer-Platz 2"}, 
{"plz": "01594", "ort": "Hirschstein", "name": "Hirschstein", "street": "Hauptstraße 7"}, 
{"plz": "01609", "ort": "Gröditz", "name": "Gröditz, Stadt", "street": "Reppiser Straße 10"}, 
{"plz": "01609", "ort": "Röderaue", "name": "Wülknitz", "street": "Radener Straße 2"}, 
{"plz": "01609", "ort": "Wülknitz", "name": "Wülknitz", "street": "Bahnhofstraße 21"}, 
{"plz": "01612", "ort": "Glaubitz", "name": "Glaubitz", "street": "Bahnhofstraße 19"}, 
{"plz": "01612", "ort": "Nünchritz", "name": "Nünchritz", "street": "Glaubitzer Straße 10"}, 
{"plz": "01616", "ort": "Strehla", "name": "Strehla, Stadt", "street": "Markt 1"}, 
{"plz": "01619", "ort": "Zeithain", "name": "Zeithain", "street": "Hauptstraße 36 a"}, 
{"plz": "01623", "ort": "Lommatzsch", "name": "Lommatzsch, Stadt", "street": "Am Markt 1"}, 
{"plz": "01640", "ort": "Coswig", "name": "Coswig, Stadt", "street": "Karrasstraße 2"}, 
{"plz": "01662", "ort": "Meißen", "name": "Meißen, Stadt", "street": "Markt 1"}, 
{"plz": "01665", "ort": "Klipphausen", "name": "Klipphausen", "street": "Talstraße 3"}, 
{"plz": "01665", "ort": "Käbschütztal", "name": "Käbschütztal", "street": "Kirchgasse 4 a"}, 
{"plz": "01665", "ort": "Diera-Zehren", "name": "Diera-Zehren", "street": "Am Göhrischblick 1"}, 
{"plz": "01683", "ort": "Nossen", "name": "Nossen, Stadt", "street": "Markt 31"}, 
{"plz": "01689", "ort": "Niederau", "name": "Niederau", "street": "Rathenaustraße 4"}, 
{"plz": "01689", "ort": "Weinböhla", "name": "Weinböhla", "street": "Rathausplatz 2"}, 
{"plz": "01705", "ort": "Freital", "name": "Freital, Stadt", "street": "Dresdner Straße 56"}, 
{"plz": "01723", "ort": "Wilsdruff", "name": "Wilsdruff, Stadt", "street": "Nossener Straße 20"}, 
{"plz": "01728", "ort": "Bannewitz", "name": "Bannewitz", "street": "Schulstraße 6"}, 
{"plz": "01731", "ort": "Kreischa", "name": "Kreischa", "street": "Dresdner Straße 10"}, 
{"plz": "01734", "ort": "Rabenau", "name": "Rabenau, Stadt", "street": "Markt 3"}, 
{"plz": "01737", "ort": "Tharandt", "name": "Tharandt, Stadt", "street": "Schillerstraße 5"}, 
{"plz": "01738", "ort": "Dorfhain", "name": "Dorfhain", "street": "Schulstraße 4"}, 
{"plz": "01744", "ort": "Dippoldiswalde", "name": "Dippoldiswalde, Stadt", "street": "Markt 2"}, 
{"plz": "01768", "ort": "Glashütte", "name": "Glashütte, Stadt", "street": "Hauptstraße 42"}, 
{"plz": "01773", "ort": "Altenberg", "name": "Hermsdorf/Erzgeb.", "street": "Platz des Bergmanns 2"}, 
{"plz": "01774", "ort": "Klingenberg", "name": "Hartmannsdorf-Reichenau", "street": "Schulweg 1"}, 
{"plz": "01776", "ort": "Hermsdorf", "name": "Hermsdorf/Erzgeb.", "street": "Kirchplatz 2"}, 
{"plz": "01796", "ort": "Dohma", "name": "Dohma", "street": "Zum Heideberg 18"}, 
{"plz": "01796", "ort": "Struppen", "name": "Struppen", "street": "Hauptstraße 48"}, 
{"plz": "01796", "ort": "Pirna", "name": "Pirna, Stadt", "street": "Am Markt 1/2"}, 
{"plz": "01809", "ort": "Dohna", "name": "Dohna, Stadt", "street": "Am Markt 11"}, 
{"plz": "01809", "ort": "Heidenau", "name": "Heidenau, Stadt", "street": "Dresdner Straße 47"}, 
{"plz": "01809", "ort": "Müglitztal", "name": "Müglitztal", "street": "Schulstraße 18"}, 
{"plz": "01814", "ort": "Rathmannsdorf", "name": "Rathmannsdorf", "street": "Hohnsteiner Straße 13"}, 
{"plz": "01814", "ort": "Bad Schandau", "name": "Reinhardtsdorf-Schöna", "street": "Dresdner Straße 3"}, 
{"plz": "01814", "ort": "Reinhardtsdorf", "name": "Reinhardtsdorf-Schöna", "street": "Waldbadstraße 52 d/e"}, 
{"plz": "01816", "ort": "Bad Gottleuba-Berggießhübel", "name": "Bad Gottleuba-Berggießhübel, Stadt", "street": "Königstraße 5"}, 
{"plz": "01819", "ort": "Bahretal", "name": "Bahretal", "street": "Gersdorf 31"}, 
{"plz": "01824", "ort": "Königstein", "name": "Königstein/Sächs. Schw., Stadt", "street": "Goethestraße 7"}, 
{"plz": "01824", "ort": "Gohrisch", "name": "Gohrisch", "street": "Neue Hauptstraße 116 b"}, 
{"plz": "01824", "ort": "Rosenthal-Bielatal", "name": "Rosenthal-Bielatal", "street": "Schulstraße 1"}, 
{"plz": "01824", "ort": "Kurort Rathen", "name": "Rathen, Kurort", "street": "Füllhölzelweg 1"}, 
{"plz": "01825", "ort": "Liebstadt", "name": "Liebstadt, Stadt", "street": "Kirchplatz 2"}, 
{"plz": "01829", "ort": "Stadt Wehlen", "name": "Stadt Wehlen, Stadt", "street": "Markt 5"}, 
{"plz": "01833", "ort": "Stolpen", "name": "Stolpen, Stadt", "street": "Markt 1"}, 
{"plz": "01833", "ort": "Dürrröhrsdorf-Dittersbach", "name": "Dürrröhrsdorf-Dittersbach", "street": "Hauptstraße 122"}, 
{"plz": "01844", "ort": "Neustadt in Sachsen", "name": "Neustadt in Sachsen, Stadt", "street": "Markt 1"}, 
{"plz": "01847", "ort": "Lohmen", "name": "Stadt Wehlen, Stadt", "street": "Schloß Lohmen 1"}, 
{"plz": "01848", "ort": "Hohnstein", "name": "Hohnstein, Stadt", "street": "Rathausstraße 10"}, 
{"plz": "01855", "ort": "Sebnitz", "name": "Sebnitz, Stadt", "street": "Kirchstraße 5"}, 
{"plz": "01877", "ort": "Demitz-Thumitz", "name": "Demitz-Thumitz", "street": "Hauptstraße 43"}, 
{"plz": "01877", "ort": "Rammenau", "name": "Rammenau", "street": "Hauptstraße 16"}, 
{"plz": "01877", "ort": "Bischofswerda", "name": "Bischofswerda, Stadt", "street": "Altmarkt 1"}, 
{"plz": "01877", "ort": "Schmölln-Putzkau", "name": "Schmölln-Putzkau", "street": "Schulweg 1"}, 
{"plz": "01896", "ort": "Lichtenberg", "name": "Lichtenberg", "street": "Hauptstraße 11"}, 
{"plz": "01896", "ort": "Pulsnitz", "name": "Pulsnitz, Stadt", "street": "Am Markt 1"}, 
{"plz": "01896", "ort": "Ohorn", "name": "Ohorn", "street": "Schulstraße 2"}, 
{"plz": "01900", "ort": "Großröhrsdorf", "name": "Großröhrsdorf, Stadt", "street": "Rathausplatz 1"}, 
{"plz": "01904", "ort": "Steinigtwolmsdorf", "name": "Steinigtwolmsdorf", "street": "Am Markt 1"}, 
{"plz": "01904", "ort": "Neukirch", "name": "Neukirch/Lausitz", "street": "Hauptstraße 20"}, 
{"plz": "01906", "ort": "Burkau", "name": "Burkau / Porchow", "street": "Hauptstraße 241"}, 
{"plz": "01909", "ort": "Großharthau", "name": "Frankenthal", "street": "Wesenitzweg 6"}, 
{"plz": "01909", "ort": "Frankenthal", "name": "Frankenthal", "street": "Lindenstraße 4"}, 
{"plz": "01917", "ort": "Kamenz", "name": "Kamenz / Kamjenc, Stadt", "street": "Markt 1"}, 
{"plz": "01920", "ort": "Panschwitz-Kuckau", "name": "Ralbitz-Rosenthal / Ralbicy-Róžant", "street": "Poststraße 8"}, 
{"plz": "01920", "ort": "Ralbitz-Rosenthal", "name": "Ralbitz-Rosenthal / Ralbicy-Róžant", "street": "Am Marienbrunnen 8"}, 
{"plz": "01920", "ort": "Räckelwitz", "name": "Räckelwitz / Worklecy", "street": "Hauptstraße 41"}, 
{"plz": "01920", "ort": "Crostwitz", "name": "Crostwitz / Chrósćicy", "street": "Hornigstraße 34"}, 
{"plz": "01920", "ort": "Nebelschütz", "name": "Nebelschütz / Njebjelčicy", "street": "Hauptstraße 9"}, 
{"plz": "01920", "ort": "Steina", "name": "Steina", "street": "Hauptstraße 64"}, 
{"plz": "01920", "ort": "Haselbachtal", "name": "Haselbachtal", "street": "Schulstraße 7 a"}, 
{"plz": "01920", "ort": "Oßling", "name": "Oßling / Wóslink", "street": "Schulstraße 10"}, 
{"plz": "01920", "ort": "Elstra", "name": "Elstra / Halštrow, Stadt", "street": "Am Markt 1"}, 
{"plz": "01936", "ort": "Königsbrück", "name": "Königsbrück, Stadt", "street": "Markt 20"}, 
{"plz": "01936", "ort": "Neukirch", "name": "Neukirch", "street": "Weststraße 9"}, 
{"plz": "01936", "ort": "Schwepnitz", "name": "Schwepnitz", "street": "Dresdner Straße 4"}, 
{"plz": "01936", "ort": "Großnaundorf", "name": "Großnaundorf", "street": "Pulsnitzer Straße 1"}, 
{"plz": "01936", "ort": "Laußnitz", "name": "Laußnitz", "street": "Schulstraße10"}, 
{"plz": "01945", "ort": "Ruhland", "name": "Ruhland, Stadt", "street": "Rudolf-Breitscheid-Straße 4"}, 
{"plz": "01968", "ort": "Senftenberg", "name": "Senftenberg/Zły Komorow, Stadt", "street": "Markt 1"}, 
{"plz": "01979", "ort": "Lauchhammer", "name": "Lauchhammer, Stadt", "street": "Liebenwerdaer Straße 69"}, 
{"plz": "01983", "ort": "Großräschen", "name": "Großräschen/Rań, Stadt", "street": "Seestraße 16"}, 
{"plz": "01987", "ort": "Schwarzheide", "name": "Schwarzheide, Stadt", "street": "Ruhlander Straße 102"}, 
{"plz": "01990", "ort": "Ortrand", "name": "Ortrand, Stadt", "street": "Altmarkt 1"}, 
{"plz": "01998", "ort": "Schipkau OT Klettwitz", "name": "Schipkau", "street": "Schulstraße 4"}]