[{"plz": "03044", "ort": "Cottbus", "name": "Cottbus Stadtbüro", "street": "Karl-Marx-Str. 67", "phone": "0355-612-2070", "email": "buergerservice@cottbus.de"}, 
{"plz": "03046", "ort": "Cottbus", "name": "Cottbus/Chóśebuz, Stadt", "street": "Neumarkt 5"}, 
{"plz": "03058", "ort": "Neuhausen/Spree", "name": "Neuhausen/Spree / Kopańce/Sprjewja", "street": "Amtsweg 1"}, 
{"plz": "03096", "ort": "Burg (Spreewald)", "name": "Schmogrow-Fehrow/Smogorjow-Prjawoz", "street": "Hauptstraße 46"}, 
{"plz": "03099", "ort": "Kolkwitz", "name": "Kolkwitz/Gołkojce", "street": "Berliner Straße 19"}, 
{"plz": "03116", "ort": "Drebkau", "name": "Drebkau/Drjowk, Stadt", "street": "Spremberger Straße 61"}, 
{"plz": "03119", "ort": "Welzow", "name": "Welzow/Wjelcej, Stadt", "street": "Poststraße 8"}, 
{"plz": "03130", "ort": "Spremberg", "name": "Spremberg/Grodk, Stadt", "street": "Am Markt 1"}, 
{"plz": "03149", "ort": "Forst (Lausitz)", "name": "Forst (Lausitz)/Baršć (Łužyca), Stadt", "street": "Lindenstraße 10-12"}, 
{"plz": "03159", "ort": "Döbern", "name": "Neiße-Malxetal/Dolina Nysa-Małksa", "street": "Forster Straße 8"}, 
{"plz": "03172", "ort": "Schenkendöbern OT Schenkendöbern", "name": "Schenkendöbern/Derbno", "street": "Gemeindeallee 45"}, 
{"plz": "03172", "ort": "Guben", "name": "Guben, Stadt", "street": "Gasstraße 4"}, 
{"plz": "03185", "ort": "Peitz", "name": "Turnow-Preilack/Turnow-Pśiłuk", "street": "Schulstraße 6"}, 
{"plz": "03205", "ort": "Calau", "name": "Calau/Kalawa, Stadt", "street": "Platz des Friedens 10"}, 
{"plz": "03222", "ort": "Lübbenau/Spreewald", "name": "Lübbenau/Spreewald / Lubnjow/Błota, Stadt", "street": "Kirchplatz 1"}, 
{"plz": "03226", "ort": "Vetschau/Spreewald", "name": "Vetschau/Spreewald / Wětošow/Błota, Stadt", "street": "Schloßstraße 10"}, 
{"plz": "03229", "ort": "Altdöbern", "name": "Neu-Seeland/Nowa Jazorina", "street": "Marktstraße 1"}, 
{"plz": "03238", "ort": "Massen-Niederlausitz", "name": "Lichterfeld-Schacksdorf", "street": "Turmstraße 5"}, 
{"plz": "03238", "ort": "Finsterwalde", "name": "Finsterwalde, Stadt", "street": "Schloßstraße 7-8"}, 
{"plz": "03249", "ort": "Sonnewalde", "name": "Sonnewalde, Stadt", "street": "Schulstraße 3"}, 
{"plz": "03253", "ort": "Schönborn", "name": "Rückersdorf", "street": "Kindergartenstraße 2a"}, 
{"plz": "03253", "ort": "Doberlug-Kirchhain", "name": "Doberlug-Kirchhain, Stadt", "street": "Am Markt 8"}]