[{"plz": "04109", "ort": "Leipzig", "name": "Leipzig Otto-Schill-Str. - Hauptamt", "street": "Markgrafenstr. 3", "phone": "0341-123-0", "email": "buergeramt@leipzig.de"}, 
{"plz": "04109", "ort": "Leipzig", "name": "Leipzig, Stadt", "street": "Martin-Luther-Ring 4-6"}, 
{"plz": "04155", "ort": "Leipzig", "name": "Leipzig Gohlis-Center", "street": "Elsbethstr. 19-25", "phone": "0341-123-0", "email": "buergeramt@leipzig.de"}, 
{"plz": "04158", "ort": "Leipzig", "name": "Leipzig Wiederitzsch", "street": "Delitzscher Landstr. 55", "phone": "0341-123-0", "email": "buergeramt@leipzig.de"}, 
{"plz": "04158", "ort": "Leipzig", "name": "Leipzig Gohlis-Center Außenstelle Lindenthal", "street": "Erich-Thiele-Str. 2", "phone": "0341-123-0", "email": "buergeramt@leipzig.de"}, 
{"plz": "04159", "ort": "Leipzig", "name": "Leipzig Gohlis-Center (Lützschena-Stahmeln)", "street": "Am Brunnen 4", "phone": "0341-123-0", "email": "buergeramt@leipzig.de"}, 
{"plz": "04178", "ort": "Leipzig", "name": "Leipzig Böhlitz-Ehrenberg", "street": "Am Markt 10", "phone": "0341-123-0", "email": "buergeramt@leipzig.de"}, 
{"plz": "04179", "ort": "Leipzig", "name": "Leipzig Leutzsch", "street": "Georg-Schwarz-Str. 140", "phone": "0341-123-0", "email": "buergeramt@leipzig.de"}, 
{"plz": "04209", "ort": "Leipzig", "name": "Leipzig Ratzelbogen", "street": "Kiewer Str. 1-3", "phone": "0341-123-0", "email": "buergeramt@leipzig.de"}, 
{"plz": "04249", "ort": "Leipzig", "name": "Leipzig Südwest-Zentrum", "street": "Bismarckstr. 39", "phone": "0341-123-0", "email": "buergeramt@leipzig.de"}, 
{"plz": "04277", "ort": "Leipzig", "name": "Leipzig Wiedebach-Passage", "street": "Biedermannstr. 9-13", "phone": "0341-123-0", "email": "buergeramt@leipzig.de"}, 
{"plz": "04288", "ort": "Leipzig", "name": "Leipzig Liebertwolkwitz Aussenstelle Holzhausen", "street": "Hauptstr. 48 H", "phone": "0341-123-0", "email": "buergeramt@leipzig.de"}, 
{"plz": "04288", "ort": "Leipzig", "name": "Leipzig Liebertwolkwitz", "street": "Liebertwolkwitzer Markt 1", "phone": "0341-123-0", "email": "buergeramt@leipzig.de"}, 
{"plz": "04317", "ort": "Leipzig", "name": "Leipzig Stötteritzer Str.", "street": "Stötteritzer Str. 28", "phone": "0341-123-0", "email": "buergeramt@leipzig.de"}, 
{"plz": "04329", "ort": "Leipzig", "name": "Leipzig Paunsdorf-Center", "street": "Paunsdorfer Allee 1", "phone": "0341-123-0", "email": "buergeramt@leipzig.de"}, 
{"plz": "04347", "ort": "Leipzig", "name": "Leipzig Schönefeld", "street": "Ossietzkystr. 37", "phone": "0341-123-0", "email": "buergeramt@leipzig.de"}, 
{"plz": "04416", "ort": "Markkleeberg", "name": "Markkleeberg, Stadt", "street": "Rathausplatz 1"}, 
{"plz": "04420", "ort": "Markranstädt", "name": "Markranstädt, Stadt", "street": "Markt 1"}, 
{"plz": "04425", "ort": "Taucha", "name": "Taucha, Stadt", "street": "Schloßstraße 13"}, 
{"plz": "04435", "ort": "Schkeuditz", "name": "Schkeuditz, Stadt", "street": "Rathausplatz 3"}, 
{"plz": "04442", "ort": "Zwenkau", "name": "Zwenkau, Stadt", "street": "Bürgermeister-Ahnert-Platz 1"}, 
{"plz": "04451", "ort": "Borsdorf", "name": "Borsdorf", "street": "Rathausstraße 1"}, 
{"plz": "04463", "ort": "Großpösna", "name": "Großpösna", "street": "Im Rittergut 1"}, 
{"plz": "04509", "ort": "Wiedemar", "name": "Wiedemar", "street": "Kyhnaer Hauptstraße 29"}, 
{"plz": "04509", "ort": "Delitzsch", "name": "Delitzsch, Stadt", "street": "Markt 3"}, 
{"plz": "04509", "ort": "Krostitz", "name": "Schönwölkau", "street": "Dübener Straße 1"}, 
{"plz": "04509", "ort": "Schönwölkau", "name": "Schönwölkau", "street": "Parkstraße 11"}, 
{"plz": "04509", "ort": "Löbnitz", "name": "Löbnitz", "street": "Parkstraße 15"}, 
{"plz": "04519", "ort": "Rackwitz", "name": "Rackwitz", "street": "Hauptstraße 11"}, 
{"plz": "04523", "ort": "Pegau", "name": "Elstertrebnitz", "street": "Markt 1"}, 
{"plz": "04523", "ort": "Elstertrebnitz", "name": "Elstertrebnitz", "street": "D 64"}, 
{"plz": "04539", "ort": "Groitzsch", "name": "Groitzsch, Stadt", "street": "Markt 1"}, 
{"plz": "04552", "ort": "Borna", "name": "Borna, Stadt", "street": "Markt 1"}, 
{"plz": "04564", "ort": "Böhlen", "name": "Böhlen, Stadt", "street": "Karl-Marx-Straße 5"}, 
{"plz": "04565", "ort": "Regis-Breitingen", "name": "Regis-Breitingen, Stadt", "street": "Rathausstraße 25"}, 
{"plz": "04567", "ort": "Kitzscher", "name": "Kitzscher, Stadt", "street": "Ernst-Schneller-Straße 1"}, 
{"plz": "04571", "ort": "Rötha", "name": "Rötha, Stadt", "street": "Rathausstraße 4"}, 
{"plz": "04575", "ort": "Neukieritzsch", "name": "Neukieritzsch", "street": "Schulplatz 3"}, 
{"plz": "04600", "ort": "Altenburg/Thür.", "name": "Altenburg, Stadt", "street": "Markt 1"}, 
{"plz": "04603", "ort": "Nobitz", "name": "Langenleuba-Niederhain", "street": "Bachstraße 1"}, 
{"plz": "04610", "ort": "Meuselwitz", "name": "Meuselwitz, Stadt", "street": "Rathausstraße 1"}, 
{"plz": "04613", "ort": "Lucka", "name": "Lucka, Stadt", "street": "Pegauer Straße 17"}, 
{"plz": "04617", "ort": "Treben", "name": "Windischleuba", "street": "Breite Straße 2"}, 
{"plz": "04617", "ort": "Rositz", "name": "Starkenberg", "street": "Altenburger Straße 48 b"}, 
{"plz": "04626", "ort": "Schmölln/Thür.", "name": "Schmölln, Stadt", "street": "Markt 1"}, 
{"plz": "04626", "ort": "Posterstein", "name": "Vollmershain", "street": "Burgberg 5"}, 
{"plz": "04639", "ort": "Gößnitz", "name": "Gößnitz, Stadt", "street": "Freiheitsplatz 1"}, 
{"plz": "04643", "ort": "Geithain", "name": "Geithain, Stadt", "street": "Markt 11"}, 
{"plz": "04651", "ort": "Bad Lausick", "name": "Bad Lausick, Stadt", "street": "Markt 1"}, 
{"plz": "04654", "ort": "Frohburg", "name": "Frohburg, Stadt", "street": "Markt 13-15"}, 
{"plz": "04668", "ort": "Grimma", "name": "Grimma, Stadt", "street": "Markt 16/17"}, 
{"plz": "04668", "ort": "Parthenstein", "name": "Parthenstein", "street": "Große Gasse 1"}, 
{"plz": "04668", "ort": "Otterwisch", "name": "Otterwisch", "street": "Hauptstraße 7"}, 
{"plz": "04680", "ort": "Colditz", "name": "Colditz, Stadt", "street": "Markt 1"}, 
{"plz": "04683", "ort": "Naunhof", "name": "Naunhof, Stadt", "street": "Markt 1"}, 
{"plz": "04683", "ort": "Belgershain", "name": "Belgershain", "street": "Schloßstraße 1"}, 
{"plz": "04687", "ort": "Trebsen", "name": "Trebsen/Mulde, Stadt", "street": "Markt 13"}, 
{"plz": "04703", "ort": "Leisnig", "name": "Leisnig, Stadt", "street": "Markt 1"}, 
{"plz": "04720", "ort": "Großweitzschen", "name": "Großweitzschen", "street": "Untere Straße 4"}, 
{"plz": "04720", "ort": "Döbeln", "name": "Döbeln, Stadt", "street": "Obermarkt 1"}, 
{"plz": "04736", "ort": "Waldheim", "name": "Waldheim, Stadt", "street": "Niedermarkt 1"}, 
{"plz": "04741", "ort": "Roßwein", "name": "Roßwein, Stadt", "street": "Markt 4"}, 
{"plz": "04746", "ort": "Hartha", "name": "Hartha, Stadt", "street": "Karl-Marx-Straße 32"}, 
{"plz": "04749", "ort": "Jahnatal", "name": "Jahnatal", "street": "Karl-Marx-Straße 8"}, 
{"plz": "04758", "ort": "Liebschützberg", "name": "Liebschützberg", "street": "Straße der Jugend 5"}, 
{"plz": "04758", "ort": "Cavertitz", "name": "Cavertitz", "street": "Friedensstraße 4"}, 
{"plz": "04758", "ort": "Oschatz", "name": "Oschatz, Stadt", "street": "Neumarkt 1"}, 
{"plz": "04769", "ort": "Mügeln", "name": "Mügeln, Stadt", "street": "Markt 1"}, 
{"plz": "04769", "ort": "Naundorf", "name": "Naundorf", "street": "Am Dorfplatz 3"}, 
{"plz": "04774", "ort": "Dahlen", "name": "Dahlen, Stadt", "street": "Markt 4"}, 
{"plz": "04779", "ort": "Wermsdorf", "name": "Wermsdorf", "street": "Altes Jagdschloß 1"}, 
{"plz": "04808", "ort": "Wurzen", "name": "Wurzen, Stadt", "street": "Friedrich-Ebert-Straße 2"}, 
{"plz": "04808", "ort": "Lossatal", "name": "Lossatal", "street": "Karl-Marx-Straße 14"}, 
{"plz": "04808", "ort": "Thallwitz", "name": "Thallwitz", "street": "Dorfplatz 5"}, 
{"plz": "04821", "ort": "Brandis", "name": "Brandis, Stadt", "street": "Markt 1-3"}, 
{"plz": "04827", "ort": "Machern", "name": "Machern", "street": "Schloßplatz 9"}, 
{"plz": "04828", "ort": "Bennewitz", "name": "Bennewitz", "street": "Bahnhofstraße 24"}, 
{"plz": "04838", "ort": "Eilenburg", "name": "Zschepplin", "street": "Torgauer Straße 38"}, 
{"plz": "04838", "ort": "Doberschütz", "name": "Doberschütz", "street": "Breite Straße 17"}, 
{"plz": "04838", "ort": "Eilenburg", "name": "Eilenburg, Stadt", "street": "Marktplatz 1"}, 
{"plz": "04838", "ort": "Zschepplin", "name": "Zschepplin", "street": "Bahnhofstraße 1"}, 
{"plz": "04838", "ort": "Laußig", "name": "Laußig", "street": "Leipziger Straße 23"}, 
{"plz": "04838", "ort": "Jesewitz", "name": "Jesewitz", "street": "Alte Dorfstraße 1"}, 
{"plz": "04849", "ort": "Bad Düben", "name": "Bad Düben, Stadt", "street": "Markt 11"}, 
{"plz": "04860", "ort": "Süptitz", "name": "Dreiheide", "street": "Schulstraße 4"}, 
{"plz": "04860", "ort": "Torgau", "name": "Torgau, Stadt", "street": "Markt 1"}, 
{"plz": "04862", "ort": "Mockrehna", "name": "Mockrehna", "street": "Unterdorf 4"}, 
{"plz": "04874", "ort": "Belgern-Schildau", "name": "Belgern-Schildau, Stadt", "street": "Markt 3"}, 
{"plz": "04880", "ort": "Dommitzsch", "name": "Dommitzsch, Stadt", "street": "Markt 1"}, 
{"plz": "04880", "ort": "Trossin", "name": "Trossin", "street": "Dahlenberger Straße 9"}, 
{"plz": "04880", "ort": "Elsnig", "name": "Elsnig", "street": "Bahnhofstraße 6"}, 
{"plz": "04886", "ort": "Arzberg", "name": "Arzberg", "street": "Platz der Einheit 1"}, 
{"plz": "04886", "ort": "Beilrode", "name": "Beilrode", "street": "Bahnhofstraße 21"}, 
{"plz": "04910", "ort": "Elsterwerda", "name": "Elsterwerda, Stadt", "street": "Hauptstraße 12"}, 
{"plz": "04916", "ort": "Schönewalde", "name": "Schönewalde, Stadt", "street": "Markt 48"}, 
{"plz": "04916", "ort": "Herzberg (Elster)", "name": "Herzberg (Elster), Stadt", "street": "Markt 1"}, 
{"plz": "04924", "ort": "Bad Liebenwerda", "name": "Uebigau-Wahrenbrück, Stadt", "street": "Markt 1"}, 
{"plz": "04928", "ort": "Plessa", "name": "Gorden-Staupitz", "street": "Steinweg 6"}, 
{"plz": "04932", "ort": "Gröden", "name": "Großthiemig", "street": "Großenhainer Straße 25"}, 
{"plz": "04932", "ort": "Röderland", "name": "Röderland", "street": "Am Markt 1"}, 
{"plz": "04936", "ort": "Schlieben", "name": "Schlieben, Stadt", "street": "Herzberger Straße 7"}]