[{"plz": "31008", "ort": "Elze", "name": "Elze, Stadt", "street": "Hauptstraße 61"}, 
{"plz": "31020", "ort": "Salzhemmendorf", "name": "Salzhemmendorf, Flecken", "street": "Hauptstraße 2"}, 
{"plz": "31028", "ort": "Gronau (Leine)", "name": "Gronau (Leine), Stadt", "street": "Blanke Straße 16"}, 
{"plz": "31061", "ort": "Alfeld (Leine)", "name": "Alfeld (Leine), Stadt", "street": "Marktplatz 1"}, 
{"plz": "31073", "ort": "Delligsen", "name": "Delligsen, Flecken", "street": "Schulstraße 2"}, 
{"plz": "31079", "ort": "Sibbesse", "name": "Sibbesse", "street": "Lindenhof 1"}, 
{"plz": "31084", "ort": "Freden (Leine)", "name": "Freden (Leine)", "street": "Am Schillerplatz 4"}, 
{"plz": "31134", "ort": "Hildesheim", "name": "Hildesheim Stadtbüro", "street": "Markt 2\nErdgeschoss Zimmer B 21", "phone": "05121-301-0", "email": "stadtbuero@stadt-hildesheim.de"}, 
{"plz": "31134", "ort": "Hildesheim", "name": "Hildesheim, Stadt", "street": "Markt 1"}, 
{"plz": "31157", "ort": "Sarstedt", "name": "Sarstedt, Stadt", "street": "Steinstraße 22"}, 
{"plz": "31162", "ort": "Bad Salzdetfurth", "name": "Bad Salzdetfurth, Stadt", "street": "Oberstraße 6"}, 
{"plz": "31167", "ort": "Bockenem", "name": "Bockenem, Stadt", "street": "Buchholzmarkt 1"}, 
{"plz": "31171", "ort": "Nordstemmen", "name": "Nordstemmen", "street": "Rathausstraße 3"}, 
{"plz": "31174", "ort": "Schellerten", "name": "Schellerten", "street": "Rathausstraße 8"}, 
{"plz": "31177", "ort": "Harsum", "name": "Harsum", "street": "Oststraße 27"}, 
{"plz": "31180", "ort": "Giesen", "name": "Giesen", "street": "Rathausstraße 27"}, 
{"plz": "31185", "ort": "Söhlde", "name": "Söhlde", "street": "Bürgermeister-Burgdorf-Straße 8"}, 
{"plz": "31188", "ort": "Holle", "name": "Holle", "street": "Am Thie 1"}, 
{"plz": "31191", "ort": "Algermissen", "name": "Algermissen", "street": "Marktstraße 7"}, 
{"plz": "31195", "ort": "Lamspringe", "name": "Lamspringe", "street": "Kloster 3"}, 
{"plz": "31199", "ort": "Diekholzen", "name": "Diekholzen", "street": "Alfelder Straße 5"}, 
{"plz": "31224", "ort": "Peine", "name": "Peine, Stadt", "street": "Kantstraße 5"}, 
{"plz": "31234", "ort": "Edemissen", "name": "Edemissen", "street": "Oelheimer Weg 1"}, 
{"plz": "31241", "ort": "Ilsede", "name": "Ilsede", "street": "Eichstraße 3"}, 
{"plz": "31249", "ort": "Hohenhameln", "name": "Hohenhameln", "street": "Marktstraße 13"}, 
{"plz": "31275", "ort": "Lehrte", "name": "Lehrte, Stadt", "street": "Rathausplatz 1"}, 
{"plz": "31303", "ort": "Burgdorf", "name": "Burgdorf, Stadt", "street": "Vor dem Hannoverschen Tor 1"}, 
{"plz": "31311", "ort": "Uetze", "name": "Uetze", "street": "Marktstraße 9"}, 
{"plz": "31319", "ort": "Sehnde", "name": "Sehnde, Stadt", "street": "Nordstraße 21"}, 
{"plz": "31515", "ort": "Wunstorf", "name": "Wunstorf, Stadt", "street": "Südstraße 1"}, 
{"plz": "31535", "ort": "Neustadt am Rübenberge", "name": "Neustadt am Rübenberge, Stadt", "street": "Nienburger Straße 31"}, 
{"plz": "31542", "ort": "Bad Nenndorf", "name": "Bad Nenndorf, Stadt", "street": "Rodenberger Allee 13"}, 
{"plz": "31547", "ort": "Rehburg-Loccum", "name": "Rehburg-Loccum, Stadt", "street": "Heidtorstraße 2"}, 
{"plz": "31552", "ort": "Rodenberg", "name": "Lauenau, Flecken", "street": "Amtsstraße 5"}, 
{"plz": "31553", "ort": "Sachsenhagen", "name": "Sachsenhagen, Stadt", "street": "Markt 1"}, 
{"plz": "31582", "ort": "Nienburg (Weser)", "name": "Nienburg (Weser), Stadt", "street": "Marktplatz 1"}, 
{"plz": "31592", "ort": "Stolzenau", "name": "Landesbergen", "street": "Am Markt 4"}, 
{"plz": "31595", "ort": "Steyerberg", "name": "Steyerberg, Flecken", "street": "Lange Straße 21"}, 
{"plz": "31600", "ort": "Uchte", "name": "Diepenau, Flecken", "street": "Balkenkamp 1"}, 
{"plz": "31608", "ort": "Marklohe", "name": "Liebenau, Flecken", "street": "Rathausstraße 14"}, 
{"plz": "31627", "ort": "Rohrsen", "name": "Drakenburg, Flecken", "street": "Wilhelmstraße 4"}, 
{"plz": "31634", "ort": "Steimbke", "name": "Linsburg", "street": "Kirchstraße 4"}, 
{"plz": "31655", "ort": "Stadthagen", "name": "Stadthagen, Stadt", "street": "Rathauspassage 1"}, 
{"plz": "31675", "ort": "Bückeburg", "name": "Bückeburg, Stadt", "street": "Marktplatz 2-4"}, 
{"plz": "31683", "ort": "Obernkirchen", "name": "Obernkirchen, Stadt", "street": "Marktplatz 4"}, 
{"plz": "31691", "ort": "Helpsen", "name": "Seggebruch", "street": "Bahnhofstraße 7"}, 
{"plz": "31698", "ort": "Lindhorst", "name": "Lüdersfeld", "street": "Bahnhofstraße 55 a"}, 
{"plz": "31707", "ort": "Bad Eilsen", "name": "Bad Eilsen", "street": "Bückeburger Straße 4"}, 
{"plz": "31712", "ort": "Niedernwöhren", "name": "Wiedensahl, Flecken", "street": "Hauptstraße 46"}, 
{"plz": "31737", "ort": "Rinteln", "name": "Rinteln, Stadt", "street": "Klosterstraße 19"}, 
{"plz": "31749", "ort": "Auetal", "name": "Auetal", "street": "Rehrener Straße 25"}, 
{"plz": "31785", "ort": "Hameln", "name": "Hameln, Stadt", "street": "Rathausplatz 1", "phone": "05151-202-1400", "email": "buergeramt@hameln.de"}, 
{"plz": "31812", "ort": "Bad Pyrmont", "name": "Bad Pyrmont, Stadt", "street": "Rathausstraße 1"}, 
{"plz": "31832", "ort": "Springe", "name": "Springe, Stadt", "street": "Auf dem Burghof 1"}, 
{"plz": "31840", "ort": "Hessisch Oldendorf", "name": "Hessisch Oldendorf, Stadt", "street": "Marktplatz 13"}, 
{"plz": "31848", "ort": "Bad Münder am Deister", "name": "Bad Münder am Deister, Stadt", "street": "Steinhof 1"}, 
{"plz": "31855", "ort": "Aerzen", "name": "Aerzen, Flecken", "street": "Kirchplatz 2"}, 
{"plz": "31860", "ort": "Emmerthal", "name": "Emmerthal", "street": "Berliner Straße 15"}, 
{"plz": "31863", "ort": "Coppenbrügge", "name": "Coppenbrügge, Flecken", "street": "Schloßstraße 2"}]