[{"plz": "32052", "ort": "Herford", "name": "Herford, Hansestadt", "street": "Rathausplatz 1", "phone": "05221-189-810", "email": "buergerberatung@herford.de"}, 
{"plz": "32105", "ort": "Bad Salzuflen", "name": "Bad Salzuflen, Stadt", "street": "Rudolf-Brandes-Allee 19"}, 
{"plz": "32120", "ort": "Hiddenhausen", "name": "Hiddenhausen", "street": "Rathausstraße 1"}, 
{"plz": "32130", "ort": "Enger", "name": "Enger, Widukindstadt", "street": "Bahnhofstraße 44"}, 
{"plz": "32139", "ort": "Spenge", "name": "Spenge, Stadt", "street": "Lange Straße 52-56"}, 
{"plz": "32257", "ort": "Bünde", "name": "Bünde, Stadt", "street": "Bahnhofstraße 15"}, 
{"plz": "32278", "ort": "Kirchlengern", "name": "Kirchlengern", "street": "Rathausplatz 1"}, 
{"plz": "32289", "ort": "Rödinghausen", "name": "Rödinghausen", "street": "Heerstraße 2"}, 
{"plz": "32312", "ort": "Lübbecke", "name": "Lübbecke, Stadt", "street": "Kreishausstraße 2-4"}, 
{"plz": "32339", "ort": "Espelkamp", "name": "Espelkamp, Stadt", "street": "Wilhelm-Kern-Platz 1"}, 
{"plz": "32351", "ort": "Stemwede", "name": "Stemwede", "street": "Buchhofstraße 13 + 17"}, 
{"plz": "32361", "ort": "Preußisch Oldendorf", "name": "Preußisch Oldendorf, Stadt", "street": "Rathausstraße 3"}, 
{"plz": "32369", "ort": "Rahden", "name": "Rahden, Stadt", "street": "Lange Straße 9"}, 
{"plz": "32423", "ort": "Minden", "name": "Minden, Stadt", "street": "Kleiner Domhof 17"}, 
{"plz": "32423", "ort": "Minden", "name": "Minden", "street": "Großer Domhof 2", "phone": "0571-89-0", "email": "buergerbuero@minden.de"}, 
{"plz": "32457", "ort": "Porta Westfalica", "name": "Porta Westfalica, Stadt", "street": "Kempstraße 1"}, 
{"plz": "32469", "ort": "Petershagen", "name": "Petershagen, Stadt", "street": "Bahnhofstraße 63"}, 
{"plz": "32479", "ort": "Hille", "name": "Hille", "street": "Am Rathaus 4"}, 
{"plz": "32545", "ort": "Bad Oeynhausen", "name": "Bad Oeynhausen, Stadt", "street": "Ostkorso 8"}, 
{"plz": "32584", "ort": "Löhne", "name": "Löhne, Stadt", "street": "Oeynhausener Straße 41"}, 
{"plz": "32602", "ort": "Vlotho", "name": "Vlotho, Stadt", "street": "Lange Straße 60"}, 
{"plz": "32609", "ort": "Hüllhorst", "name": "Hüllhorst", "street": "Löhner Straße 1"}, 
{"plz": "32657", "ort": "Lemgo", "name": "Lemgo, Stadt", "street": "Marktplatz 1"}, 
{"plz": "32676", "ort": "Lügde", "name": "Lügde, Stadt der Osterräder", "street": "Am Markt 1"}, 
{"plz": "32683", "ort": "Barntrup", "name": "Barntrup, Stadt", "street": "Mittelstraße 38"}, 
{"plz": "32689", "ort": "Kalletal", "name": "Kalletal", "street": "Rintelner Straße 3"}, 
{"plz": "32694", "ort": "Dörentrup", "name": "Dörentrup", "street": "Poststraße 11"}, 
{"plz": "32699", "ort": "Extertal", "name": "Extertal", "street": "Mittelstraße 36"}, 
{"plz": "32756", "ort": "Detmold", "name": "Detmold", "street": "Grabenstr. 1", "phone": "05231-977-580", "email": "buergerberatung@detmold.de"}, 
{"plz": "32756", "ort": "Detmold", "name": "Detmold, Stadt", "street": "Marktplatz 5"}, 
{"plz": "32791", "ort": "Lage", "name": "Lage, Stadt", "street": "Am Drawen Hof 1"}, 
{"plz": "32805", "ort": "Horn-Bad Meinberg", "name": "Horn-Bad Meinberg, Stadt", "street": "Marktplatz 4"}, 
{"plz": "32816", "ort": "Schieder-Schwalenberg", "name": "Schieder-Schwalenberg, Stadt", "street": "Domäne 3"}, 
{"plz": "32825", "ort": "Blomberg", "name": "Blomberg, Stadt", "street": "Marktplatz 1"}, 
{"plz": "32832", "ort": "Augustdorf", "name": "Augustdorf", "street": "Pivitsheider Straße 16"}, 
{"plz": "32839", "ort": "Steinheim", "name": "Steinheim, Stadt", "street": "Marktstraße 2"}]