[{"plz": "37083", "ort": "Göttingen", "name": "Göttingen", "street": "Hiroshimaplatz 1-4\nNeues Rathaus", "phone": "0551-4004-044", "email": "meldeamt@goettingen.de"}, 
{"plz": "37083", "ort": "Göttingen", "name": "Göttingen, Stadt", "street": "Hiroshimaplatz 1-4"}, 
{"plz": "37115", "ort": "Duderstadt", "name": "Duderstadt, Stadt", "street": "Worbiser Straße 9"}, 
{"plz": "37120", "ort": "Bovenden", "name": "Bovenden, Flecken", "street": "Rathausplatz 1"}, 
{"plz": "37124", "ort": "Rosdorf", "name": "Rosdorf", "street": "Lange Straße 12"}, 
{"plz": "37127", "ort": "Dransfeld", "name": "Dransfeld, Stadt", "street": "Kirchplatz 1"}, 
{"plz": "37130", "ort": "Gleichen", "name": "Gleichen", "street": "Waldstraße 7"}, 
{"plz": "37133", "ort": "Friedland (Groß Schneen)", "name": "Friedland", "street": "Bönneker Straße 2"}, 
{"plz": "37136", "ort": "Ebergötzen", "name": "Landolfshausen", "street": "Vöhreweg 10"}, 
{"plz": "37139", "ort": "Adelebsen", "name": "Adelebsen, Flecken", "street": "Burgstraße 2"}, 
{"plz": "37154", "ort": "Northeim", "name": "Northeim, Stadt", "street": "Scharnhorstplatz 1"}, 
{"plz": "37170", "ort": "Uslar", "name": "Uslar, Stadt", "street": "Graftstraße 7"}, 
{"plz": "37176", "ort": "Nörten-Hardenberg", "name": "Nörten-Hardenberg, Flecken", "street": "Burgstraße 2"}, 
{"plz": "37181", "ort": "Hardegsen", "name": "Hardegsen, Stadt", "street": "Vor dem Tore 1"}, 
{"plz": "37186", "ort": "Moringen", "name": "Moringen, Stadt", "street": "Amtsfreiheit 8/10"}, 
{"plz": "37191", "ort": "Katlenburg-Lindau", "name": "Katlenburg-Lindau", "street": "Bahnhofstraße 6"}, 
{"plz": "37194", "ort": "Bodenfelde", "name": "Bodenfelde, Flecken", "street": "Amelither Straße 23"}, 
{"plz": "37197", "ort": "Hattorf am Harz", "name": "Hattorf am Harz", "street": "Otto-Escher-Straße 12"}, 
{"plz": "37213", "ort": "Witzenhausen", "name": "Witzenhausen, Stadt", "street": "Am Markt 1"}, 
{"plz": "37235", "ort": "Hessisch Lichtenau", "name": "Hessisch Lichtenau, Stadt", "street": "Landgrafenstraße 52"}, 
{"plz": "37242", "ort": "Bad Sooden-Allendorf", "name": "Bad Sooden-Allendorf, Stadt", "street": "Marktplatz 8"}, 
{"plz": "37247", "ort": "Großalmerode", "name": "Großalmerode, Stadt", "street": "Marktplatz 11"}, 
{"plz": "37249", "ort": "Neu-Eichenberg", "name": "Neu-Eichenberg", "street": "Lange Straße 27"}, 
{"plz": "37269", "ort": "Eschwege", "name": "Eschwege, Kreisstadt", "street": "Obermarkt 22"}, 
{"plz": "37276", "ort": "Meinhard", "name": "Meinhard", "street": "Sandstraße 15"}, 
{"plz": "37281", "ort": "Wanfried", "name": "Wanfried, Stadt", "street": "Marktstraße 18"}, 
{"plz": "37284", "ort": "Waldkappel", "name": "Waldkappel, Stadt", "street": "Leipziger Straße 34"}, 
{"plz": "37287", "ort": "Wehretal", "name": "Wehretal", "street": "Landstraße 70"}, 
{"plz": "37290", "ort": "Meißner", "name": "Meißner", "street": "Hinterweg 4"}, 
{"plz": "37293", "ort": "Herleshausen", "name": "Herleshausen", "street": "Bahnhofstraße 15"}, 
{"plz": "37296", "ort": "Ringgau", "name": "Ringgau", "street": "Am Anger 3"}, 
{"plz": "37297", "ort": "Berkatal", "name": "Berkatal", "street": "Berkastraße 54"}, 
{"plz": "37299", "ort": "Weißenborn", "name": "Weißenborn", "street": "Kirchplatz 1"}, 
{"plz": "37308", "ort": "Bodenrode-Westhausen", "name": "Bodenrode-Westhausen", "street": "Hauptstraße 73"}, 
{"plz": "37308", "ort": "Schimberg", "name": "Pfaffschwende", "street": "Kreisstraße 4"}, 
{"plz": "37308", "ort": "Heilbad Heiligenstadt", "name": "Heilbad Heiligenstadt, Stadt", "street": "Marktplatz 15 / Rathaus"}, 
{"plz": "37318", "ort": "Hohengandern", "name": "Gerbershausen", "street": "Steingraben 49"}, 
{"plz": "37318", "ort": "Uder", "name": "Dietzenrode/Vatterode", "street": "Siedlung 14"}, 
{"plz": "37327", "ort": "Leinefelde-Worbis", "name": "Leinefelde-Worbis Leinefelde", "street": "Bahnhofstr. 43\nRathaus Wasserturm", "phone": "03605-200-0", "email": "buergerbuero@leinefelde-worbis.de"}, 
{"plz": "37327", "ort": "Leinefelde-Worbis", "name": "Leinefelde-Worbis, Stadt", "street": "Bahnhofstraße 43"}, 
{"plz": "37339", "ort": "Teistungen", "name": "Berlingerode", "street": "Hauptstraße 17"}, 
{"plz": "37339", "ort": "Breitenworbis", "name": "Breitenworbis", "street": "Weststraße 2"}, 
{"plz": "37339", "ort": "Leinefelde-Worbis", "name": "Leinefelde-Worbis Worbis", "street": "Rossmarkt 2", "phone": "036074-200-300", "email": "buergerbuero@leinefelde-worbis.de"}, 
{"plz": "37345", "ort": "Sonnenstein", "name": "Sonnenstein", "street": "Bahnhofstraße 12"}, 
{"plz": "37345", "ort": "Am Ohmberg", "name": "Am Ohmberg", "street": "Fleckenstraße 49"}, 
{"plz": "37351", "ort": "Dingelstädt", "name": "Dingelstädt, Stadt", "street": "Geschwister-Scholl-Straße 26-28"}, 
{"plz": "37355", "ort": "Niederorschel", "name": "Niederorschel", "street": "Bergstraße 51"}, 
{"plz": "37359", "ort": "Küllstedt", "name": "Großbartloff", "street": "Neue Straße 16"}, 
{"plz": "37412", "ort": "Herzberg am Harz", "name": "Herzberg am Harz, Stadt", "street": "Marktplatz 30"}, 
{"plz": "37431", "ort": "Bad Lauterberg im Harz", "name": "Bad Lauterberg im Harz, Stadt", "street": "Ritscherstraße 4"}, 
{"plz": "37434", "ort": "Gieboldehausen", "name": "Gieboldehausen, Flecken", "street": "Hahlestraße 1"}, 
{"plz": "37441", "ort": "Bad Sachsa", "name": "Bad Sachsa, Stadt", "street": "Bismarckstraße 1"}, 
{"plz": "37445", "ort": "Walkenried", "name": "Walkenried", "street": "Bahnhofstraße 17"}, 
{"plz": "37520", "ort": "Osterode am Harz", "name": "Osterode am Harz, Stadt", "street": "Eisensteinstraße 1"}, 
{"plz": "37539", "ort": "Bad Grund (Harz)", "name": "Bad Grund (Harz)", "street": "An der Mühlenwiese 1"}, 
{"plz": "37574", "ort": "Einbeck", "name": "Einbeck, Stadt", "street": "Teichenweg 1"}, 
{"plz": "37581", "ort": "Bad Gandersheim", "name": "Bad Gandersheim, Stadt", "street": "Markt 10"}, 
{"plz": "37586", "ort": "Dassel", "name": "Dassel, Stadt", "street": "Kirchplatz 2"}, 
{"plz": "37589", "ort": "Kalefeld", "name": "Kalefeld", "street": "Kleiner Hagen 4"}, 
{"plz": "37603", "ort": "Holzminden", "name": "Holzminden", "street": "Neue Str. 12", "phone": "05531-959-242", "email": "stadt@holzminden.de"}, 
{"plz": "37603", "ort": "Holzminden", "name": "Holzminden, Stadt", "street": "Neue Straße 12"}, 
{"plz": "37619", "ort": "Bodenwerder", "name": "Bodenwerder, Münchhausenstadt", "street": "Münchhausenplatz 1"}, 
{"plz": "37627", "ort": "Stadtoldendorf", "name": "Stadtoldendorf, Stadt", "street": "Kirchstraße 4"}, 
{"plz": "37639", "ort": "Bevern", "name": "Bevern, Flecken", "street": "Angerstraße 13a"}, 
{"plz": "37671", "ort": "Höxter", "name": "Höxter, Stadt", "street": "Westerbachstraße 45"}, 
{"plz": "37688", "ort": "Beverungen", "name": "Beverungen, Stadt", "street": "Weserstraße 12"}, 
{"plz": "37691", "ort": "Boffzen", "name": "Lauenförde, Flecken", "street": "Heinrich-Ohm-Straße 21"}, 
{"plz": "37696", "ort": "Marienmünster", "name": "Marienmünster, Stadt", "street": "Schulstraße 1"}]