[{"plz": "57072", "ort": "Siegen", "name": "Siegen", "street": "Markt 2\nRathaus Siegen (Raum 100)", "phone": "0271-404-0", "email": "buergerbuero@siegen.de"}, 
{"plz": "57072", "ort": "Siegen", "name": "Siegen, Universitätsstadt", "street": "Markt 2"}, 
{"plz": "57076", "ort": "Siegen", "name": "Siegen Weidenau", "street": "Weidenauer Str. 211-213\nRathaus Weidenau", "phone": "0271-404-2024", "email": "buergerbuero@siegen.de"}, 
{"plz": "57078", "ort": "Siegen", "name": "Siegen Geisweid", "street": "Lindenplatz 7\nRathaus Geisweid (Raum 32)", "phone": "0271-404-3401", "email": "buergerbuero@siegen.de"}, 
{"plz": "57080", "ort": "Siegen", "name": "Siegen Eiserfeld", "street": "Siegtalstr. 2\nim Gebäude der Sparkasse", "phone": "0271-404-1701", "email": "buergerbuero@siegen.de"}, 
{"plz": "57223", "ort": "Kreuztal", "name": "Kreuztal, Stadt", "street": "Siegener Straße 5"}, 
{"plz": "57234", "ort": "Wilnsdorf", "name": "Wilnsdorf", "street": "Marktplatz 1"}, 
{"plz": "57250", "ort": "Netphen", "name": "Netphen, Stadt", "street": "Amtsstraße 2 + 6"}, 
{"plz": "57258", "ort": "Freudenberg", "name": "Freudenberg, Stadt", "street": "Mórer Platz 1"}, 
{"plz": "57271", "ort": "Hilchenbach", "name": "Hilchenbach, Stadt", "street": "Markt 13"}, 
{"plz": "57290", "ort": "Neunkirchen", "name": "Neunkirchen", "street": "Bahnhofstraße 3"}, 
{"plz": "57299", "ort": "Burbach", "name": "Burbach", "street": "Eicher Weg 13"}, 
{"plz": "57319", "ort": "Bad Berleburg", "name": "Bad Berleburg, Stadt", "street": "Poststraße 42"}, 
{"plz": "57334", "ort": "Bad Laasphe", "name": "Bad Laasphe, Stadt", "street": "Mühlenstraße 20"}, 
{"plz": "57339", "ort": "Erndtebrück", "name": "Erndtebrück", "street": "Talstraße 27"}, 
{"plz": "57368", "ort": "Lennestadt", "name": "Lennestadt, Stadt", "street": "Thomas-Morus-Platz 1"}, 
{"plz": "57392", "ort": "Schmallenberg", "name": "Schmallenberg, Stadt", "street": "Unterm Werth 1"}, 
{"plz": "57399", "ort": "Kirchhundem", "name": "Kirchhundem", "street": "Hundemstraße 35"}, 
{"plz": "57413", "ort": "Finnentrop", "name": "Finnentrop", "street": "Am Markt 1"}, 
{"plz": "57439", "ort": "Attendorn", "name": "Attendorn, Hansestadt", "street": "Kölner Straße 12"}, 
{"plz": "57462", "ort": "Olpe", "name": "Olpe, Stadt", "street": "Franziskanerstraße 6"}, 
{"plz": "57482", "ort": "Wenden", "name": "Wenden", "street": "Hauptstraße 75"}, 
{"plz": "57489", "ort": "Drolshagen", "name": "Drolshagen, Stadt", "street": "Hagener Straße 9"}, 
{"plz": "57518", "ort": "Betzdorf", "name": "Rosenheim (Landkreis Altenkirchen)", "street": "Hellerstraße 2"}, 
{"plz": "57537", "ort": "Wissen", "name": "Birken-Honigsessen", "street": "Rathausstraße 75"}, 
{"plz": "57548", "ort": "Kirchen (Sieg)", "name": "Kirchen (Sieg), Stadt", "street": "Lindenstraße 1"}, 
{"plz": "57567", "ort": "Daaden", "name": "Niederdreisbach", "street": "Bahnhofstraße 4"}, 
{"plz": "57577", "ort": "Hamm (Sieg)", "name": "Hamm (Sieg), Raiffeisengemeinde", "street": "Lindenallee 2"}, 
{"plz": "57610", "ort": "Altenkirchen (Westerwald)", "name": "Altenkirchen (Westerwald), Stadt", "street": "Rathausstraße 13"}, 
{"plz": "57627", "ort": "Hachenburg", "name": "Steinebach an der Wied", "street": "Gartenstraße 11"}]