[{"plz": "56068", "ort": "Koblenz", "name": "Koblenz, Stadt", "street": "Willi-Hörter-Platz 1"}, 
{"plz": "56068", "ort": "Koblenz", "name": "Koblenz", "street": "Gymnasialstr. 6", "phone": "0261-129-7000", "email": "buergeramt@stadt.koblenz.de"}, 
{"plz": "56112", "ort": "Lahnstein", "name": "Lahnstein, Stadt", "street": "Kirchstraße 1"}, 
{"plz": "56130", "ort": "Bad Ems", "name": "Dornholzhausen", "street": "Bleichstraße 1"}, 
{"plz": "56154", "ort": "Boppard", "name": "Boppard, Stadt", "street": "Karmeliterstraße 2"}, 
{"plz": "56170", "ort": "Bendorf", "name": "Bendorf, Stadt", "street": "Im Stadtpark 1-2"}, 
{"plz": "56179", "ort": "Vallendar", "name": "Vallendar, Stadt", "street": "Rathausplatz 13"}, 
{"plz": "56203", "ort": "Höhr-Grenzhausen", "name": "Höhr-Grenzhausen, Stadt", "street": "Rathausstraße 48"}, 
{"plz": "56235", "ort": "Ransbach-Baumbach", "name": "Ransbach-Baumbach, Stadt", "street": "Rheinstraße 50"}, 
{"plz": "56242", "ort": "Selters (Westerwald)", "name": "Selters (Westerwald), Stadt", "street": "Am Saynbach 5-7"}, 
{"plz": "56269", "ort": "Dierdorf", "name": "Dierdorf, Stadt", "street": "Poststraße 5"}, 
{"plz": "56281", "ort": "Emmelshausen", "name": "Emmelshausen, Stadt", "street": "Rathausstraße 1"}, 
{"plz": "56288", "ort": "Kastellaun", "name": "Kastellaun, Stadt", "street": "Kirchstraße 1"}, 
{"plz": "56305", "ort": "Puderbach", "name": "Rodenbach bei Puderbach", "street": "Hauptstraße 13"}, 
{"plz": "56330", "ort": "Kobern-Gondorf", "name": "Kobern-Gondorf", "street": "Bahnhofstraße 44"}, 
{"plz": "56346", "ort": "Sankt Goarshausen", "name": "Sankt Goarshausen, Loreleystadt, Stadt", "street": "Dolkstraße 3"}, 
{"plz": "56355", "ort": "Nastätten", "name": "Holzhausen an der Haide", "street": "Bahnhofstraße 1"}, 
{"plz": "56368", "ort": "Katzenelnbogen", "name": "Katzenelnbogen, Stadt", "street": "Burgstraße 1"}, 
{"plz": "56410", "ort": "Montabaur", "name": "Ruppach-Goldhausen", "street": "Konrad-Adenauer-Platz 8"}, 
{"plz": "56414", "ort": "Wallmerod", "name": "Herschbach (Oberwesterwald)", "street": "Gerichtsstraße 1"}, 
{"plz": "56422", "ort": "Wirges", "name": "Dernbach (Westerwald)", "street": "Bahnhofstraße 10"}, 
{"plz": "56457", "ort": "Westerburg", "name": "Stahlhofen am Wiesensee", "street": "Neumarkt 1"}, 
{"plz": "56470", "ort": "Bad Marienberg (Westerwald)", "name": "Bad Marienberg (Westerwald), Stadt", "street": "Kirburger Straße 4"}, 
{"plz": "56477", "ort": "Rennerod", "name": "Zehnhausen bei Rennerod", "street": "Hauptstraße 55"}, 
{"plz": "56564", "ort": "Neuwied", "name": "Neuwied", "street": "Engerser Landstr. 17", "phone": "02631-802-0", "email": "buergerbuero@neuwied.de"}, 
{"plz": "56564", "ort": "Neuwied", "name": "Neuwied, Stadt", "street": "Engerser Landstraße 17"}, 
{"plz": "56575", "ort": "Weißenthurm", "name": "Mülheim-Kärlich, Stadt", "street": "Kärlicher Straße 4"}, 
{"plz": "56579", "ort": "Rengsdorf", "name": "Oberhonnefeld-Gierend", "street": "Westerwaldstraße 32-34"}, 
{"plz": "56626", "ort": "Andernach", "name": "Andernach, Stadt", "street": "Läufstraße 11"}, 
{"plz": "56637", "ort": "Plaidt", "name": "Nickenich", "street": "Rathausstraße 2-4"}, 
{"plz": "56651", "ort": "Niederzissen", "name": "Niederdürenbach", "street": "Kapellenstraße 12"}, 
{"plz": "56727", "ort": "Mayen", "name": "Welschenbach", "street": "Kelberger Straße 26"}, 
{"plz": "56727", "ort": "Mayen", "name": "Mayen, Stadt", "street": "Rosengasse 2"}, 
{"plz": "56743", "ort": "Mendig", "name": "Mendig, Stadt", "street": "Marktplatz 3"}, 
{"plz": "56751", "ort": "Polch", "name": "Münstermaifeld, Stadt", "street": "Marktplatz 4-6"}, 
{"plz": "56759", "ort": "Kaisersesch", "name": "Kaisersesch, Stadt", "street": "Am Römerturm 2"}, 
{"plz": "56766", "ort": "Ulmen", "name": "Bad Bertrich", "street": "Marktplatz 1"}, 
{"plz": "56812", "ort": "Cochem", "name": "Ellenz-Poltersdorf", "street": "Ravenéstraße 61"}, 
{"plz": "56841", "ort": "Traben-Trarbach", "name": "Traben-Trarbach, Stadt", "street": "Am Markt 3"}, 
{"plz": "56856", "ort": "Zell (Mosel)", "name": "Peterswald-Löffelscheid", "street": "Corray 1"}]