[{"plz": "48143", "ort": "Münster", "name": "Münster, Stadt", "street": "Klemensstraße 10"}, 
{"plz": "48143", "ort": "Münster", "name": "Münster Mitte", "street": "Klemensstr. 10\nStadthaus 1", "phone": "0251-492-0", "email": "buergerbuero-mitte@stadt-muenster.de"}, 
{"plz": "48157", "ort": "Münster", "name": "Münster Coerde", "street": "Hamannplatz 39", "phone": "0251-492-1659", "email": "buergerbuero-coerde@stadt-muenster.de"}, 
{"plz": "48157", "ort": "Münster", "name": "Münster Bezirksverwaltung Ost", "street": "Vennemannstr. 5", "phone": "0251-21097-0", "email": "bezirksverwaltung-ost@stadt-muenster.de"}, 
{"plz": "48159", "ort": "Münster", "name": "Münster Bezirksverwaltung Nord", "street": "Idenbrockplatz 8\nim Bürgerhaus Kinderhaus", "phone": "0251-492-1651", "email": "bezirksverwaltung-nord@stadt-muenster.de"}, 
{"plz": "48161", "ort": "Münster", "name": "Münster Bezirksverwaltung West", "street": "Pantaleonplatz 7", "phone": "02534-58854-0", "email": "bezirksverwaltung-west@stadt-muenster.de"}, 
{"plz": "48161", "ort": "Münster", "name": "Münster Gievenbeck", "street": "Rüschhausweg 17", "phone": "0251-492-1647", "email": "buergerbuero-gievenbeck@stadt-muenster.de"}, 
{"plz": "48165", "ort": "Münster", "name": "Münster Bezirksverwaltung Hiltrup", "street": "Patronatsstr. 20", "phone": "0251-492-1631", "email": "bezirksverwaltung-hiltrup@stadt-muenster.de"}, 
{"plz": "48167", "ort": "Münster", "name": "Münster Bezirksverwaltung Südost", "street": "Münsterstr. 7", "phone": "02506-9319-0", "email": "bezirksverwaltung-suedost@stadt-muenster.de"}, 
{"plz": "48167", "ort": "Münster", "name": "Münster Gremmendorf", "street": "Albersloher Weg 550\n(1. OG)", "phone": "0251-492-1668", "email": "buergerbuero-gremmendorf@stadt-muenster.de"}, 
{"plz": "48231", "ort": "Warendorf", "name": "Warendorf, Stadt", "street": "Lange Kesselstraße 4-6"}, 
{"plz": "48249", "ort": "Dülmen", "name": "Dülmen, Stadt", "street": "Markt 1"}, 
{"plz": "48268", "ort": "Greven", "name": "Greven, Stadt", "street": "Rathausstraße 6"}, 
{"plz": "48282", "ort": "Emsdetten", "name": "Emsdetten, Stadt", "street": "Am Markt 1"}, 
{"plz": "48291", "ort": "Telgte", "name": "Telgte, Stadt", "street": "Baßfeld 4-6"}, 
{"plz": "48301", "ort": "Nottuln", "name": "Nottuln", "street": "Stiftsplatz 7-8"}, 
{"plz": "48308", "ort": "Senden", "name": "Senden", "street": "Münsterstraße 30"}, 
{"plz": "48317", "ort": "Drensteinfurt", "name": "Drensteinfurt, Stadt", "street": "Landsbergplatz 7"}, 
{"plz": "48324", "ort": "Sendenhorst", "name": "Sendenhorst, Stadt", "street": "Kirchstraße 1"}, 
{"plz": "48329", "ort": "Havixbeck", "name": "Havixbeck", "street": "Willi-Richter-Platz 1"}, 
{"plz": "48336", "ort": "Sassenberg", "name": "Sassenberg, Stadt", "street": "Schürenstraße 17"}, 
{"plz": "48341", "ort": "Altenberge", "name": "Altenberge", "street": "Kirchstraße 25"}, 
{"plz": "48346", "ort": "Ostbevern", "name": "Ostbevern", "street": "Am Rathaus 1"}, 
{"plz": "48351", "ort": "Everswinkel", "name": "Everswinkel", "street": "Am Magnusplatz 30"}, 
{"plz": "48356", "ort": "Nordwalde", "name": "Nordwalde", "street": "Bispingallee 44"}, 
{"plz": "48361", "ort": "Beelen", "name": "Beelen", "street": "Warendorfer Straße 9"}, 
{"plz": "48366", "ort": "Laer", "name": "Laer", "street": "Mühlenhoek 1"}, 
{"plz": "48369", "ort": "Saerbeck", "name": "Saerbeck, NRW-Klimakommune", "street": "Ferriéres-Straße 11"}, 
{"plz": "48431", "ort": "Rheine", "name": "Rheine", "street": "Klosterstr. 14", "phone": "05971-939-348", "email": "buergerbuero@rheine.de"}, 
{"plz": "48431", "ort": "Rheine", "name": "Rheine, Stadt", "street": "Klosterstraße 14"}, 
{"plz": "48432", "ort": "Rheine", "name": "Rheine Außenstelle Mesum", "street": "Nielandstr. 7", "phone": "05975-93-141", "email": "ausmesum@rheine.de"}, 
{"plz": "48455", "ort": "Bad Bentheim", "name": "Bad Bentheim, Stadt", "street": "Schloßstraße 2"}, 
{"plz": "48465", "ort": "Schüttorf", "name": "Schüttorf, Stadt", "street": "Markt 2"}, 
{"plz": "48477", "ort": "Hörstel", "name": "Hörstel, Stadt", "street": "Kalixtusstraße 6"}, 
{"plz": "48480", "ort": "Spelle", "name": "Schapen", "street": "Hauptstraße 43"}, 
{"plz": "48485", "ort": "Neuenkirchen", "name": "Neuenkirchen", "street": "Hauptstraße 16"}, 
{"plz": "48488", "ort": "Emsbüren", "name": "Emsbüren", "street": "Markt 18"}, 
{"plz": "48493", "ort": "Wettringen", "name": "Wettringen", "street": "Kirchstraße 19"}, 
{"plz": "48496", "ort": "Hopsten", "name": "Hopsten", "street": "Bunte Straße 35"}, 
{"plz": "48499", "ort": "Salzbergen", "name": "Salzbergen", "street": "Franz-Schratz-Straße 12"}, 
{"plz": "48529", "ort": "Nordhorn", "name": "Nordhorn, Stadt", "street": "Bahnhofstraße 24"}, 
{"plz": "48565", "ort": "Steinfurt", "name": "Steinfurt, Stadt", "street": "Emsdettener Straße 40"}, 
{"plz": "48599", "ort": "Gronau (Westf.)", "name": "Gronau (Westf.), Stadt", "street": "Konrad-Adenauer-Straße 1"}, 
{"plz": "48607", "ort": "Ochtrup", "name": "Ochtrup, Stadt", "street": "Prof.-Gärtner-Straße 10"}, 
{"plz": "48612", "ort": "Horstmar", "name": "Horstmar, Stadt der Burgmannshöfe", "street": "Kirchplatz 1-3"}, 
{"plz": "48619", "ort": "Heek", "name": "Heek", "street": "Bahnhofstraße 60"}, 
{"plz": "48624", "ort": "Schöppingen", "name": "Schöppingen", "street": "Amtsstraße 2"}, 
{"plz": "48629", "ort": "Metelen", "name": "Metelen", "street": "Sendplatz 18"}, 
{"plz": "48653", "ort": "Coesfeld", "name": "Coesfeld, Stadt", "street": "Markt 8"}, 
{"plz": "48683", "ort": "Ahaus", "name": "Ahaus, Stadt", "street": "Rathausplatz 1"}, 
{"plz": "48691", "ort": "Vreden", "name": "Vreden, Stadt", "street": "Burgstraße 14"}, 
{"plz": "48703", "ort": "Stadtlohn", "name": "Stadtlohn, Stadt", "street": "Markt 3"}, 
{"plz": "48712", "ort": "Gescher", "name": "Gescher, Glockenstadt", "street": "Marktplatz 1"}, 
{"plz": "48720", "ort": "Rosendahl", "name": "Rosendahl", "street": "Hauptstraße 30"}, 
{"plz": "48727", "ort": "Billerbeck", "name": "Billerbeck, Stadt", "street": "Markt 1"}, 
{"plz": "48734", "ort": "Reken", "name": "Reken", "street": "Kirchstraße 14"}, 
{"plz": "48739", "ort": "Legden", "name": "Legden", "street": "Amtshausstraße 1"}]