[{"plz": "49074", "ort": "Osnabrück", "name": "Osnabrück, Stadt", "street": "Bierstraße 28"}, 
{"plz": "49076", "ort": "Osnabrück", "name": "Osnabrück", "street": "Natruper-Tor-Wall 2\nStadthaus 1", "phone": "0541-323-0", "email": "buergeramt@osnabrueck.de"}, 
{"plz": "49124", "ort": "Georgsmarienhütte", "name": "Georgsmarienhütte, Stadt", "street": "Oeseder Straße 85"}, 
{"plz": "49134", "ort": "Wallenhorst", "name": "Wallenhorst", "street": "Rathausallee 1"}, 
{"plz": "49143", "ort": "Bissendorf", "name": "Bissendorf", "street": "Kirchplatz 1"}, 
{"plz": "49152", "ort": "Bad Essen", "name": "Bad Essen", "street": "Lindenstraße 41/43"}, 
{"plz": "49163", "ort": "Bohmte", "name": "Bohmte", "street": "Bremer Straße 4"}, 
{"plz": "49170", "ort": "Hagen am Teutoburger Wald", "name": "Hagen am Teutoburger Wald", "street": "Schulstraße 7"}, 
{"plz": "49176", "ort": "Hilter am Teutoburger Wald", "name": "Hilter am Teutoburger Wald", "street": "Osnabrücker Straße 1"}, 
{"plz": "49179", "ort": "Ostercappeln", "name": "Ostercappeln", "street": "Gildebrede 1"}, 
{"plz": "49186", "ort": "Bad Iburg", "name": "Bad Iburg, Stadt", "street": "Am Gografenhof 4"}, 
{"plz": "49191", "ort": "Belm", "name": "Belm", "street": "Marktring 13"}, 
{"plz": "49196", "ort": "Bad Laer", "name": "Bad Laer", "street": "Glandorfer Straße 5"}, 
{"plz": "49201", "ort": "Dissen am Teutoburger Wald", "name": "Dissen am Teutoburger Wald, Stadt", "street": "Große Straße 33"}, 
{"plz": "49205", "ort": "Hasbergen", "name": "Hasbergen", "street": "Martin-Luther-Straße 12"}, 
{"plz": "49214", "ort": "Bad Rothenfelde", "name": "Bad Rothenfelde", "street": "Frankfurter Straße 3"}, 
{"plz": "49219", "ort": "Glandorf", "name": "Glandorf", "street": "Münsterstraße 11"}, 
{"plz": "49324", "ort": "Melle", "name": "Melle, Stadt", "street": "Schürenkamp 16"}, 
{"plz": "49356", "ort": "Diepholz", "name": "Diepholz, Stadt", "street": "Rathausmarkt 1"}, 
{"plz": "49377", "ort": "Vechta", "name": "Vechta, Stadt", "street": "Burgstraße 6"}, 
{"plz": "49393", "ort": "Lohne/Oldenburg", "name": "Lohne (Oldenburg), Stadt", "street": "Vogtstraße 26"}, 
{"plz": "49401", "ort": "Damme", "name": "Damme, Stadt", "street": "Mühlenstraße 18"}, 
{"plz": "49406", "ort": "Barnstorf", "name": "Barnstorf, Flecken", "street": "Am Markt 4"}, 
{"plz": "49413", "ort": "Dinklage", "name": "Dinklage, Stadt", "street": "Am Markt 1"}, 
{"plz": "49419", "ort": "Wagenfeld", "name": "Wagenfeld", "street": "Pastorenkamp 25"}, 
{"plz": "49424", "ort": "Goldenstedt", "name": "Goldenstedt", "street": "Hauptstraße 39"}, 
{"plz": "49429", "ort": "Visbek", "name": "Visbek", "street": "Rathausplatz 1"}, 
{"plz": "49434", "ort": "Neuenkirchen-Vörden", "name": "Neuenkirchen-Vörden", "street": "Küsterstraße 4"}, 
{"plz": "49439", "ort": "Steinfeld/Oldenburg", "name": "Steinfeld (Oldenburg)", "street": "Am Rathausplatz 13"}, 
{"plz": "49448", "ort": "Lemförde", "name": "Lemförde, Flecken", "street": "Hauptstraße 80"}, 
{"plz": "49451", "ort": "Holdorf", "name": "Holdorf", "street": "Große Straße 19"}, 
{"plz": "49453", "ort": "Rehden", "name": "Wetschen", "street": "Schulstraße 20"}, 
{"plz": "49456", "ort": "Bakum", "name": "Bakum", "street": "Kirchstraße 3"}, 
{"plz": "49477", "ort": "Ibbenbüren", "name": "Ibbenbüren, Stadt", "street": "Alte Münsterstraße 16"}, 
{"plz": "49492", "ort": "Westerkappeln", "name": "Westerkappeln", "street": "Große Straße 13"}, 
{"plz": "49497", "ort": "Mettingen", "name": "Mettingen", "street": "Markt 6-8"}, 
{"plz": "49504", "ort": "Lotte", "name": "Lotte", "street": "Westerkappelner Straße 19"}, 
{"plz": "49509", "ort": "Recke", "name": "Recke", "street": "Hauptstraße 28"}, 
{"plz": "49525", "ort": "Lengerich", "name": "Lengerich, Stadt", "street": "Tecklenburger Straße 2-4"}, 
{"plz": "49536", "ort": "Lienen", "name": "Lienen", "street": "Hauptstraße 14"}, 
{"plz": "49545", "ort": "Tecklenburg", "name": "Tecklenburg, Stadt", "street": "Landrat-Schultz-Straße 1"}, 
{"plz": "49549", "ort": "Ladbergen", "name": "Ladbergen", "street": "Jahnstraße5"}, 
{"plz": "49565", "ort": "Bramsche", "name": "Bramsche, Stadt", "street": "Hasestraße 11"}, 
{"plz": "49584", "ort": "Fürstenau", "name": "Fürstenau, Stadt", "street": "Schloßplatz 1"}, 
{"plz": "49586", "ort": "Neuenkirchen", "name": "Neuenkirchen", "street": "Alte Poststraße 5-7"}, 
{"plz": "49593", "ort": "Bersenbrück", "name": "Bersenbrück, Stadt", "street": "Lindenstraße 2"}, 
{"plz": "49610", "ort": "Quakenbrück", "name": "Quakenbrück, Stadt", "street": "Markt 1"}, 
{"plz": "49624", "ort": "Löningen", "name": "Löningen, Stadt", "street": "Lindenallee 1"}, 
{"plz": "49632", "ort": "Essen/Oldenburg", "name": "Essen (Oldenburg)", "street": "Peterstraße 7"}, 
{"plz": "49661", "ort": "Cloppenburg", "name": "Cloppenburg, Stadt", "street": "Sevelter Straße 8"}, 
{"plz": "49681", "ort": "Garrel", "name": "Garrel", "street": "Hauptstraße 15"}, 
{"plz": "49685", "ort": "Emstek", "name": "Emstek", "street": "Am Markt 1"}, 
{"plz": "49688", "ort": "Lastrup", "name": "Lastrup", "street": "Am Marktplatz 1"}, 
{"plz": "49692", "ort": "Cappeln/Oldenburg", "name": "Cappeln (Oldenburg)", "street": "Am Markt 3"}, 
{"plz": "49696", "ort": "Molbergen", "name": "Molbergen", "street": "Cloppenburger Straße 22"}, 
{"plz": "49699", "ort": "Lindern/Oldenburg", "name": "Lindern (Oldenburg)", "street": "Kirchstraße 1"}, 
{"plz": "49716", "ort": "Meppen", "name": "Meppen, Stadt", "street": "Markt 43"}, 
{"plz": "49733", "ort": "Haren/Ems", "name": "Haren (Ems), Stadt", "street": "Neuer Markt 1"}, 
{"plz": "49740", "ort": "Haselünne", "name": "Haselünne, Stadt", "street": "Rathausplatz 1"}, 
{"plz": "49744", "ort": "Geeste", "name": "Geeste", "street": "Am Rathaus 3"}, 
{"plz": "49751", "ort": "Sögel", "name": "Spahnharrenstätte", "street": "Ludmillenhof 1"}, 
{"plz": "49757", "ort": "Werlte", "name": "Werlte, Stadt", "street": "Marktstraße 1"}, 
{"plz": "49762", "ort": "Lathen", "name": "Niederlangen", "street": "Erna-de-Vries-Platz 7"}, 
{"plz": "49767", "ort": "Twist", "name": "Twist", "street": "Flensbergstraße 7"}, 
{"plz": "49770", "ort": "Herzlake", "name": "Herzlake", "street": "Neuer Markt 4"}, 
{"plz": "49808", "ort": "Lingen/Ems", "name": "Lingen (Ems), Stadt", "street": "Elisabethstraße 14-16"}, 
{"plz": "49824", "ort": "Emlichheim", "name": "Emlichheim", "street": "Hauptstraße 24"}, 
{"plz": "49828", "ort": "Neuenhaus", "name": "Neuenhaus, Stadt", "street": "Veldhausener Straße 26"}, 
{"plz": "49832", "ort": "Freren", "name": "Freren, Stadt", "street": "Markt 1"}, 
{"plz": "49835", "ort": "Wietmarschen", "name": "Wietmarschen", "street": "Hauptstraße 62"}, 
{"plz": "49838", "ort": "Lengerich", "name": "Lengerich", "street": "Mittelstraße 15"}, 
{"plz": "49843", "ort": "Uelsen", "name": "Itterbeck", "street": "Itterbecker Straße 11"}]