[{"plz": "27211", "ort": "Bassum", "name": "Bassum, Stadt", "street": "Alte Poststraße 10"}, 
{"plz": "27232", "ort": "Sulingen", "name": "Sulingen, Stadt", "street": "Galtener Straße 12"}, 
{"plz": "27239", "ort": "Twistringen", "name": "Twistringen, Stadt", "street": "Lindenstraße 14"}, 
{"plz": "27243", "ort": "Harpstedt", "name": "Harpstedt, Flecken", "street": "Amtsfreiheit 1"}, 
{"plz": "27245", "ort": "Kirchdorf", "name": "Barenburg, Flecken", "street": "Rathausstraße 12"}, 
{"plz": "27252", "ort": "Schwaförden", "name": "Neuenkirchen", "street": "Poststraße 157"}, 
{"plz": "27254", "ort": "Siedenburg", "name": "Siedenburg, Flecken", "street": "Allee 4"}, 
{"plz": "27283", "ort": "Verden/Aller", "name": "Verden (Aller), Stadt", "street": "Große Straße 40"}, 
{"plz": "27299", "ort": "Langwedel", "name": "Langwedel, Flecken", "street": "Große Straße 1"}, 
{"plz": "27305", "ort": "Bruchhausen-Vilsen", "name": "Bruchhausen-Vilsen, Flecken", "street": "Lange Straße 11"}, 
{"plz": "27308", "ort": "Kirchlinteln", "name": "Kirchlinteln", "street": "Am Rathaus 1"}, 
{"plz": "27313", "ort": "Dörverden", "name": "Dörverden", "street": "Große Straße 80"}, 
{"plz": "27318", "ort": "Hoya (Weser)", "name": "Bücken, Flecken", "street": "Schloßplatz 2"}, 
{"plz": "27321", "ort": "Thedinghausen", "name": "Thedinghausen", "street": "Braunschweiger Straße 10"}, 
{"plz": "27336", "ort": "Rethem/Aller", "name": "Rethem (Aller), Stadt", "street": "Lange Straße 4"}, 
{"plz": "27356", "ort": "Rotenburg/Wümme", "name": "Rotenburg (Wümme), Stadt", "street": "Große Straße 1"}, 
{"plz": "27367", "ort": "Sottrum", "name": "Hassendorf", "street": "Am Eichkamp 12"}, 
{"plz": "27374", "ort": "Visselhövede", "name": "Visselhövede, Stadt", "street": "Marktplatz 2"}, 
{"plz": "27383", "ort": "Scheeßel", "name": "Scheeßel", "street": "Untervogtplatz 1"}, 
{"plz": "27386", "ort": "Bothel", "name": "Westerwalsede", "street": "Horstweg 17"}, 
{"plz": "27389", "ort": "Lauenbrück", "name": "Lauenbrück", "street": "Berliner Straße 3"}, 
{"plz": "27404", "ort": "Zeven", "name": "Zeven, Stadt", "street": "Am Markt 4"}, 
{"plz": "27412", "ort": "Tarmstedt", "name": "Westertimke", "street": "Hepstedter Straße 9"}, 
{"plz": "27419", "ort": "Sittensen", "name": "Klein Meckelsen", "street": "Am Markt 11"}, 
{"plz": "27432", "ort": "Oerel", "name": "Ebersdorf", "street": "Bohlenstraße 10"}, 
{"plz": "27432", "ort": "Bremervörde", "name": "Bremervörde, Stadt", "street": "Rathausmarkt 1"}, 
{"plz": "27442", "ort": "Gnarrenburg", "name": "Gnarrenburg", "street": "Bahnhofstraße 1"}, 
{"plz": "27446", "ort": "Selsingen", "name": "Ostereistedt", "street": "Hauptstraße 30"}, 
{"plz": "27472", "ort": "Cuxhaven", "name": "Cuxhaven, Stadt", "street": "Rathausplatz 1"}, 
{"plz": "27498", "ort": "Helgoland", "name": "Helgoland", "street": "Lung Wai 28"}, 
{"plz": "27576", "ort": "Bremerhaven", "name": "Bremerhaven Nord", "street": "Hinrich-Schmalfeldt-Str. 30", "phone": "0471-590-3470", "email": "buergerbuero-nord@magistrat.bremerhaven.de"}, 
{"plz": "27576", "ort": "Bremerhaven", "name": "Bremerhaven, Stadt", "street": "Hinrich-Schmalfeldt-Straße"}, 
{"plz": "27576", "ort": "Bremerhaven", "name": "Bremerhaven Mitte", "street": "Bürgermeister-Smidt-Str. 10", "phone": "0471-590-3470", "email": "buergerbuero@magistrat.bremerhaven.de"}, 
{"plz": "27607", "ort": "Geestland", "name": "Geestland, Stadt", "street": "Sieverner Straße 10"}, 
{"plz": "27612", "ort": "Loxstedt", "name": "Loxstedt", "street": "Am Wedenberg 10"}, 
{"plz": "27616", "ort": "Beverstedt", "name": "Beverstedt", "street": "Schulstraße 2"}, 
{"plz": "27619", "ort": "Schiffdorf", "name": "Schiffdorf", "street": "Brameler Straße 13"}, 
{"plz": "27628", "ort": "Hagen im Bremischen", "name": "Hagen im Bremischen", "street": "Amtsplatz 3"}, 
{"plz": "27639", "ort": "Wurster Nordseeküste", "name": "Wurster Nordseeküste", "street": "Westerbüttel 13"}, 
{"plz": "27711", "ort": "Osterholz-Scharmbeck", "name": "Osterholz-Scharmbeck, Stadt", "street": "Rathausstraße 1"}, 
{"plz": "27721", "ort": "Ritterhude", "name": "Ritterhude", "street": "Riesstraße 40"}, 
{"plz": "27726", "ort": "Worpswede", "name": "Worpswede", "street": "Bauernreihe 1"}, 
{"plz": "27729", "ort": "Hambergen", "name": "Lübberstedt", "street": "Bremer Straße 2"}, 
{"plz": "27749", "ort": "Delmenhorst", "name": "Delmenhorst, Stadt", "street": "Rathausplatz 1"}, 
{"plz": "27749", "ort": "Delmenhorst", "name": "Delmenhorst City-Center (CCD)", "street": "Lange Str. 1a", "phone": "04221-99-1999", "email": "buergerbuero@delmenhorst.de"}, 
{"plz": "27777", "ort": "Ganderkesee", "name": "Ganderkesee", "street": "Mühlenstraße 2-4"}, 
{"plz": "27793", "ort": "Wildeshausen", "name": "Wildeshausen, Stadt", "street": "Am Markt 1"}, 
{"plz": "27798", "ort": "Hude/Oldenburg", "name": "Hude (Oldb)", "street": "Parkstraße 53"}, 
{"plz": "27801", "ort": "Neerstedt", "name": "Dötlingen", "street": "Hauptstraße 26"}, 
{"plz": "27804", "ort": "Berne", "name": "Berne", "street": "Am Breithof 6"}, 
{"plz": "27809", "ort": "Lemwerder", "name": "Lemwerder", "street": "Stedinger Straße 51"}]