[{"plz": "25335", "ort": "Elmshorn", "name": "Klein Offenseth-Sparrieshoop", "street": "Lornsenstraße 52"}, 
{"plz": "25335", "ort": "Elmshorn", "name": "Elmshorn, Stadt", "street": "Schulstraße 15-17"}, 
{"plz": "25348", "ort": "Glückstadt", "name": "Glückstadt, Stadt", "street": "Am Markt 4"}, 
{"plz": "25355", "ort": "Barmstedt", "name": "Groß Offenseth-Aspern", "street": "Chemnitzstraße 30"}, 
{"plz": "25355", "ort": "Barmstedt", "name": "Brande-Hörnerkirchen", "street": "Am Markt 1"}, 
{"plz": "25358", "ort": "Horst (Holstein)", "name": "Engelbrechtsche Wildnis", "street": "Elmshorner Straße 27"}, 
{"plz": "25361", "ort": "Krempe", "name": "Krempe, Stadt", "street": "Birkenweg 29"}, 
{"plz": "25421", "ort": "Pinneberg", "name": "Pinneberg, Stadt", "street": "Bismarckstraße 8"}, 
{"plz": "25436", "ort": "Moorrege", "name": "Groß Nordende", "street": "Amtsstraße 12"}, 
{"plz": "25436", "ort": "Tornesch", "name": "Tornesch, Stadt", "street": "Wittstocker Straße 7"}, 
{"plz": "25436", "ort": "Uetersen", "name": "Uetersen, Stadt", "street": "Wassermühlenstraße 7"}, 
{"plz": "25451", "ort": "Quickborn", "name": "Quickborn, Stadt", "street": "Rathausplatz 1"}, 
{"plz": "25462", "ort": "Rellingen", "name": "Borstel-Hohenraden", "street": "Hauptstraße 60"}, 
{"plz": "25469", "ort": "Halstenbek", "name": "Halstenbek", "street": "Gustavstraße 6"}, 
{"plz": "25479", "ort": "Ellerau", "name": "Ellerau", "street": "Berliner Damm 2"}, 
{"plz": "25524", "ort": "Itzehoe", "name": "Heiligenstedtenerkamp", "street": "Margarete-Steiff-Weg 3"}, 
{"plz": "25524", "ort": "Breitenburg", "name": "Wittenbergen", "street": "Osterholz 5"}, 
{"plz": "25524", "ort": "Itzehoe", "name": "Itzehoe, Stadt", "street": "Reichenstraße 23"}, 
{"plz": "25541", "ort": "Brunsbüttel", "name": "Brunsbüttel, Stadt", "street": "Koogstraße 61-63"}, 
{"plz": "25548", "ort": "Kellinghusen", "name": "Kellinghusen, Stadt", "street": "Am Markt 9"}, 
{"plz": "25554", "ort": "Wilster", "name": "Neuendorf-Sachsenbande", "street": "Kohlmarkt 25"}, 
{"plz": "25560", "ort": "Schenefeld", "name": "Holstenniendorf", "street": "Mühlenstraße 2"}, 
{"plz": "25704", "ort": "Meldorf", "name": "Tensbüttel-Röst", "street": "Hindenburgstraße 18"}, 
{"plz": "25709", "ort": "Marne", "name": "Diekhusen-Fahrstedt", "street": "Alter Kirchhof 4-5"}, 
{"plz": "25712", "ort": "Burg (Dith.)", "name": "Burg (Dithmarschen)", "street": "Holzmarkt 7"}, 
{"plz": "25746", "ort": "Heide", "name": "Stelle-Wittenwurth", "street": "Kirchspielsweg 6"}, 
{"plz": "25746", "ort": "Heide", "name": "Heide, Stadt", "street": "Postelweg 1"}, 
{"plz": "25761", "ort": "Büsum", "name": "Hellschen-Heringsand-Unterschaar", "street": "Kaiser-Wilhelm-Platz"}, 
{"plz": "25779", "ort": "Hennstedt", "name": "Rehm-Flehde-Bargen", "street": "Kirchspielsschreiber-Schmidt-Straße 1"}, 
{"plz": "25813", "ort": "Husum", "name": "Hallig Hooge", "street": "Zingel 10"}, 
{"plz": "25821", "ort": "Bredstedt", "name": "Bredstedt, Stadt", "street": "Theodor-Storm-Straße 2"}, 
{"plz": "25832", "ort": "Tönning", "name": "Tönning, Stadt", "street": "Am Markt 1"}, 
{"plz": "25836", "ort": "Garding", "name": "Norderfriedrichskoog", "street": "Welter Straße 1"}, 
{"plz": "25840", "ort": "Friedrichstadt", "name": "Friedrichstadt, Stadt", "street": "Am Markt 11"}, 
{"plz": "25866", "ort": "Mildstedt", "name": "Elisabeth-Sophien-Koog", "street": "Schulweg 19"}, 
{"plz": "25884", "ort": "Viöl", "name": "Wester-Ohrstedt", "street": "Westerende 41"}, 
{"plz": "25899", "ort": "Niebüll", "name": "Friedrich-Wilhelm-Lübke-Koog", "street": "Marktstraße 12"}, 
{"plz": "25938", "ort": "Wyk auf Föhr", "name": "Wyk auf Föhr, Stadt", "street": "Hafenstraße 23"}, 
{"plz": "25980", "ort": "Sylt", "name": "Wenningstedt-Braderup (Sylt)", "street": "Andreas-Nielsen-Straße 1"}]