[{"plz": "24103", "ort": "Kiel", "name": "Kiel, Landeshauptstadt", "street": "Fleethörn 9", "phone": "0431-901-900", "email": "ema@kiel.de"}, 
{"plz": "24107", "ort": "Kiel", "name": "Kiel Stadtteilbürgeramt Suchsdorf", "street": "Amrumring 2", "phone": "0431-901-900", "email": "ema@kiel.de"}, 
{"plz": "24109", "ort": "Kiel", "name": "Kiel Stadtteilbürgeramt Mettenhof", "street": "Skandinaviendamm 299", "phone": "0431-901-900", "email": "ema@kiel.de"}, 
{"plz": "24113", "ort": "Molfsee", "name": "Mielkendorf", "street": "Mielkendorfer Weg 2"}, 
{"plz": "24113", "ort": "Kiel", "name": "Kiel Stadtteilbürgeramt Hassee", "street": "Saarbrückenstr. 147", "phone": "0431-901-904", "email": "ema@kiel.de"}, 
{"plz": "24119", "ort": "Kronshagen", "name": "Kronshagen", "street": "Kopperpahler Allee 5"}, 
{"plz": "24143", "ort": "Kiel", "name": "Kiel Stadtteilbürgeramt Gaarden", "street": "Schulstr. 35 a", "phone": "0431-901-900", "email": "ema@kiel.de"}, 
{"plz": "24146", "ort": "Kiel", "name": "Kiel Elmschenhagen", "street": "Reichenberger Allee 2c", "phone": "0431-901-900", "email": "ema@kiel.de"}, 
{"plz": "24149", "ort": "Kiel", "name": "Kiel Neumühlen/Dietrichsdorf", "street": "Tiefe Allee 45", "phone": "0431-901-900", "email": "ema@kiel.de"}, 
{"plz": "24159", "ort": "Kiel", "name": "Kiel Pries/Friedrichsort", "street": "An der Schanze 45", "phone": "0431-901-900", "email": "ema@kiel.de"}, 
{"plz": "24161", "ort": "Altenholz", "name": "Altenholz", "street": "Allensteiner Weg 2-4"}, 
{"plz": "24211", "ort": "Schellhorn", "name": "Klein Barkau", "street": "Am Berg 2"}, 
{"plz": "24211", "ort": "Preetz", "name": "Preetz, Stadt", "street": "Bahnhofstraße 24"}, 
{"plz": "24214", "ort": "Gettorf", "name": "Neudorf-Bornstein", "street": "Karl-Kolbe-Platz 1"}, 
{"plz": "24217", "ort": "Schönberg", "name": "Schönberg (Holstein)", "street": "Knüll 4"}, 
{"plz": "24220", "ort": "Flintbek", "name": "Techelsdorf", "street": "Heitmannskamp 2"}, 
{"plz": "24223", "ort": "Schwentinental", "name": "Schwentinental, Stadt", "street": "Theodor-Storm-Platz 1"}, 
{"plz": "24226", "ort": "Heikendorf", "name": "Schönkirchen", "street": "Dorfplatz 2"}, 
{"plz": "24229", "ort": "Dänischenhagen", "name": "Dänischenhagen", "street": "Sturenhagener Weg 14"}, 
{"plz": "24238", "ort": "Selent", "name": "Fargau-Pratjau", "street": "Kieler Straße 18"}, 
{"plz": "24239", "ort": "Achterwehr", "name": "Achterwehr", "street": "Inspektor-Weimar-Weg 17"}, 
{"plz": "24306", "ort": "Plön", "name": "Rathjensdorf", "street": "Heinrich-Rieper-Straße 8"}, 
{"plz": "24306", "ort": "Plön", "name": "Ascheberg (Holstein)", "street": "Schloßberg 3-4"}, 
{"plz": "24321", "ort": "Lütjenburg", "name": "Behrensdorf (Ostsee)", "street": "Neverstorfer Straße 7"}, 
{"plz": "24340", "ort": "Eckernförde", "name": "Hummelfeld", "street": "Holm 13"}, 
{"plz": "24340", "ort": "Eckernförde", "name": "Eckernförde, Stadt", "street": "Rathausmarkt 4-6"}, 
{"plz": "24361", "ort": "Groß Wittensee", "name": "Ahlefeld-Bistensee", "street": "Mühlenstraße 8"}, 
{"plz": "24376", "ort": "Kappeln", "name": "Rabenkirchen-Faulück", "street": "Reeperbahn 2"}, 
{"plz": "24392", "ort": "Süderbrarup", "name": "Norderbrarup", "street": "team Allee 22"}, 
{"plz": "24534", "ort": "Neumünster", "name": "Bönebüttel", "street": "Großflecken 63", "phone": "04321-9422-600", "email": "buergerbuero@neumuenster.de"}, 
{"plz": "24534", "ort": "Neumünster", "name": "Neumünster, Stadt", "street": "Großflecken 59"}, 
{"plz": "24558", "ort": "Henstedt-Ulzburg", "name": "Henstedt-Ulzburg", "street": "Rathausplatz 1"}, 
{"plz": "24568", "ort": "Kattendorf", "name": "Sievershütten", "street": "Winsener Straße 2"}, 
{"plz": "24568", "ort": "Kaltenkirchen", "name": "Kaltenkirchen, Stadt", "street": "Holstenstraße 14"}, 
{"plz": "24568", "ort": "Nützen", "name": "Lentföhrden", "street": "Kirchenweg 11"}, 
{"plz": "24576", "ort": "Bad Bramstedt", "name": "Föhrden-Barl", "street": "König-Christian-Straße 6"}, 
{"plz": "24576", "ort": "Bad Bramstedt", "name": "Bad Bramstedt, Stadt", "street": "Bleeck 17-19"}, 
{"plz": "24582", "ort": "Bordesholm", "name": "Groß Buchwald", "street": "Mühlenstraße 7"}, 
{"plz": "24589", "ort": "Nortorf", "name": "Schülp b. Nortorf", "street": "Niedernstraße 6"}, 
{"plz": "24594", "ort": "Hohenwestedt", "name": "Rade b. Hohenwestedt", "street": "Am Markt 15"}, 
{"plz": "24598", "ort": "Boostedt", "name": "Groß Kummerfeld", "street": "Twiete 9"}, 
{"plz": "24601", "ort": "Wankendorf", "name": "Schillsdorf", "street": "Kampstraße 1"}, 
{"plz": "24610", "ort": "Trappenkamp", "name": "Schmalensee", "street": "Am Markt 3"}, 
{"plz": "24768", "ort": "Rendsburg", "name": "Rendsburg, Stadt", "street": "Am Gymnasium 4"}, 
{"plz": "24782", "ort": "Büdelsdorf", "name": "Büdelsdorf, Stadt", "street": "Am Markt 1"}, 
{"plz": "24783", "ort": "Osterrönfeld", "name": "Ostenfeld (Rendsburg)", "street": "Schulstraße 36"}, 
{"plz": "24787", "ort": "Fockbek", "name": "Elsdorf-Westermühlen", "street": "Rendsburger Straße 42"}, 
{"plz": "24808", "ort": "Jevenstedt", "name": "Schülp b. Rendsburg", "street": "Meiereistraße 5"}, 
{"plz": "24837", "ort": "Schleswig", "name": "Schleswig, Stadt", "street": "Rathausmarkt 1"}, 
{"plz": "24848", "ort": "Kropp", "name": "Klein Bennebek", "street": "Am Markt 10"}, 
{"plz": "24852", "ort": "Eggebek", "name": "Süderhackstedt", "street": "Hauptstraße 2"}, 
{"plz": "24860", "ort": "Böklund", "name": "Brodersby-Goltoft", "street": "Toft 7"}, 
{"plz": "24866", "ort": "Busdorf", "name": "Dannewerk", "street": "Rendsburger Straße 54 c"}, 
{"plz": "24887", "ort": "Silberstedt", "name": "Bollingstedt", "street": "Hauptstraße 41"}, 
{"plz": "24937", "ort": "Flensburg", "name": "Flensburg, Stadt", "street": "Rathausplatz 1", "phone": "0461-852-124", "email": "buergerbuero@flensburg.de"}, 
{"plz": "24955", "ort": "Harrislee", "name": "Harrislee", "street": "Süderstraße 101"}, 
{"plz": "24960", "ort": "Glücksburg (Ostsee)", "name": "Glücksburg (Ostsee), Stadt", "street": "Schinderdam 5"}, 
{"plz": "24963", "ort": "Tarp", "name": "Sieverstedt", "street": "Tornschauer Straße 3-5"}, 
{"plz": "24972", "ort": "Steinbergkirche", "name": "Steinbergkirche", "street": "Holmlück 2"}, 
{"plz": "24975", "ort": "Hürup", "name": "Freienwill", "street": "Schulstraße 1"}, 
{"plz": "24977", "ort": "Langballig", "name": "Munkbrarup", "street": "Süderende 1"}, 
{"plz": "24980", "ort": "Schafflund", "name": "Nordhackstedt", "street": "Tannenweg 1"}, 
{"plz": "24983", "ort": "Handewitt", "name": "Handewitt", "street": "Hauptstraße 9"}, 
{"plz": "24986", "ort": "Mittelangeln", "name": "Schnarup-Thumby", "street": "Bahnhofstraße 1"}]